<?xml version='1.0' encoding='utf-8'?>
<osm generator="OSM Conflator 1.3.1" version="0.6"><changeset><tag k="source" v="Mise"/><tag k="type" v="import"/><tag k="created_by" v="OSM Conflator 1.3.1"/></changeset><node id="738944812" version="3" lat="45.5238552" lon="8.1963491" action="modify"><tag k="fixme" v="This object might have been dismantled, please check"/><tag k="ref:mise" v="13482"/><tag k="amenity" v="fuel"/><tag k="operator" v="Self Pies S.R.L."/></node><node id="2455272794" version="2" lat="45.6848984" lon="8.2438023" action="modify"><tag k="fixme" v="This object might have been dismantled, please check"/><tag k="ref:mise" v="18350"/><tag k="amenity" v="fuel"/><tag k="building" v="yes"/><tag k="brand" v="Tamoil"/><tag k="operator" v="Lombi Massimiliano"/></node><node id="227894264" version="6" lat="45.575634" lon="8.1862855" action="modify"><tag k="fixme" v="This object might have been dismantled, please check"/><tag k="name" v="Total-Erg"/><tag k="ref:mise" v="12925"/><tag k="amenity" v="fuel"/><tag k="brand" v="Total Erg"/><tag k="operator" v="Max &amp; Fra S.N.C. di Fangazio M. e Marcuzzi F."/></node><node id="228022933" version="5" lat="45.5289796" lon="7.907519" action="modify"><tag k="fixme" v="This object might have been dismantled, please check"/><tag k="ref:mise" v="13479"/><tag k="amenity" v="fuel"/><tag k="brand" v="Q8"/><tag k="operator" v="Self Pies S.R.L."/></node><node id="2385382121" version="2" lat="45.558334" lon="7.9812686" action="modify"><tag k="fixme" v="This object might have been dismantled, please check"/><tag k="ref:mise" v="38815"/><tag k="amenity" v="fuel"/><tag k="brand" v="Q8"/><tag k="operator" v="Giorcelli Andrea"/></node><node id="5851844651" version="2" lat="45.6067754" lon="8.0560148" action="modify"><tag k="fixme" v="This object might have been dismantled, please check"/><tag k="ref:mise" v="14998"/><tag k="amenity" v="fuel"/><tag k="brand" v="Tamoil"/><tag k="operator" v="Vercellotti Renato"/></node></osm>