<?xml version='1.0' encoding='utf-8'?>
<osm generator="OSM Conflator 1.3.1" version="0.6"><changeset><tag k="created_by" v="OSM Conflator 1.3.1"/><tag k="type" v="import"/><tag k="source" v="Mise"/></changeset><node id="5851843592" version="1" lat="44.6473298" lon="7.6506812" action="modify"><tag k="fuel:octane_95" v="yes"/><tag k="amenity" v="fuel"/><tag k="fuel:diesel" v="yes"/><tag k="brand" v="Europam"/><tag k="operator" v="Testa Gianluca"/><tag k="ref:mise" v="18500"/></node><node id="5851831394" version="1" lat="44.6938209" lon="7.8584996" action="modify"><tag k="fuel:octane_95" v="yes"/><tag k="amenity" v="fuel"/><tag k="fuel:diesel" v="yes"/><tag k="brand" v="Agip Eni"/><tag k="operator" v="Patrone e Riverditi S.N.C."/><tag k="ref:mise" v="7420"/></node><node id="5851841816" version="2" lat="44.408309" lon="8.1772801" action="modify"><tag k="fuel:octane_95" v="yes"/><tag k="amenity" v="fuel"/><tag k="fuel:diesel" v="yes"/><tag k="brand" v="Kerotris"/><tag k="operator" v="Kerotris - Società a Responsabilità Limitata"/><tag k="ref:mise" v="24701"/></node><node id="5851845548" version="1" lat="44.536089" lon="7.9360503" action="modify"><tag k="fuel:octane_95" v="yes"/><tag k="amenity" v="fuel"/><tag k="fuel:diesel" v="yes"/><tag k="brand" v="Q8"/><tag k="operator" v="Servizi &amp; Gestioni Italia S.R.L."/><tag k="ref:mise" v="11554"/></node><node id="5851832209" version="2" lat="44.8031205" lon="7.8013113" action="modify"><tag k="fuel:octane_95" v="yes"/><tag k="addr:city" v="Ceresole Alba"/><tag k="addr:postcode" v="12040"/><tag k="addr:street" v="Via Carmagnola"/><tag k="fixme" v="verificare cambio brand"/><tag k="addr:housenumber" v="79"/><tag k="amenity" v="fuel"/><tag k="fuel:lpg" v="yes"/><tag k="fuel:diesel" v="yes"/><tag k="brand" v="Api-Ip"/><tag k="operator" v="Rally S.N.C. di Caveglia Beatris Fabrizio &amp; C."/><tag k="ref:mise" v="40278"/></node><node id="5853343136" version="3" lat="44.3973207" lon="7.4819885" action="modify"><tag k="fuel:octane_95" v="yes"/><tag k="amenity" v="fuel"/><tag k="fuel:lpg" v="yes"/><tag k="fuel:diesel" v="yes"/><tag k="operator" v="Saced S.R.L."/><tag k="ref:mise" v="40018"/></node><node id="5851837176" version="1" lat="44.6860791" lon="7.8939584" action="modify"><tag k="fuel:octane_95" v="yes"/><tag k="amenity" v="fuel"/><tag k="fuel:diesel" v="yes"/><tag k="brand" v="Europam"/><tag k="operator" v="Europam S.P.A."/><tag k="ref:mise" v="33421"/></node><node id="5851831969" version="1" lat="44.6480713" lon="7.6519689" action="modify"><tag k="fuel:octane_95" v="yes"/><tag k="amenity" v="fuel"/><tag k="fuel:diesel" v="yes"/><tag k="brand" v="Europam"/><tag k="operator" v="Singh Yugraj"/><tag k="ref:mise" v="40451"/></node><node id="5851833410" version="1" lat="44.5840586" lon="8.191841" action="modify"><tag k="fuel:octane_95" v="yes"/><tag k="amenity" v="fuel"/><tag k="fuel:diesel" v="yes"/><tag k="brand" v="Total Erg"/><tag k="operator" v="Ranieri di Caffa Massimo"/><tag k="ref:mise" v="42053"/></node><node id="5851845549" version="1" lat="44.5922394" lon="7.6595078" action="modify"><tag k="fuel:octane_95" v="yes"/><tag k="amenity" v="fuel"/><tag k="fuel:diesel" v="yes"/><tag k="brand" v="Q8"/><tag k="operator" v="Servizi &amp; Gestioni Italia S.R.L."/><tag k="ref:mise" v="11553"/></node><node id="5851845286" version="2" lat="44.4881984" lon="8.1426588" action="modify"><tag k="fuel:octane_95" v="yes"/><tag k="amenity" v="fuel"/><tag k="fuel:diesel" v="yes"/><tag k="brand" v="Kerotris"/><tag k="operator" v="Kerotris - Società a Responsabilità Limitata"/><tag k="ref:mise" v="13130"/></node><node id="5851838441" version="1" lat="44.7254086" lon="8.1204617" action="modify"><tag k="fuel:octane_95" v="yes"/><tag k="amenity" v="fuel"/><tag k="fuel:diesel" v="yes"/><tag k="brand" v="Europam"/><tag k="operator" v="Europam S.P.A."/><tag k="ref:mise" v="28714"/></node><node id="5851836871" version="1" lat="44.4603292" lon="7.8217824" action="modify"><tag k="fuel:octane_95" v="yes"/><tag k="amenity" v="fuel"/><tag k="fuel:diesel" v="yes"/><tag k="brand" v="Europam"/><tag k="operator" v="Europam S.P.A."/><tag k="ref:mise" v="34242"/></node><node id="5851841847" version="1" lat="44.6387917" lon="7.7920988" action="modify"><tag k="fuel:octane_95" v="yes"/><tag k="amenity" v="fuel"/><tag k="fuel:diesel" v="yes"/><tag k="brand" v="Agip Eni"/><tag k="operator" v="Tuninetti Gianni"/><tag k="ref:mise" v="24423"/></node><node id="5853343569" version="2" lat="44.6476981" lon="7.3463402" action="modify"><tag k="fuel:octane_95" v="yes"/><tag k="amenity" v="fuel"/><tag k="fuel:diesel" v="yes"/><tag k="brand" v="Dalle petroli"/><tag k="operator" v="Dalle S.A.S. di Dalle Alberto e C."/><tag k="ref:mise" v="35122"/></node><node id="5853344463" version="2" lat="44.4317881" lon="7.5062792" action="modify"><tag k="fuel:octane_95" v="yes"/><tag k="fuel:diesel" v="yes"/><tag k="amenity" v="fuel"/><tag k="operator" v="Red Power S.R.L."/><tag k="ref:mise" v="23863"/></node><node id="5851837303" version="1" lat="44.4902381" lon="7.5776911" action="modify"><tag k="fuel:octane_95" v="yes"/><tag k="amenity" v="fuel"/><tag k="fuel:diesel" v="yes"/><tag k="brand" v="Total Erg"/><tag k="operator" v="Giuliano Ettore"/><tag k="ref:mise" v="32608"/></node><node id="5851843061" version="1" lat="44.4718196" lon="8.022343" action="modify"><tag k="fuel:octane_95" v="yes"/><tag k="amenity" v="fuel"/><tag k="fuel:diesel" v="yes"/><tag k="brand" v="SACED"/><tag k="operator" v="Saced S.R.L."/><tag k="ref:mise" v="20994"/></node><node id="5851843063" version="1" lat="44.4241193" lon="8.0955271" action="modify"><tag k="fuel:octane_95" v="yes"/><tag k="amenity" v="fuel"/><tag k="fuel:diesel" v="yes"/><tag k="brand" v="SACED"/><tag k="operator" v="Saced S.R.L."/><tag k="ref:mise" v="20990"/></node><node id="5851843888" version="1" lat="44.7145104" lon="8.2364631" action="modify"><tag k="fuel:octane_95" v="yes"/><tag k="amenity" v="fuel"/><tag k="fuel:octane_100" v="yes"/><tag k="fuel:diesel" v="yes"/><tag k="brand" v="Agip Eni"/><tag k="operator" v="Allasia Giuseppe"/><tag k="ref:mise" v="17335"/></node><node id="5853344561" version="2" lat="44.3266396" lon="7.4898568" action="modify"><tag k="fuel:octane_95" v="yes"/><tag k="fuel:diesel" v="yes"/><tag k="amenity" v="fuel"/><tag k="operator" v="Pedona Petroli S.A.S. di Bosticardo Mario &amp; Figli Siglabile Pedona Petroli S.A.S."/><tag k="ref:mise" v="20705"/></node><node id="5851834079" version="1" lat="44.4063621" lon="7.9351115" action="modify"><tag k="fuel:octane_95" v="yes"/><tag k="amenity" v="fuel"/><tag k="fuel:lpg" v="yes"/><tag k="fuel:diesel" v="yes"/><tag k="brand" v="DIS-CAR"/><tag k="operator" v="Dis-car di Piovano Claudio"/><tag k="ref:mise" v="38100"/></node><node id="5851836461" version="1" lat="44.7218198" lon="8.0374466" action="modify"><tag k="fuel:octane_95" v="yes"/><tag k="amenity" v="fuel"/><tag k="fuel:lpg" v="yes"/><tag k="fuel:diesel" v="yes"/><tag k="brand" v="CONAD"/><tag k="operator" v="G.D. Srl"/><tag k="ref:mise" v="35016"/></node><node id="5851836856" version="1" lat="44.6137723" lon="8.0675483" action="modify"><tag k="fuel:octane_95" v="yes"/><tag k="amenity" v="fuel"/><tag k="fuel:diesel" v="yes"/><tag k="brand" v="Api-Ip"/><tag k="operator" v="Ip Services S.R.L."/><tag k="ref:mise" v="34315"/></node><node id="5853343457" version="2" lat="44.6874191" lon="8.0102637" action="modify"><tag k="fuel:octane_95" v="yes"/><tag k="amenity" v="fuel"/><tag k="fuel:lpg" v="yes"/><tag k="fuel:diesel" v="yes"/><tag k="fuel:cng" v="yes"/><tag k="operator" v="S.A.S.&amp; Oil S.R.L. Siglabile, Ove Consentito, S.A.S.e Oil Srl, Gas&amp;oil Srl, G&amp;o Srl"/><tag k="ref:mise" v="37314"/></node><node id="5853345314" version="2" lat="44.6844818" lon="7.5715231" action="modify"><tag k="fuel:octane_95" v="yes"/><tag k="amenity" v="fuel"/><tag k="fuel:lpg" v="yes"/><tag k="fuel:diesel" v="yes"/><tag k="operator" v="Centro Calor S.R.L."/><tag k="ref:mise" v="10528"/></node><node id="5851843062" version="1" lat="44.5454272" lon="8.1056309" action="modify"><tag k="fuel:octane_95" v="yes"/><tag k="amenity" v="fuel"/><tag k="fuel:diesel" v="yes"/><tag k="brand" v="SACED"/><tag k="operator" v="Saced S.R.L."/><tag k="ref:mise" v="20992"/></node><node id="5853343427" version="2" lat="44.5446472" lon="8.139119" action="modify"><tag k="fuel:octane_95" v="yes"/><tag k="fuel:diesel" v="yes"/><tag k="amenity" v="fuel"/><tag k="operator" v="Saced S.R.L."/><tag k="ref:mise" v="38136"/></node><node id="5851845698" version="1" lat="44.7888171" lon="8.0028105" action="modify"><tag k="fuel:octane_95" v="yes"/><tag k="amenity" v="fuel"/><tag k="fuel:diesel" v="yes"/><tag k="brand" v="Total Erg"/><tag k="operator" v="Ip Services S.R.L."/><tag k="ref:mise" v="10104"/></node><node id="5851833477" version="1" lat="44.5055128" lon="7.8979388" action="modify"><tag k="fuel:octane_95" v="yes"/><tag k="amenity" v="fuel"/><tag k="fuel:lpg" v="yes"/><tag k="fuel:diesel" v="yes"/><tag k="brand" v="Socogas"/><tag k="operator" v="Fresia Davide"/><tag k="ref:mise" v="38638"/></node><node id="5851837658" version="1" lat="44.8023007" lon="7.8113859" action="modify"><tag k="fuel:octane_95" v="yes"/><tag k="amenity" v="fuel"/><tag k="fuel:diesel" v="yes"/><tag k="brand" v="Europam"/><tag k="operator" v="Europam S.P.A."/><tag k="ref:mise" v="30839"/></node><node id="5851841872" version="1" lat="44.749043" lon="7.8034299" action="modify"><tag k="fuel:octane_95" v="yes"/><tag k="amenity" v="fuel"/><tag k="fuel:diesel" v="yes"/><tag k="brand" v="Q8"/><tag k="operator" v="Servizi &amp; Gestioni Italia S.R.L."/><tag k="ref:mise" v="24226"/></node><node id="5851835045" version="1" lat="44.749007" lon="7.3169509" action="modify"><tag k="fuel:octane_95" v="yes"/><tag k="amenity" v="fuel"/><tag k="fuel:diesel" v="yes"/><tag k="brand" v="Esso"/><tag k="operator" v="Comba Pierino"/><tag k="ref:mise" v="36885"/></node><node id="5851834017" version="1" lat="44.463947" lon="7.631751" action="modify"><tag k="fuel:octane_95" v="yes"/><tag k="amenity" v="fuel"/><tag k="fuel:lpg" v="yes"/><tag k="fuel:diesel" v="yes"/><tag k="brand" v="Agip Eni"/><tag k="operator" v="D.A.R.M. Petroli S.R.L."/><tag k="ref:mise" v="38409"/></node><node id="5851833465" version="1" lat="44.7184879" lon="7.6861767" action="modify"><tag k="fuel:octane_95" v="yes"/><tag k="amenity" v="fuel"/><tag k="fuel:lpg" v="yes"/><tag k="fuel:diesel" v="yes"/><tag k="brand" v="Total Erg"/><tag k="operator" v="Da Franco di Raffaele Francesco &amp; C. Snc"/><tag k="ref:mise" v="38691"/></node><node id="5851834904" version="1" lat="44.4518032" lon="7.78259" action="modify"><tag k="fuel:octane_95" v="yes"/><tag k="amenity" v="fuel"/><tag k="fuel:diesel" v="yes"/><tag k="brand" v="Api-Ip"/><tag k="operator" v="Ip Services S.R.L."/><tag k="ref:mise" v="37907"/></node><node id="5851831432" version="1" lat="44.714141" lon="8.0313143" action="modify"><tag k="fuel:octane_95" v="yes"/><tag k="amenity" v="fuel"/><tag k="fuel:diesel" v="yes"/><tag k="brand" v="Tamoil"/><tag k="operator" v="Autosplash S.N.C. di Collino Luigi &amp; C."/><tag k="ref:mise" v="6983"/></node><node id="5853345322" version="2" lat="44.4469986" lon="7.7758659" action="modify"><tag k="fuel:octane_95" v="yes"/><tag k="fuel:diesel" v="yes"/><tag k="amenity" v="fuel"/><tag k="operator" v="Tealdi Petroli di Tealdi Renzo &amp; C.S.A.S."/><tag k="ref:mise" v="10191"/></node><node id="5851843042" version="2" lat="44.6524283" lon="7.6535539" action="modify"><tag k="fuel:octane_95" v="yes"/><tag k="amenity" v="fuel"/><tag k="fuel:diesel" v="yes"/><tag k="brand" v="Europam"/><tag k="operator" v="Barra Lidia in Picca"/><tag k="ref:mise" v="21249"/></node><node id="5851841804" version="1" lat="44.6936867" lon="8.0238" action="modify"><tag k="fuel:octane_95" v="yes"/><tag k="amenity" v="fuel"/><tag k="fuel:diesel" v="yes"/><tag k="brand" v="Api-Ip"/><tag k="operator" v="Ip Services S.R.L."/><tag k="ref:mise" v="24806"/></node><node id="5851839919" version="1" lat="44.672391" lon="8.0409653" action="modify"><tag k="fuel:octane_95" v="yes"/><tag k="amenity" v="fuel"/><tag k="fuel:diesel" v="yes"/><tag k="brand" v="Api-Ip"/><tag k="fixme" v="verificare cambio brand"/><tag k="operator" v="Manfredi Margherita"/><tag k="ref:mise" v="27300"/></node><node id="5851837753" version="1" lat="44.503863" lon="7.7575774" action="modify"><tag k="fuel:octane_95" v="yes"/><tag k="amenity" v="fuel"/><tag k="fuel:diesel" v="yes"/><tag k="brand" v="Total Erg"/><tag k="operator" v="C.A.S.A S.A.S. di Sampo' Mario e C."/><tag k="ref:mise" v="30092"/></node><node id="5851836466" version="1" lat="44.6948925" lon="8.0316336" action="modify"><tag k="fuel:octane_95" v="yes"/><tag k="amenity" v="fuel"/><tag k="fuel:diesel" v="yes"/><tag k="brand" v="Api-Ip"/><tag k="operator" v="Ip Services S.R.L."/><tag k="ref:mise" v="34996"/></node><node id="5853345311" version="2" lat="44.7704236" lon="8.00871" action="modify"><tag k="fuel:octane_95" v="yes"/><tag k="amenity" v="fuel"/><tag k="fuel:lpg" v="yes"/><tag k="fuel:diesel" v="yes"/><tag k="operator" v="Centro Calor S.R.L."/><tag k="ref:mise" v="10535"/></node><node id="5851832933" version="2" lat="44.3479436" lon="7.5056899" action="modify"><tag k="fuel:octane_95" v="yes"/><tag k="amenity" v="fuel"/><tag k="fuel:lpg" v="yes"/><tag k="fuel:diesel" v="yes"/><tag k="brand" v="CONAD"/><tag k="lpg" v="yes"/><tag k="operator" v="G.D. Srl"/><tag k="ref:mise" v="39451"/></node><node id="5851832231" version="2" lat="44.3471016" lon="7.5462454" action="modify"><tag k="fuel:octane_95" v="yes"/><tag k="amenity" v="fuel"/><tag k="fuel:lpg" v="yes"/><tag k="fuel:diesel" v="yes"/><tag k="brand" v="Total Erg"/><tag k="operator" v="Botta Marco"/><tag k="ref:mise" v="40159"/></node><node id="5851836814" version="3" lat="44.6953073" lon="7.9022136" action="modify"><tag k="addr:city" v="Pocapaglia"/><tag k="fuel:diesel" v="yes"/><tag k="amenity" v="fuel"/><tag k="addr:postcode" v="12060"/><tag k="fuel:octane_95" v="yes"/><tag k="brand" v="Total Erg"/><tag k="addr:street" v="Borgo San Martino"/><tag k="addr:housenumber" v="38"/><tag k="operator" v="Cannatà Francesco"/><tag k="ref:mise" v="34652"/></node><node id="5851844664" version="1" lat="44.3971237" lon="7.8135806" action="modify"><tag k="fuel:octane_95" v="yes"/><tag k="amenity" v="fuel"/><tag k="fuel:diesel" v="yes"/><tag k="brand" v="Api-Ip"/><tag k="operator" v="Fresia Matteo"/><tag k="ref:mise" v="14831"/></node><node id="226988449" version="4" lat="44.5424425" lon="7.7198161" action="modify"><tag k="fuel:octane_95" v="yes"/><tag k="source" v="note 798142"/><tag k="amenity" v="fuel"/><tag k="fuel:octane_100" v="yes"/><tag k="fuel:diesel" v="yes"/><tag k="brand" v="Agip Eni"/><tag k="fixme" v="verificare source"/><tag k="name" v="Eni"/><tag k="operator" v="Chiaramello Christian"/><tag k="ref:mise" v="44916"/></node><node id="5853343568" version="2" lat="44.3160818" lon="7.3055847" action="modify"><tag k="fuel:octane_95" v="yes"/><tag k="fuel:diesel" v="yes"/><tag k="amenity" v="fuel"/><tag k="operator" v="Beccaria Riccardo"/><tag k="ref:mise" v="35148"/></node><node id="5851842797" version="1" lat="44.403513" lon="7.8134933" action="modify"><tag k="fuel:octane_95" v="yes"/><tag k="amenity" v="fuel"/><tag k="fuel:diesel" v="yes"/><tag k="brand" v="Api-Ip"/><tag k="operator" v="En.Gi. di Garelli Sergio &amp; C. S.N.C. Siglabile En.Gi. S.N.C."/><tag k="ref:mise" v="22559"/></node><node id="5851845547" version="1" lat="44.7128867" lon="8.0219973" action="modify"><tag k="fuel:octane_95" v="yes"/><tag k="amenity" v="fuel"/><tag k="fuel:octane_100" v="yes"/><tag k="fuel:diesel" v="yes"/><tag k="brand" v="Q8"/><tag k="operator" v="Servizi &amp; Gestioni Italia S.R.L."/><tag k="ref:mise" v="11556"/></node><node id="5851837352" version="1" lat="44.7671638" lon="7.3100107" action="modify"><tag k="fuel:octane_95" v="yes"/><tag k="amenity" v="fuel"/><tag k="fuel:diesel" v="yes"/><tag k="brand" v="Api-Ip"/><tag k="operator" v="Ip Services S.R.L."/><tag k="ref:mise" v="32347"/></node><node id="5853345310" version="2" lat="44.6260628" lon="7.6656263" action="modify"><tag k="fuel:octane_95" v="yes"/><tag k="amenity" v="fuel"/><tag k="fuel:lpg" v="yes"/><tag k="fuel:diesel" v="yes"/><tag k="operator" v="Centro Calor S.R.L."/><tag k="ref:mise" v="10536"/></node><node id="5851845267" version="1" lat="44.3683865" lon="7.9010575" action="modify"><tag k="fuel:octane_95" v="yes"/><tag k="amenity" v="fuel"/><tag k="fuel:diesel" v="yes"/><tag k="brand" v="Q8"/><tag k="operator" v="F.lli Michelotti di Michelotti Giovanni &amp; C. Snc"/><tag k="ref:mise" v="13294"/></node><node id="5851845266" version="1" lat="44.6833334" lon="7.9441372" action="modify"><tag k="fuel:octane_95" v="yes"/><tag k="amenity" v="fuel"/><tag k="fuel:lpg" v="yes"/><tag k="fuel:diesel" v="yes"/><tag k="brand" v="Total Erg"/><tag k="operator" v="Tierre S.N.C.di Troisi Giovanni &amp; Rossi Carmen"/><tag k="ref:mise" v="13314"/></node><node id="1578800252" version="4" lat="44.454676" lon="7.3848902" action="modify"><tag k="fuel:octane_95" v="yes"/><tag k="ref:mise" v="13363"/><tag k="fuel:diesel" v="yes"/><tag k="brand" v="Total Erg"/><tag k="operator" v="Sole Luna S.N.C.di Armitano Elisa e Dao Daniele"/><tag k="amenity" v="fuel"/></node><way id="358003034" version="2" action="modify"><tag k="fuel:octane_95" v="yes"/><tag k="building" v="yes"/><tag k="fuel:diesel" v="yes"/><tag k="operator" v="Kerocarbo S.R.L."/><tag k="brand" v="Tamoil"/><tag k="amenity" v="fuel"/><tag k="source:date" v="2018-04-16"/><tag k="name" v="Tamoil"/><tag k="ref:mise" v="41099"/><nd ref="3630549383"/><nd ref="3630549384"/><nd ref="3630549385"/><nd ref="3630549386"/><nd ref="3630549383"/></way><node id="5853345312" version="2" lat="44.3756959" lon="8.1405801" action="modify"><tag k="fuel:octane_95" v="yes"/><tag k="fuel:diesel" v="yes"/><tag k="amenity" v="fuel"/><tag k="operator" v="Centro Calor S.R.L."/><tag k="ref:mise" v="10532"/></node><node id="5851837711" version="1" lat="44.7482359" lon="7.8977202" action="modify"><tag k="fuel:octane_95" v="yes"/><tag k="amenity" v="fuel"/><tag k="fuel:diesel" v="yes"/><tag k="brand" v="Agip Eni"/><tag k="operator" v="Bertolusso Aldo"/><tag k="ref:mise" v="30406"/></node><node id="5851837649" version="1" lat="44.7580667" lon="7.6748665" action="modify"><tag k="fuel:octane_95" v="yes"/><tag k="amenity" v="fuel"/><tag k="fuel:lpg" v="yes"/><tag k="fuel:diesel" v="yes"/><tag k="brand" v="Api-Ip"/><tag k="operator" v="Ip Services S.R.L."/><tag k="ref:mise" v="30928"/></node><node id="5851838479" version="1" lat="44.7178577" lon="7.8274249" action="modify"><tag k="fuel:octane_95" v="yes"/><tag k="amenity" v="fuel"/><tag k="fuel:diesel" v="yes"/><tag k="brand" v="Api-Ip"/><tag k="fixme" v="verificare cambio brand"/><tag k="operator" v="Ip Services S.R.L."/><tag k="ref:mise" v="28394"/></node><node id="5851833446" version="1" lat="44.5287943" lon="8.05001" action="modify"><tag k="fuel:octane_95" v="yes"/><tag k="amenity" v="fuel"/><tag k="fuel:diesel" v="yes"/><tag k="brand" v="Tamoil"/><tag k="operator" v="T.D.M. S.R.L."/><tag k="ref:mise" v="38756"/></node><node id="5851845635" version="1" lat="44.5003029" lon="7.5857055" action="modify"><tag k="fuel:octane_95" v="yes"/><tag k="amenity" v="fuel"/><tag k="fuel:diesel" v="yes"/><tag k="brand" v="Total Erg"/><tag k="operator" v="Armando Michele e Dolce Romina S.N.C. Siglabile Ove Consentito Armando e Dolce S.N.C."/><tag k="ref:mise" v="10841"/></node><node id="5851845550" version="1" lat="44.6518257" lon="8.052379" action="modify"><tag k="fuel:octane_95" v="yes"/><tag k="amenity" v="fuel"/><tag k="fuel:octane_100" v="yes"/><tag k="fuel:diesel" v="yes"/><tag k="brand" v="Q8"/><tag k="operator" v="Servizi &amp; Gestioni Italia S.R.L."/><tag k="ref:mise" v="11552"/></node><node id="5851838949" version="1" lat="44.7769641" lon="7.7789721" action="modify"><tag k="fuel:octane_95" v="yes"/><tag k="amenity" v="fuel"/><tag k="fuel:diesel" v="yes"/><tag k="brand" v="Europam"/><tag k="operator" v="Gallo Alessandro Gestore Impianto Erg"/><tag k="ref:mise" v="27866"/></node><node id="5851843595" version="1" lat="44.6454029" lon="7.8583051" action="modify"><tag k="fuel:octane_95" v="yes"/><tag k="amenity" v="fuel"/><tag k="fuel:octane_100" v="yes"/><tag k="fuel:diesel" v="yes"/><tag k="brand" v="Tamoil"/><tag k="operator" v="Costamagna Gabriella"/><tag k="ref:mise" v="18456"/></node><node id="5851839980" version="1" lat="44.7780536" lon="7.9640539" action="modify"><tag k="fuel:octane_95" v="yes"/><tag k="amenity" v="fuel"/><tag k="fuel:diesel" v="yes"/><tag k="brand" v="Ies"/><tag k="operator" v="Pavesio Carla"/><tag k="ref:mise" v="26982"/></node><node id="5851836465" version="1" lat="44.6483653" lon="7.6301598" action="modify"><tag k="fuel:octane_95" v="yes"/><tag k="amenity" v="fuel"/><tag k="fuel:diesel" v="yes"/><tag k="brand" v="Api-Ip"/><tag k="operator" v="Ip Services S.R.L."/><tag k="ref:mise" v="34997"/></node><node id="5851837625" version="1" lat="44.3251859" lon="7.6743433" action="modify"><tag k="fuel:octane_95" v="yes"/><tag k="amenity" v="fuel"/><tag k="fuel:diesel" v="yes"/><tag k="brand" v="Europam"/><tag k="operator" v="Europam S.P.A."/><tag k="ref:mise" v="31079"/></node><node id="5851843294" version="1" lat="44.7524134" lon="7.676235" action="modify"><tag k="fuel:octane_95" v="yes"/><tag k="amenity" v="fuel"/><tag k="fuel:diesel" v="yes"/><tag k="brand" v="Esso"/><tag k="operator" v="La Capinera S.N.C.di Quinto Gilberto &amp; C."/><tag k="ref:mise" v="19703"/></node><node id="5853344371" version="2" lat="44.7861063" lon="7.7740046" action="modify"><tag k="fuel:octane_95" v="yes"/><tag k="fuel:diesel" v="yes"/><tag k="amenity" v="fuel"/><tag k="operator" v="Cm Pneus S.N.C. di Cane Mario &amp; C."/><tag k="ref:mise" v="26550"/></node><node id="5853345067" version="2" lat="44.6671856" lon="7.8521132" action="modify"><tag k="fuel:octane_95" v="yes"/><tag k="fuel:diesel" v="yes"/><tag k="amenity" v="fuel"/><tag k="operator" v="Erretre S.R.L."/><tag k="ref:mise" v="12646"/></node><node id="5851832205" version="1" lat="44.6507957" lon="7.8676663" action="modify"><tag k="fuel:octane_95" v="yes"/><tag k="amenity" v="fuel"/><tag k="fuel:diesel" v="yes"/><tag k="brand" v="Tamoil"/><tag k="operator" v="Montanaro Gian Battista"/><tag k="ref:mise" v="40300"/></node><node id="5851840956" version="1" lat="44.6570845" lon="7.3946167" action="modify"><tag k="fuel:octane_95" v="yes"/><tag k="amenity" v="fuel"/><tag k="fuel:diesel" v="yes"/><tag k="brand" v="Agip Eni"/><tag k="operator" v="Gestioni Innovative Italia S.R.L."/><tag k="ref:mise" v="26239"/></node><node id="5853344376" version="2" lat="44.6117754" lon="8.1472131" action="modify"><tag k="fuel:octane_95" v="yes"/><tag k="fuel:diesel" v="yes"/><tag k="amenity" v="fuel"/><tag k="operator" v="Distributore Conti di Conti Roberto"/><tag k="ref:mise" v="26393"/></node><node id="4603571864" version="2" lat="44.5009777" lon="7.4909135" action="modify"><tag k="fuel:octane_95" v="yes"/><tag k="amenity" v="fuel"/><tag k="fuel:diesel" v="yes"/><tag k="brand" v="Europam"/><tag k="operator" v="Europam S.P.A."/><tag k="ref:mise" v="30355"/></node><node id="5851837721" version="1" lat="44.394515" lon="7.8187265" action="modify"><tag k="fuel:octane_95" v="yes"/><tag k="amenity" v="fuel"/><tag k="fuel:diesel" v="yes"/><tag k="brand" v="Europam"/><tag k="operator" v="Europam S.P.A."/><tag k="ref:mise" v="30318"/></node><node id="5851833394" version="1" lat="44.5730746" lon="7.9170055" action="modify"><tag k="fuel:octane_95" v="yes"/><tag k="amenity" v="fuel"/><tag k="fuel:diesel" v="yes"/><tag k="brand" v="Europam"/><tag k="operator" v="Europam S.P.A."/><tag k="ref:mise" v="39084"/></node><node id="802819536" version="3" lat="44.3891345" lon="7.578722" action="modify"><tag k="fuel:octane_95" v="yes"/><tag k="amenity" v="fuel"/><tag k="fuel:octane_100" v="yes"/><tag k="fuel:diesel" v="yes"/><tag k="operator" v="Arcobaleno di Garro Dario &amp; C. S.A.S."/><tag k="brand" v="Agip Eni"/><tag k="name" v="Agip"/><tag k="ref:mise" v="39549"/></node><node id="226910300" version="5" lat="44.5923295" lon="7.5221506" action="modify"><tag k="fuel:octane_95" v="yes"/><tag k="amenity" v="fuel"/><tag k="fuel:diesel" v="yes"/><tag k="operator" v="Migliore Giancarlo"/><tag k="brand" v="Total Erg"/><tag k="name" v="Erg"/><tag k="ref:mise" v="18352"/></node><node id="5851844666" version="1" lat="44.6476254" lon="7.4795289" action="modify"><tag k="fuel:octane_95" v="yes"/><tag k="amenity" v="fuel"/><tag k="fuel:diesel" v="yes"/><tag k="brand" v="Api-Ip"/><tag k="operator" v="Ip Services S.R.L."/><tag k="ref:mise" v="41375"/></node><way id="449068539" version="4" action="modify"><tag k="building" v="yes"/><tag k="amenity" v="fuel"/><tag k="fuel:octane_95" v="yes"/><tag k="brand" v="Esso"/><tag k="fuel:diesel" v="yes"/><tag k="source:date" v="2018-04-16"/><tag k="operator" v="Galliano Sergio"/><tag k="ref:mise" v="20153"/><nd ref="4460391156"/><nd ref="4460391157"/><nd ref="4485960299"/><nd ref="4460391158"/><nd ref="3354601767"/><nd ref="4485960300"/><nd ref="4460391156"/></way><node id="1327905313" version="5" lat="44.3867639" lon="7.5694797" action="modify"><tag k="fuel:octane_95" v="yes"/><tag k="amenity" v="fuel"/><tag k="fuel:lpg" v="no"/><tag k="fuel:diesel" v="yes"/><tag k="brand" v="Q8"/><tag k="fuel:octane_100" v="yes"/><tag k="operator" v="Servizi &amp; Gestioni Italia S.R.L."/><tag k="ref:mise" v="11558"/></node><node id="227663501" version="4" lat="44.643571" lon="7.658093" action="modify"><tag k="fuel:octane_95" v="yes"/><tag k="amenity" v="fuel"/><tag k="fuel:diesel" v="yes"/><tag k="operator" v="Servizi &amp; Gestioni Italia S.R.L."/><tag k="brand" v="Q8"/><tag k="name" v="Shell"/><tag k="ref:mise" v="11548"/></node><node id="1382284203" version="5" lat="44.4175408" lon="7.4338281" action="modify"><tag k="fuel:octane_95" v="yes"/><tag k="addr:city" v="Caraglio"/><tag k="fuel:octane_100" v="yes"/><tag k="addr:postcode" v="12023"/><tag k="addr:street" v="Via Cesare Battisti"/><tag k="name" v="Eni"/><tag k="addr:housenumber" v="39"/><tag k="amenity" v="fuel"/><tag k="fuel:diesel" v="yes"/><tag k="brand" v="Agip Eni"/><tag k="operator" v="Fracchia Danilo"/><tag k="ref:mise" v="35889"/></node><node id="5853344153" version="2" lat="44.6270817" lon="7.5074239" action="modify"><tag k="fuel:octane_95" v="yes"/><tag k="amenity" v="fuel"/><tag k="fuel:lpg" v="yes"/><tag k="fuel:diesel" v="yes"/><tag k="operator" v="Centro Calor S.R.L."/><tag k="ref:mise" v="10537"/></node><node id="227530265" version="5" lat="44.5788807" lon="7.1846533" action="modify"><tag k="fuel:octane_95" v="yes"/><tag k="amenity" v="fuel"/><tag k="fuel:diesel" v="yes"/><tag k="operator" v="Mama Cafe' di Ambrosio Matteo"/><tag k="brand" v="Total Erg"/><tag k="name" v="Erg"/><tag k="ref:mise" v="40368"/></node><node id="5792782313" version="2" lat="44.8169916" lon="7.9535926" action="modify"><tag k="fuel:octane_95" v="yes"/><tag k="addr:city" v="Montà"/><tag k="fuel:octane_100" v="yes"/><tag k="addr:postcode" v="12046"/><tag k="addr:street" v="Corso Alessandro Manzoni"/><tag k="name" v="Agip"/><tag k="addr:housenumber" v="32A"/><tag k="amenity" v="fuel"/><tag k="fuel:diesel" v="yes"/><tag k="brand" v="Agip Eni"/><tag k="operator" v="Vaghini Maria Luisa"/><tag k="ref:mise" v="14131"/></node><node id="1380746535" version="5" lat="44.5901184" lon="7.0687076" action="modify"><tag k="addr:city" v="Casteldelfino"/><tag k="amenity" v="fuel"/><tag k="ref:mise" v="38994"/><tag k="addr:postcode" v="12020"/><tag k="fuel:octane_95" v="yes"/><tag k="addr:street" v="Via Circonvallazione"/><tag k="fuel:diesel" v="yes"/><tag k="operator" v="Rocchietta Maurizio"/><tag k="addr:housenumber" v="6"/></node><node id="4560848336" version="2" lat="44.42348" lon="7.5541291" action="modify"><tag k="fuel:octane_95" v="yes"/><tag k="amenity" v="fuel"/><tag k="fuel:lpg" v="yes"/><tag k="fuel:diesel" v="yes"/><tag k="brand" v="Q8"/><tag k="operator" v="Servizi &amp; Gestioni Italia S.R.L."/><tag k="ref:mise" v="7291"/></node><node id="4548280732" version="2" lat="44.398594" lon="7.5370172" action="modify"><tag k="fuel:octane_95" v="yes"/><tag k="amenity" v="fuel"/><tag k="fuel:lpg" v="yes"/><tag k="fuel:diesel" v="yes"/><tag k="brand" v="Socogas"/><tag k="operator" v="Giuseppe Lingua &amp; C. S.A.S. Siglabile Giuseppe Lingua Sas"/><tag k="ref:mise" v="32451"/></node><node id="227663485" version="8" lat="44.3307034" lon="7.6114146" action="modify"><tag k="fuel:octane_95" v="yes"/><tag k="fuel:diesel" v="yes"/><tag k="amenity" v="fuel"/><tag k="operator" v="D.A.R.M. Petroli S.R.L."/><tag k="ref:mise" v="41050"/></node><way id="534850906" version="4" action="modify"><tag k="fuel:octane_95" v="yes"/><tag k="addr:city" v="Bra"/><tag k="fuel:octane_100" v="yes"/><tag k="addr:postcode" v="12042"/><tag k="addr:street" v="Area di Servizio Rio Coloré est"/><tag k="name" v="Q8"/><tag k="amenity" v="fuel"/><tag k="fuel:lpg" v="yes"/><tag k="fuel:diesel" v="yes"/><tag k="operator" v="Ellena S.N.C.di Laura e Ornella Ellena - Siglabile Ellena Snc"/><tag k="brand" v="Q8"/><tag k="source:date" v="2018-04-16"/><tag k="building" v="roof"/><tag k="ref:mise" v="30170"/><nd ref="5186014707"/><nd ref="5186014708"/><nd ref="5186014709"/><nd ref="5186014710"/><nd ref="5186014707"/></way><node id="4679298799" version="2" lat="44.561654" lon="7.4867709" action="modify"><tag k="fuel:octane_95" v="yes"/><tag k="amenity" v="fuel"/><tag k="fuel:diesel" v="yes"/><tag k="brand" v="Total Erg"/><tag k="operator" v="Anghilante Silvano"/><tag k="ref:mise" v="22563"/></node><node id="228139956" version="5" lat="44.7554733" lon="8.0034181" action="modify"><tag k="fuel:octane_95" v="yes"/><tag k="addr:city" v="Vezza d'Alba"/><tag k="fuel:octane_100" v="yes"/><tag k="addr:postcode" v="12040"/><tag k="addr:street" v="Regione Casino"/><tag k="name" v="Agip"/><tag k="addr:housenumber" v="1"/><tag k="amenity" v="fuel"/><tag k="fuel:lpg" v="yes"/><tag k="fuel:diesel" v="yes"/><tag k="brand" v="Agip Eni"/><tag k="operator" v="Franzero Maurizio"/><tag k="ref:mise" v="10236"/></node><node id="226904956" version="4" lat="44.65684" lon="7.49892" action="modify"><tag k="fuel:octane_95" v="yes"/><tag k="amenity" v="fuel"/><tag k="fuel:octane_100" v="yes"/><tag k="fuel:diesel" v="yes"/><tag k="operator" v="Laurenti Maurizio"/><tag k="brand" v="Agip Eni"/><tag k="name" v="Agip"/><tag k="ref:mise" v="39195"/></node><node id="3513458965" version="2" lat="44.4126512" lon="7.3826988" action="modify"><tag k="fuel:octane_95" v="yes"/><tag k="amenity" v="fuel"/><tag k="fuel:diesel" v="yes"/><tag k="brand" v="Total Erg"/><tag k="operator" v="Società Agricola Lubrificanti Carburanti ed Affini (Sigla S.A.L.C.A.) a Responsabilità Limitata"/><tag k="ref:mise" v="35848"/></node><node id="226989198" version="4" lat="44.332935" lon="7.490015" action="modify"><tag k="fuel:octane_95" v="yes"/><tag k="amenity" v="fuel"/><tag k="fuel:octane_100" v="yes"/><tag k="fuel:diesel" v="yes"/><tag k="operator" v="Viale Agostino e Giraudo Giuliana S.N.C."/><tag k="brand" v="Agip Eni"/><tag k="name" v="Agip"/><tag k="ref:mise" v="17119"/></node><node id="227764619" version="5" lat="44.6846569" lon="7.2764138" action="modify"><tag k="fuel:octane_95" v="yes"/><tag k="amenity" v="fuel"/><tag k="fuel:diesel" v="yes"/><tag k="operator" v="Giobergia Domenico"/><tag k="brand" v="Europam"/><tag k="name" v="IP"/><tag k="ref:mise" v="30711"/></node><node id="228019694" version="5" lat="44.546357" lon="7.7080246" action="modify"><tag k="fuel:octane_95" v="yes"/><tag k="amenity" v="fuel"/><tag k="fuel:lpg" v="yes"/><tag k="fuel:diesel" v="yes"/><tag k="brand" v="Socogas"/><tag k="fixme" v="name"/><tag k="name" v="Tamoil"/><tag k="operator" v="G. e C. di Giordanengo Antonio e Costamagna Antonella S.N.C. Abbreviabile Ove Possibile in G. e C. S.N.C."/><tag k="ref:mise" v="29243"/></node><node id="4619338809" version="4" lat="44.535985" lon="7.5475477" action="modify"><tag k="fuel:octane_95" v="yes"/><tag k="name" v="Distributore IP"/><tag k="fuel:lpg" v="yes"/><tag k="fuel:diesel" v="yes"/><tag k="brand" v="Total Erg"/><tag k="amenity" v="fuel"/><tag k="fixme" v="verificare cambio brand; name"/><tag k="operator" v="Caula Ennio"/><tag k="ref:mise" v="42433"/></node><node id="5853343036" version="2" lat="44.6847572" lon="7.8290436" action="modify"><tag k="fuel:octane_95" v="yes"/><tag k="amenity" v="fuel"/><tag k="fuel:lpg" v="yes"/><tag k="fuel:diesel" v="yes"/><tag k="operator" v="Erretre S.R.L."/><tag k="ref:mise" v="41831"/></node><way id="320757492" version="3" action="modify"><tag k="building" v="roof"/><tag k="amenity" v="fuel"/><tag k="fuel:lpg" v="yes"/><tag k="fuel:octane_95" v="yes"/><tag k="brand" v="CONAD"/><tag k="fuel:diesel" v="yes"/><tag k="source:date" v="2018-04-16"/><tag k="operator" v="Sav S.R.L."/><tag k="ref:mise" v="44561"/><nd ref="3273986961"/><nd ref="3273986962"/><nd ref="3273986963"/><nd ref="3273986964"/><nd ref="3273986965"/><nd ref="3273986966"/><nd ref="3273986967"/><nd ref="3273986961"/></way><node id="1517245756" version="3" lat="44.3802139" lon="7.4705471" action="modify"><tag k="fuel:octane_95" v="yes"/><tag k="amenity" v="fuel"/><tag k="fuel:diesel" v="yes"/><tag k="brand" v="Total Erg"/><tag k="operator" v="Bono Federico"/><tag k="ref:mise" v="30838"/></node><way id="561512088" version="2" action="modify"><tag k="fuel:octane_95" v="yes"/><tag k="amenity" v="fuel"/><tag k="fuel:diesel" v="yes"/><tag k="brand" v="Total Erg"/><tag k="name" v="Total Erg"/><tag k="source:date" v="2018-04-16"/><tag k="operator" v="Boenergi di Garcia Ana Virtudes &amp; C. S.A.S.Siglabile, Ove Consentito, Boeneri Sas"/><tag k="ref:mise" v="32183"/><nd ref="5414212851"/><nd ref="5414212852"/><nd ref="5414212853"/><nd ref="5414212854"/><nd ref="5414212851"/></way><node id="227798874" version="5" lat="44.5428881" lon="7.7205346" action="modify"><tag k="fuel:octane_95" v="yes"/><tag k="amenity" v="fuel"/><tag k="fuel:diesel" v="yes"/><tag k="operator" v="Merlo Fabrizio"/><tag k="brand" v="Esso"/><tag k="name" v="Esso"/><tag k="ref:mise" v="20369"/></node><node id="929114893" version="3" lat="44.5857168" lon="7.9618997" action="modify"><tag k="fuel:octane_95" v="yes"/><tag k="amenity" v="fuel"/><tag k="fuel:diesel" v="yes"/><tag k="operator" v="Pit Stop Car Wash &amp; Service di Delmonte Alessio"/><tag k="brand" v="Europam"/><tag k="name" v="Europam"/><tag k="ref:mise" v="31813"/></node><node id="228140900" version="4" lat="44.599731" lon="7.733989" action="modify"><tag k="fuel:octane_95" v="yes"/><tag k="amenity" v="fuel"/><tag k="fuel:diesel" v="yes"/><tag k="operator" v="Gonella &amp; Soma' S.R.L."/><tag k="brand" v="Api-Ip"/><tag k="name" v="IP"/><tag k="ref:mise" v="37545"/></node><node id="1327905345" version="3" lat="44.4086018" lon="7.4423208" action="modify"><tag k="fuel:octane_95" v="yes"/><tag k="amenity" v="fuel"/><tag k="fuel:diesel" v="yes"/><tag k="operator" v="Bergia Aldo"/><tag k="brand" v="Total Erg"/><tag k="name" v="TotalErg"/><tag k="ref:mise" v="17541"/></node><node id="4603557610" version="2" lat="44.5074327" lon="7.4865858" action="modify"><tag k="fuel:octane_95" v="yes"/><tag k="amenity" v="fuel"/><tag k="fuel:octane_100" v="yes"/><tag k="fuel:diesel" v="yes"/><tag k="operator" v="Delfino Giuseppe"/><tag k="brand" v="Agip Eni"/><tag k="name" v="Delfino"/><tag k="ref:mise" v="22511"/></node><node id="5771898704" version="2" lat="44.7930625" lon="7.9988075" action="modify"><tag k="addr:city" v="Canale"/><tag k="fuel:diesel" v="yes"/><tag k="amenity" v="fuel"/><tag k="addr:postcode" v="12043"/><tag k="fuel:octane_95" v="yes"/><tag k="brand" v="Esso"/><tag k="addr:street" v="Corso Alba"/><tag k="addr:housenumber" v="46"/><tag k="name" v="Esso"/><tag k="operator" v="Morello Emanuele"/><tag k="ref:mise" v="20508"/></node><node id="227959584" version="7" lat="44.3264438" lon="7.4853422" action="modify"><tag k="fuel:octane_95" v="yes"/><tag k="amenity" v="fuel"/><tag k="fuel:diesel" v="yes"/><tag k="operator" v="Bianco Alberto"/><tag k="brand" v="Agip Eni"/><tag k="name" v="Eni"/><tag k="ref:mise" v="41069"/></node><node id="294175844" version="3" lat="44.638465" lon="7.6623969" action="modify"><tag k="fuel:octane_95" v="yes"/><tag k="ref:mise" v="26573"/><tag k="fuel:octane_100" v="yes"/><tag k="fuel:diesel" v="yes"/><tag k="brand" v="Agip Eni"/><tag k="source:date" v="2018-04-16"/><tag k="operator" v="Allocco Ermanno &amp; Aimetta Marilena S.N.C."/><tag k="amenity" v="fuel"/></node><node id="3261478299" version="2" lat="44.4694705" lon="7.3695186" action="modify"><tag k="fuel:octane_95" v="yes"/><tag k="amenity" v="fuel"/><tag k="fuel:diesel" v="yes"/><tag k="brand" v="Agip Eni"/><tag k="fixme" v="Name"/><tag k="name" v="IP"/><tag k="operator" v="Busso Fabrizio"/><tag k="ref:mise" v="39612"/></node><node id="3246066916" version="2" lat="44.393662" lon="7.5850804" action="modify"><tag k="fuel:octane_95" v="yes"/><tag k="amenity" v="fuel"/><tag k="fuel:diesel" v="yes"/><tag k="brand" v="Auchan"/><tag k="operator" v="Auchan S.P.A."/><tag k="ref:mise" v="7056"/></node><node id="228019464" version="6" lat="44.5477887" lon="7.7117519" action="modify"><tag k="fuel:octane_95" v="yes"/><tag k="amenity" v="fuel"/><tag k="fuel:diesel" v="yes"/><tag k="operator" v="Bava Margherita"/><tag k="brand" v="Total Erg"/><tag k="fixme" v="name in minuscolo"/><tag k="name" v="total Erg"/><tag k="ref:mise" v="21002"/></node><node id="5851832952" version="1" lat="44.626183" lon="7.6657587" action="modify"><tag k="fuel:octane_95" v="yes"/><tag k="amenity" v="fuel"/><tag k="fuel:diesel" v="yes"/><tag k="brand" v="Api-Ip"/><tag k="fixme" v="l'indirizzo non sembra coincidere con questo punto; unire"/><tag k="operator" v="C.P.P. Compagnia Petrolifera Piemontese - S.R.L."/><tag k="ref:mise" v="43029"/></node><node id="4142411042" version="2" lat="44.414997" lon="7.4364214" action="modify"><tag k="fuel:octane_95" v="yes"/><tag k="addr:city" v="Caraglio"/><tag k="fuel:octane_100" v="yes"/><tag k="addr:postcode" v="12023"/><tag k="addr:street" v="Via Cesare Battisti"/><tag k="name" v="Q8"/><tag k="addr:housenumber" v="86"/><tag k="amenity" v="fuel"/><tag k="fuel:diesel" v="yes"/><tag k="brand" v="Q8"/><tag k="operator" v="Servizi &amp; Gestioni Italia S.R.L."/><tag k="ref:mise" v="11547"/></node><node id="1344840003" version="2" lat="44.3735938" lon="7.9137556" action="modify"><tag k="fuel:octane_95" v="yes"/><tag k="amenity" v="fuel"/><tag k="fuel:diesel" v="yes"/><tag k="operator" v="S.P.G. di Ghiglia Simone &amp; C. S.A.S."/><tag k="brand" v="Total Erg"/><tag k="name" v="ERG"/><tag k="ref:mise" v="20013"/></node><node id="1377953238" version="3" lat="44.4109846" lon="7.8025344" action="modify"><tag k="fuel:octane_95" v="yes"/><tag k="amenity" v="fuel"/><tag k="fuel:diesel" v="yes"/><tag k="brand" v="Socogas"/><tag k="operator" v="Wira Car Service S.A.S. di Olivero Andrea &amp; C."/><tag k="ref:mise" v="7098"/></node><node id="2106238876" version="2" lat="44.4462381" lon="8.1407194" action="modify"><tag k="fuel:octane_95" v="yes"/><tag k="ref:mise" v="43218"/><tag k="fuel:diesel" v="yes"/><tag k="brand" v="Api-Ip"/><tag k="fixme" v="verificare cambio brand"/><tag k="operator" v="Beccaria S.R.L. - Società a Responsabilità Limitata"/><tag k="amenity" v="fuel"/></node><node id="227660498" version="7" lat="44.3257797" lon="7.4839861" action="modify"><tag k="fuel:octane_95" v="yes"/><tag k="amenity" v="fuel"/><tag k="fuel:diesel" v="yes"/><tag k="operator" v="Chesta Piergiorgio"/><tag k="brand" v="Europam"/><tag k="name" v="Europam"/><tag k="ref:mise" v="6316"/></node><node id="228141710" version="5" lat="44.199827" lon="7.5751498" action="modify"><tag k="fuel:octane_95" v="yes"/><tag k="amenity" v="fuel"/><tag k="fuel:diesel" v="yes"/><tag k="brand" v="Europam"/><tag k="fixme" v="name"/><tag k="name" v="IP"/><tag k="operator" v="Europam S.P.A."/><tag k="ref:mise" v="38404"/></node><node id="226909810" version="4" lat="44.637971" lon="7.49789" action="modify"><tag k="fuel:octane_95" v="yes"/><tag k="amenity" v="fuel"/><tag k="fuel:diesel" v="yes"/><tag k="brand" v="Europam"/><tag k="fixme" v="Name"/><tag k="name" v="IP"/><tag k="operator" v="Europam S.P.A."/><tag k="ref:mise" v="42324"/></node><node id="877948596" version="4" lat="44.6436368" lon="7.9302403" action="modify"><tag k="addr:city" v="La Morra"/><tag k="fuel:diesel" v="yes"/><tag k="amenity" v="fuel"/><tag k="addr:postcode" v="12064"/><tag k="fuel:octane_95" v="yes"/><tag k="brand" v="Europam"/><tag k="addr:street" v="Via Richieri"/><tag k="addr:housenumber" v="38"/><tag k="name" v="Europam"/><tag k="operator" v="De Leo Francesco"/><tag k="ref:mise" v="26507"/></node><node id="227797537" version="5" lat="44.716333" lon="8.04365" action="modify"><tag k="fuel:octane_95" v="yes"/><tag k="amenity" v="fuel"/><tag k="fuel:diesel" v="yes"/><tag k="operator" v="Ip Services S.R.L."/><tag k="brand" v="Api-Ip"/><tag k="name" v="Api"/><tag k="ref:mise" v="30621"/></node><node id="227529850" version="4" lat="44.589138" lon="7.4842" action="modify"><tag k="fuel:octane_95" v="yes"/><tag k="fuel:octane_98" v="yes"/><tag k="amenity" v="fuel"/><tag k="fuel:diesel" v="yes"/><tag k="operator" v="Gonella &amp; Soma' S.R.L."/><tag k="brand" v="Api-Ip"/><tag k="name" v="IP"/><tag k="ref:mise" v="22620"/></node><node id="5802216084" version="2" lat="44.824707" lon="7.9406186" action="modify"><tag k="addr:city" v="Montà"/><tag k="fuel:diesel" v="yes"/><tag k="amenity" v="fuel"/><tag k="addr:postcode" v="12046"/><tag k="fuel:octane_95" v="yes"/><tag k="brand" v="Europam"/><tag k="addr:street" v="Casali Castellero"/><tag k="addr:housenumber" v="5"/><tag k="name" v="Europam"/><tag k="operator" v="Europam S.P.A."/><tag k="ref:mise" v="34734"/></node><node id="1273809862" version="4" lat="44.3328112" lon="7.4035808" action="modify"><tag k="fuel:octane_95" v="yes"/><tag k="amenity" v="fuel"/><tag k="fuel:diesel" v="yes"/><tag k="brand" v="Total Erg"/><tag k="operator" v="Allasia Cristina"/><tag k="ref:mise" v="8512"/></node><node id="228276000" version="6" lat="44.6923013" lon="7.8443146" action="modify"><tag k="fuel:octane_95" v="yes"/><tag k="addr:city" v="Bra"/><tag k="fuel:octane_100" v="yes"/><tag k="addr:postcode" v="12042"/><tag k="addr:street" v="Via Giovanni Piumati"/><tag k="name" v="Agip"/><tag k="addr:housenumber" v="71"/><tag k="amenity" v="fuel"/><tag k="fuel:diesel" v="yes"/><tag k="brand" v="Agip Eni"/><tag k="operator" v="Chiaramello Matteo Armando"/><tag k="ref:mise" v="14149"/></node><node id="1356966803" version="2" lat="44.395559" lon="7.554215" action="modify"><tag k="fuel:octane_95" v="yes"/><tag k="amenity" v="fuel"/><tag k="fuel:diesel" v="yes"/><tag k="operator" v="Musso Pierfranco"/><tag k="brand" v="Agip Eni"/><tag k="name" v="Agip"/><tag k="ref:mise" v="34058"/></node><node id="227806765" version="5" lat="44.3919627" lon="7.8182534" action="modify"><tag k="fuel:octane_95" v="yes"/><tag k="amenity" v="fuel"/><tag k="fuel:diesel" v="yes"/><tag k="operator" v="M.D. di Ricci Marzia S.A.S. Abbreviabile, Ove Consentito, in M.D. S.A.S."/><tag k="brand" v="Api-Ip"/><tag k="fixme" v="name"/><tag k="name" v="Agip"/><tag k="ref:mise" v="37071"/></node><node id="227529945" version="4" lat="44.56933" lon="7.363479" action="modify"><tag k="fuel:octane_95" v="yes"/><tag k="amenity" v="fuel"/><tag k="fuel:diesel" v="yes"/><tag k="operator" v="Para Giovanni &amp; C. S.A.S."/><tag k="brand" v="Total Erg"/><tag k="name" v="Erg"/><tag k="ref:mise" v="37099"/></node><way id="368061012" version="4" action="modify"><tag k="fuel:octane_95" v="yes"/><tag k="addr:city" v="Bra"/><tag k="fuel:octane_100" v="yes"/><tag k="addr:postcode" v="12042"/><tag k="addr:street" v="Piazza Giolitti"/><tag k="name" v="Q8"/><tag k="addr:housenumber" v="82"/><tag k="amenity" v="fuel"/><tag k="fuel:diesel" v="yes"/><tag k="brand" v="Q8"/><tag k="source:date" v="2018-04-16"/><tag k="operator" v="Servizi &amp; Gestioni Italia S.R.L."/><tag k="ref:mise" v="29342"/><nd ref="3719221107"/><nd ref="3719221104"/><nd ref="3719221103"/><nd ref="3719221106"/><nd ref="3719221107"/></way><node id="227663492" version="4" lat="44.6481482" lon="7.3218638" action="modify"><tag k="fuel:octane_95" v="yes"/><tag k="amenity" v="fuel"/><tag k="fuel:diesel" v="yes"/><tag k="operator" v="Canavese Marinella"/><tag k="brand" v="Q8"/><tag k="fixme" v="name"/><tag k="name" v="TotalErg"/><tag k="ref:mise" v="16465"/></node><node id="227530050" version="5" lat="44.5627267" lon="7.3975559" action="modify"><tag k="fuel:octane_95" v="yes"/><tag k="amenity" v="fuel"/><tag k="fuel:diesel" v="yes"/><tag k="brand" v="Oil Italia"/><tag k="fixme" v="name"/><tag k="name" v="Shell"/><tag k="operator" v="Gjecaj Vjollce"/><tag k="ref:mise" v="37054"/></node><node id="228141352" version="4" lat="44.366401" lon="7.486217" action="modify"><tag k="fuel:octane_95" v="yes"/><tag k="amenity" v="fuel"/><tag k="fuel:diesel" v="yes"/><tag k="operator" v="Società Agricola Lubrificanti Carburanti Ed Affini (sigla S.A.L.C.A.) a Responsabilità Limitata"/><tag k="brand" v="Total Erg"/><tag k="name" v="Erg"/><tag k="ref:mise" v="39016"/></node><node id="227806584" version="4" lat="44.549186" lon="7.785793" action="modify"><tag k="fuel:octane_95" v="yes"/><tag k="amenity" v="fuel"/><tag k="fuel:diesel" v="yes"/><tag k="operator" v="Nuova Sidap S.R.L."/><tag k="brand" v="Total Erg"/><tag k="name" v="Total"/><tag k="ref:mise" v="35087"/></node><node id="5732577720" version="2" lat="44.695066" lon="8.0145654" action="modify"><tag k="addr:city" v="Alba"/><tag k="amenity" v="fuel"/><tag k="fuel:octane_100" v="yes"/><tag k="addr:postcode" v="12051"/><tag k="fuel:octane_95" v="yes"/><tag k="brand" v="Agip Eni"/><tag k="addr:street" v="Corso Nebbiolo d'Alba"/><tag k="fuel:diesel" v="yes"/><tag k="name" v="Eni"/><tag k="operator" v="Ivano Molinari"/><tag k="ref:mise" v="24460"/></node><node id="227663489" version="4" lat="44.774113" lon="7.680119" action="modify"><tag k="fuel:octane_95" v="yes"/><tag k="amenity" v="fuel"/><tag k="fuel:diesel" v="yes"/><tag k="brand" v="Q8"/><tag k="fixme" v="name"/><tag k="name" v="Shell"/><tag k="operator" v="Ge.Pa. S.N.C. di Gerbino Francesco e Pautasso Walter"/><tag k="ref:mise" v="10438"/></node><node id="1047639307" version="2" lat="44.2440032" lon="8.0217959" action="modify"><tag k="fuel:octane_95" v="yes"/><tag k="amenity" v="fuel"/><tag k="fuel:diesel" v="yes"/><tag k="brand" v="Api-Ip"/><tag k="operator" v="Vinai Cinzia"/><tag k="ref:mise" v="11390"/></node><node id="1447978426" version="4" lat="44.329759" lon="7.6243204" action="modify"><tag k="fuel:octane_95" v="yes"/><tag k="amenity" v="fuel"/><tag k="fuel:diesel" v="yes"/><tag k="operator" v="Isoardi Roberto"/><tag k="brand" v="Api-Ip"/><tag k="fixme" v="verificare cambio brand"/><tag k="name" v="Erg"/><tag k="ref:mise" v="43177"/></node><node id="1998303786" version="2" lat="44.6345204" lon="8.1112041" action="modify"><tag k="fuel:octane_95" v="yes"/><tag k="amenity" v="fuel"/><tag k="fuel:diesel" v="yes"/><tag k="brand" v="Total Erg"/><tag k="operator" v="Galiffi Giovanni"/><tag k="ref:mise" v="15510"/></node><node id="226910150" version="4" lat="44.647223" lon="7.474351" action="modify"><tag k="fuel:octane_95" v="yes"/><tag k="amenity" v="fuel"/><tag k="fuel:diesel" v="yes"/><tag k="operator" v="Fer.Vin. S.N.C.di Vincenti Franco e Ferrato Franca Siglabile Fer.Vin. Snc"/><tag k="brand" v="Total Erg"/><tag k="name" v="Erg"/><tag k="ref:mise" v="17747"/></node><node id="227960197" version="4" lat="44.388792" lon="7.539067" action="modify"><tag k="fuel:octane_95" v="yes"/><tag k="amenity" v="fuel"/><tag k="fuel:diesel" v="yes"/><tag k="brand" v="Europam"/><tag k="fixme" v="name"/><tag k="name" v="IP"/><tag k="operator" v="Europam S.P.A."/><tag k="ref:mise" v="38514"/></node><node id="226988833" version="4" lat="44.3375146" lon="8.0572066" action="modify"><tag k="fuel:octane_95" v="yes"/><tag k="amenity" v="fuel"/><tag k="fuel:octane_100" v="yes"/><tag k="fuel:diesel" v="yes"/><tag k="operator" v="Michelotti S.A.S. di Michelotti Giovanni &amp; C."/><tag k="brand" v="Agip Eni"/><tag k="name" v="Agip"/><tag k="ref:mise" v="44077"/></node><node id="1490058085" version="2" lat="44.4882547" lon="7.2569417" action="modify"><tag k="fuel:octane_95" v="yes"/><tag k="amenity" v="fuel"/><tag k="fuel:diesel" v="yes"/><tag k="brand" v="Api-Ip"/><tag k="fixme" v="fixme verificare cambio brand"/><tag k="operator" v="Società Agricola Lubrificanti Carburanti Ed Affini (sigla S.A.L.C.A.) a Responsabilità Limitata"/><tag k="ref:mise" v="45168"/></node><node id="227806956" version="6" lat="44.3225481" lon="7.7459245" action="modify"><tag k="fuel:octane_95" v="yes"/><tag k="amenity" v="fuel"/><tag k="fuel:diesel" v="yes"/><tag k="brand" v="Api-Ip"/><tag k="fixme" v="verificare cambio brand"/><tag k="name" v="Erg"/><tag k="operator" v="Società Agricola Lubrificanti Carburanti Ed Affini (sigla S.A.L.C.A.) a Responsabilità Limitata"/><tag k="ref:mise" v="45170"/></node><node id="1387487257" version="2" lat="44.3146539" lon="7.294566" action="modify"><tag k="fuel:octane_95" v="yes"/><tag k="amenity" v="fuel"/><tag k="fuel:diesel" v="yes"/><tag k="operator" v="Europam S.P.A."/><tag k="brand" v="Europam"/><tag k="name" v="IP"/><tag k="ref:mise" v="40485"/></node><node id="228022493" version="4" lat="44.607717" lon="7.484908" action="modify"><tag k="fuel:octane_95" v="yes"/><tag k="amenity" v="fuel"/><tag k="fuel:diesel" v="yes"/><tag k="operator" v="Duditex Distribution Center S.N.C.di Quaglia Marco &amp; C. Validamente Siglabile, Ove Consentito, Duditex Snc"/><tag k="brand" v="Total Erg"/><tag k="name" v="Erg"/><tag k="ref:mise" v="19875"/></node><node id="877807605" version="3" lat="44.6764498" lon="7.9900296" action="modify"><tag k="fuel:octane_95" v="yes"/><tag k="amenity" v="fuel"/><tag k="fuel:diesel" v="yes"/><tag k="brand" v="Total Erg"/><tag k="operator" v="Nuova No.Al. S.N.C. di Allegranza Barbara &amp; C."/><tag k="ref:mise" v="17925"/></node><node id="1701793542" version="2" lat="44.3285254" lon="7.6698269" action="modify"><tag k="fuel:octane_95" v="yes"/><tag k="amenity" v="fuel"/><tag k="fuel:diesel" v="yes"/><tag k="brand" v="Europam"/><tag k="operator" v="Di Benedetto Marco"/><tag k="ref:mise" v="44095"/></node><node id="1432613117" version="2" lat="44.3562477" lon="7.5134599" action="modify"><tag k="fuel:octane_95" v="yes"/><tag k="amenity" v="fuel"/><tag k="fuel:diesel" v="yes"/><tag k="brand" v="Agip Eni"/><tag k="operator" v="Castrogiovanni Giuseppe"/><tag k="ref:mise" v="20463"/></node><node id="227610323" version="6" lat="44.379192" lon="7.537565" action="modify"><tag k="fuel:octane_95" v="yes"/><tag k="wheelchair" v="yes"/><tag k="amenity" v="fuel"/><tag k="fuel:diesel" v="yes"/><tag k="brand" v="Q8"/><tag k="old_name" v="Shell"/><tag k="operator" v="Servizi &amp; Gestioni Italia S.R.L."/><tag k="ref:mise" v="11546"/></node><node id="877807710" version="3" lat="44.7001951" lon="8.0404256" action="modify"><tag k="fuel:octane_95" v="yes"/><tag k="amenity" v="fuel"/><tag k="fuel:octane_100" v="yes"/><tag k="fuel:diesel" v="yes"/><tag k="brand" v="Agip Eni"/><tag k="operator" v="Barbero Giacomo"/><tag k="ref:mise" v="11095"/></node><way id="436877852" version="2" action="modify"><tag k="fuel:octane_95" v="yes"/><tag k="ref:mise" v="11551"/><tag k="fuel:octane_100" v="yes"/><tag k="fuel:diesel" v="yes"/><tag k="brand" v="Q8"/><tag k="source:date" v="2018-04-16"/><tag k="operator" v="Servizi &amp; Gestioni Italia S.R.L."/><tag k="amenity" v="fuel"/><nd ref="4347334458"/><nd ref="3883038181"/><nd ref="3883038116"/><nd ref="4347334459"/><nd ref="4347334458"/></way><way id="449188160" version="2" action="modify"><tag k="area" v="yes"/><tag k="fuel:octane_95" v="yes"/><tag k="highway" v="service"/><tag k="amenity" v="fuel"/><tag k="fuel:diesel" v="yes"/><tag k="brand" v="Total Erg"/><tag k="source:date" v="2018-04-16"/><tag k="operator" v="Dalmasso Roberto"/><tag k="ref:mise" v="10580"/><nd ref="4461543227"/><nd ref="4461543236"/><nd ref="4461543238"/><nd ref="4461543235"/><nd ref="4461543224"/><nd ref="4461543222"/><nd ref="4461543225"/><nd ref="4461543227"/></way><node id="4212656070" version="3" lat="44.7026151" lon="8.032767" action="modify"><tag k="fuel:octane_95" v="yes"/><tag k="amenity" v="fuel"/><tag k="fuel:diesel" v="yes"/><tag k="operator" v="Binello Claudio"/><tag k="brand" v="Esso"/><tag k="name" v="Esso"/><tag k="ref:mise" v="39471"/></node><node id="227663481" version="4" lat="44.5901" lon="7.927945" action="modify"><tag k="fuel:octane_95" v="yes"/><tag k="opening_hours" v="We 08:00-12:00"/><tag k="amenity" v="fuel"/><tag k="fuel:diesel" v="yes"/><tag k="brand" v="Total Erg"/><tag k="fixme" v="orario sospetto"/><tag k="name" v="Total"/><tag k="operator" v="Saccato Margherita"/><tag k="ref:mise" v="15657"/></node><node id="1344839994" version="2" lat="44.3601129" lon="7.8555579" action="modify"><tag k="fuel:octane_95" v="yes"/><tag k="amenity" v="fuel"/><tag k="fuel:diesel" v="yes"/><tag k="operator" v="Glc S.A.S.di Reimondi Chiara, Canavese Luca &amp; C. Siglabile, Ove Consentito in Glc S.A.S.&amp; C."/><tag k="brand" v="Agip Eni"/><tag k="name" v="AGIP"/><tag k="ref:mise" v="44560"/></node><node id="227775357" version="4" lat="44.677106" lon="7.628245" action="modify"><tag k="fuel:octane_95" v="yes"/><tag k="amenity" v="fuel"/><tag k="fuel:lpg" v="yes"/><tag k="fuel:diesel" v="yes"/><tag k="operator" v="Delpiano Gabriele"/><tag k="brand" v="Total Erg"/><tag k="name" v="Total"/><tag k="ref:mise" v="17412"/></node><node id="227959129" version="6" lat="44.4563809" lon="7.6639562" action="modify"><tag k="fuel:octane_95" v="yes"/><tag k="name" v="Erg"/><tag k="fuel:lpg" v="yes"/><tag k="fuel:diesel" v="yes"/><tag k="brand" v="Total Erg"/><tag k="amenity" v="fuel"/><tag k="operator" v="Faccia Da Bar S.A.S. di Faccia Matteo &amp; C."/><tag k="ref:mise" v="37287"/></node><node id="1371276833" version="5" lat="44.4892791" lon="7.5424412" action="modify"><tag k="fuel:octane_95" v="yes"/><tag k="highway" v="services"/><tag k="amenity" v="fuel"/><tag k="fuel:lpg" v="yes"/><tag k="fuel:diesel" v="yes"/><tag k="brand" v="Agip Eni"/><tag k="fixme" v="verificare tag highway=services"/><tag k="operator" v="StoS.p.A.Valter Costanzo &amp; C. S.N.C."/><tag k="ref:mise" v="36842"/></node><way id="178865651" version="5" action="modify"><tag k="fuel:octane_95" v="yes"/><tag k="amenity" v="fuel"/><tag k="fuel:diesel" v="yes"/><tag k="brand" v="Europam"/><tag k="name" v="Europam"/><tag k="source:date" v="2018-04-16"/><tag k="operator" v="Arese Flavia"/><tag k="ref:mise" v="20821"/><nd ref="5383601270"/><nd ref="5383601271"/><nd ref="5383601272"/><nd ref="5383601273"/><nd ref="5383601274"/><nd ref="1885928766"/><nd ref="5383601270"/></way><node id="1738396271" version="3" lat="44.5783384" lon="7.1864767" action="modify"><tag k="fuel:octane_95" v="yes"/><tag k="amenity" v="fuel"/><tag k="fuel:diesel" v="yes"/><tag k="operator" v="Europam S.P.A."/><tag k="brand" v="Europam"/><tag k="fixme" v="name"/><tag k="name" v="IP"/><tag k="ref:mise" v="41239"/></node><way id="425743621" version="3" action="modify"><tag k="fuel:octane_95" v="yes"/><tag k="amenity" v="fuel"/><tag k="fuel:diesel" v="yes"/><tag k="operator" v="Ip Services S.R.L."/><tag k="brand" v="Api-Ip"/><tag k="name" v="Api"/><tag k="ref:mise" v="32372"/><nd ref="4250468796"/><nd ref="4250468797"/><nd ref="4250468798"/><nd ref="4250468799"/><nd ref="4250468800"/><nd ref="4250468801"/><nd ref="4250468802"/><nd ref="4250468803"/><nd ref="4250468796"/></way><node id="5305675056" version="3" lat="44.4247027" lon="7.7224472" action="modify"><tag k="fuel:octane_95" v="yes"/><tag k="amenity" v="fuel"/><tag k="fuel:diesel" v="yes"/><tag k="operator" v="Gazzola Distributore S.R.L."/><tag k="name" v="Gazzola"/><tag k="ref:mise" v="19774"/></node><node id="227529795" version="4" lat="44.735866" lon="7.527523" action="modify"><tag k="fuel:octane_95" v="yes"/><tag k="amenity" v="fuel"/><tag k="fuel:diesel" v="yes"/><tag k="operator" v="Carozzi Andrea"/><tag k="brand" v="Total Erg"/><tag k="fixme" v="adjust position"/><tag k="name" v="Erg"/><tag k="ref:mise" v="13169"/></node><node id="227663457" version="5" lat="44.7548188" lon="8.068723" action="modify"><tag k="addr:city" v="Magliano Alfieri"/><tag k="fuel:diesel" v="yes"/><tag k="amenity" v="fuel"/><tag k="addr:postcode" v="12050"/><tag k="fuel:octane_95" v="yes"/><tag k="brand" v="Api-Ip"/><tag k="addr:street" v="Corso Guglielmo Marconi"/><tag k="addr:housenumber" v="7"/><tag k="name" v="IP"/><tag k="operator" v="Ip Services S.R.L."/><tag k="ref:mise" v="39096"/></node><node id="3246066915" version="2" lat="44.391072" lon="7.5702783" action="modify"><tag k="fuel:octane_95" v="yes"/><tag k="amenity" v="fuel"/><tag k="fuel:diesel" v="yes"/><tag k="brand" v="Q8"/><tag k="fixme" v="name Q8"/><tag k="operator" v="Cmg S.N.C.di Caula Federica &amp; C."/><tag k="ref:mise" v="37990"/></node><node id="227662386" version="6" lat="44.4001901" lon="7.5408867" action="modify"><tag k="fuel:octane_95" v="yes"/><tag k="amenity" v="fuel"/><tag k="fuel:lpg" v="yes"/><tag k="fuel:diesel" v="yes"/><tag k="brand" v="Q8"/><tag k="fuel:octane_100" v="yes"/><tag k="source:date" v="2018-04-16"/><tag k="operator" v="Rosano Valter"/><tag k="ref:mise" v="5719"/></node><node id="3470128550" version="3" lat="44.4248049" lon="7.4416063" action="modify"><tag k="fuel:octane_95" v="yes"/><tag k="amenity" v="fuel"/><tag k="fuel:lpg" v="yes"/><tag k="fuel:diesel" v="yes"/><tag k="operator" v="Isaia Fabrizio"/><tag k="ref:mise" v="37186"/></node><node id="227797917" version="5" lat="44.694071" lon="7.913311" action="modify"><tag k="addr:city" v="Santa Vittoria d'Alba"/><tag k="fuel:diesel" v="yes"/><tag k="amenity" v="fuel"/><tag k="addr:postcode" v="12069"/><tag k="fuel:octane_95" v="yes"/><tag k="brand" v="Agip Eni"/><tag k="addr:street" v="Via Statale"/><tag k="addr:housenumber" v="8"/><tag k="name" v="Agip"/><tag k="operator" v="Rainero Mauro"/><tag k="ref:mise" v="24271"/></node><node id="228302247" version="6" lat="44.507" lon="7.727932" action="modify"><tag k="fuel:octane_95" v="yes"/><tag k="amenity" v="fuel"/><tag k="fuel:octane_100" v="yes"/><tag k="fuel:diesel" v="yes"/><tag k="operator" v="Beccaria S.R.L. - Società a Responsabilità Limitata"/><tag k="brand" v="Q8"/><tag k="name" v="Q8"/><tag k="ref:mise" v="31644"/></node><node id="3246066917" version="4" lat="44.3705774" lon="7.5278175" action="modify"><tag k="fuel:octane_95" v="yes"/><tag k="amenity" v="fuel"/><tag k="fuel:diesel" v="yes"/><tag k="brand" v="Esso"/><tag k="operator" v="Zungri Sabatino"/><tag k="ref:mise" v="39139"/></node><node id="227660273" version="5" lat="44.709788" lon="8.026457" action="modify"><tag k="fuel:octane_95" v="yes"/><tag k="amenity" v="fuel"/><tag k="fuel:diesel" v="yes"/><tag k="brand" v="Total Erg"/><tag k="operator" v="Frau Mario"/><tag k="ref:mise" v="39366"/></node><node id="5851837656" version="1" lat="44.6300481" lon="7.783733" action="modify"><tag k="fuel:octane_95" v="yes"/><tag k="amenity" v="fuel"/><tag k="fuel:diesel" v="yes"/><tag k="brand" v="Europam"/><tag k="operator" v="Sicram Srl"/><tag k="ref:mise" v="42092"/></node><node id="2450401009" version="3" lat="44.3361252" lon="7.5338478" action="modify"><tag k="fuel:octane_95" v="yes"/><tag k="amenity" v="fuel"/><tag k="fuel:diesel" v="yes"/><tag k="operator" v="Saced S.R.L."/><tag k="brand" v="Saced"/><tag k="name" v="Saced"/><tag k="ref:mise" v="13316"/></node><node id="228302011" version="4" lat="44.376298" lon="8.037529" action="modify"><tag k="fuel:octane_95" v="yes"/><tag k="amenity" v="fuel"/><tag k="fuel:lpg" v="yes"/><tag k="fuel:diesel" v="yes"/><tag k="operator" v="Fresia Massimo"/><tag k="brand" v="Tamoil"/><tag k="name" v="Tamoil"/><tag k="ref:mise" v="4938"/></node><node id="227661750" version="6" lat="44.3731371" lon="7.522431" action="modify"><tag k="fuel:octane_95" v="yes"/><tag k="name" v="ERG"/><tag k="fuel:lpg" v="yes"/><tag k="fuel:diesel" v="yes"/><tag k="brand" v="Total Erg"/><tag k="amenity" v="fuel"/><tag k="fixme" v="name"/><tag k="operator" v="C.P.P. Compagnia Petrolifera Piemontese - S.R.L."/><tag k="ref:mise" v="43621"/></node><node id="4142475296" version="2" lat="44.3947562" lon="7.5289938" action="modify"><tag k="fuel:octane_95" v="yes"/><tag k="amenity" v="fuel"/><tag k="fuel:diesel" v="yes"/><tag k="operator" v="Maverick di De Angelis Urbano &amp; C. Sas"/><tag k="brand" v="Total Erg"/><tag k="name" v="TotalErg"/><tag k="ref:mise" v="41392"/></node><node id="5141813080" version="2" lat="44.7298374" lon="7.3384964" action="modify"><tag k="fuel:octane_95" v="yes"/><tag k="amenity" v="fuel"/><tag k="fuel:lpg" v="yes"/><tag k="fuel:diesel" v="yes"/><tag k="brand" v="Agip Eni"/><tag k="fuel:octane_100" v="yes"/><tag k="operator" v="Alberto Pierpaolo"/><tag k="ref:mise" v="4859"/></node><node id="228288571" version="4" lat="44.411647" lon="7.788443" action="modify"><tag k="fuel:octane_95" v="yes"/><tag k="amenity" v="fuel"/><tag k="fuel:lpg" v="yes"/><tag k="fuel:diesel" v="yes"/><tag k="operator" v="Gonella &amp; Soma' S.R.L."/><tag k="brand" v="Api-Ip"/><tag k="name" v="IP"/><tag k="ref:mise" v="21783"/></node><node id="226909982" version="5" lat="44.652337" lon="7.496281" action="modify"><tag k="fuel:octane_95" v="yes"/><tag k="amenity" v="fuel"/><tag k="fuel:diesel" v="yes"/><tag k="operator" v="Ip Services S.R.L."/><tag k="brand" v="Api-Ip"/><tag k="name" v="Api"/><tag k="ref:mise" v="32373"/></node><node id="228765445" version="7" lat="44.375953" lon="7.677673" action="modify"><tag k="fuel:octane_95" v="yes"/><tag k="ref:mise" v="43299"/><tag k="fuel:lpg" v="yes"/><tag k="fuel:diesel" v="yes"/><tag k="operator" v="Saced S.R.L."/><tag k="name" v="Caraglio gas"/><tag k="amenity" v="fuel"/></node><node id="227662593" version="5" lat="44.3953827" lon="7.5544083" action="modify"><tag k="fuel:octane_95" v="yes"/><tag k="amenity" v="fuel"/><tag k="fuel:diesel" v="yes"/><tag k="operator" v="Brescacin Alain"/><tag k="brand" v="DIS-CAR"/><tag k="name" v="Shell"/><tag k="ref:mise" v="32250"/></node><node id="228019245" version="6" lat="44.3718097" lon="8.076337" action="modify"><tag k="fuel:octane_95" v="yes"/><tag k="amenity" v="fuel"/><tag k="fuel:lpg" v="yes"/><tag k="fuel:diesel" v="yes"/><tag k="operator" v="Poker S.A.S. di Raso Sergio &amp; C."/><tag k="brand" v="Esso"/><tag k="name" v="Esso"/><tag k="ref:mise" v="3736"/></node><node id="226912503" version="5" lat="44.4092222" lon="7.5524747" action="modify"><tag k="fuel:octane_95" v="yes"/><tag k="amenity" v="fuel"/><tag k="fuel:diesel" v="yes"/><tag k="operator" v="De Angelis Antonio"/><tag k="brand" v="Esso"/><tag k="name" v="Esso"/><tag k="ref:mise" v="23978"/></node><node id="227663509" version="5" lat="44.2427549" lon="7.5347117" action="modify"><tag k="fuel:octane_95" v="yes"/><tag k="amenity" v="fuel"/><tag k="fuel:diesel" v="yes"/><tag k="brand" v="Total Erg"/><tag k="fixme" v="name e brand non coincidono"/><tag k="name" v="Shell"/><tag k="operator" v="Dalmasso Raffaele"/><tag k="ref:mise" v="8317"/></node><node id="226923832" version="5" lat="44.3862421" lon="8.0205467" action="modify"><tag k="fuel:octane_95" v="yes"/><tag k="amenity" v="fuel"/><tag k="fuel:diesel" v="yes"/><tag k="brand" v="Q8"/><tag k="fixme" v="verificare cambio name"/><tag k="name" v="IES"/><tag k="operator" v="Cmg S.N.C.di Caula Federica &amp; C."/><tag k="ref:mise" v="44370"/></node><node id="228141506" version="5" lat="44.4044895" lon="7.5457871" action="modify"><tag k="fuel:octane_95" v="yes"/><tag k="amenity" v="fuel"/><tag k="fuel:diesel" v="yes"/><tag k="operator" v="Europam S.P.A."/><tag k="brand" v="Europam"/><tag k="fixme" v="name e brand non coincidono"/><tag k="name" v="Repsol"/><tag k="ref:mise" v="43501"/></node><node id="622089135" version="2" lat="44.3979623" lon="7.7505662" action="modify"><tag k="fuel:octane_95" v="yes"/><tag k="amenity" v="fuel"/><tag k="fuel:diesel" v="yes"/><tag k="operator" v="Mondino Claudio"/><tag k="brand" v="Total Erg"/><tag k="fixme" v="name"/><tag k="name" v="Shell"/><tag k="ref:mise" v="7402"/></node><node id="226923708" version="5" lat="44.3879594" lon="8.0339142" action="modify"><tag k="fuel:octane_95" v="yes"/><tag k="amenity" v="fuel"/><tag k="fuel:octane_100" v="yes"/><tag k="fuel:diesel" v="yes"/><tag k="operator" v="Rizzon Davide"/><tag k="brand" v="Agip Eni"/><tag k="name" v="Agip"/><tag k="ref:mise" v="33376"/></node><node id="811087062" version="4" lat="44.4170943" lon="7.8312689" action="modify"><tag k="fuel:octane_95" v="yes"/><tag k="amenity" v="fuel"/><tag k="fuel:diesel" v="yes"/><tag k="brand" v="Kerotris"/><tag k="operator" v="Kerotris - Società a Responsabilità Limitata"/><tag k="ref:mise" v="13140"/></node><node id="227661539" version="7" lat="44.5778339" lon="8.1963944" action="modify"><tag k="fuel:octane_95" v="yes"/><tag k="amenity" v="fuel"/><tag k="fuel:diesel" v="yes"/><tag k="operator" v="Dis-car di Sarra Paolo &amp; C. S.N.C."/><tag k="brand" v="DIS-CAR"/><tag k="name" v="Dis Car"/><tag k="ref:mise" v="32174"/></node><node id="1110212197" version="3" lat="44.664944" lon="8.1958133" action="modify"><tag k="fuel:octane_95" v="yes"/><tag k="amenity" v="fuel"/><tag k="fuel:diesel" v="yes"/><tag k="operator" v="Zanella Mario"/><tag k="brand" v="Api-Ip"/><tag k="fixme" v="name; verifica cambio operatore"/><tag k="name" v="Erg"/><tag k="ref:mise" v="12481"/></node><node id="3159464970" version="4" lat="44.5748847" lon="7.851392" action="modify"><tag k="fuel:octane_95" v="yes"/><tag k="amenity" v="fuel"/><tag k="fuel:diesel" v="yes"/><tag k="brand" v="Restiani"/><tag k="fixme" v="Resurvey; name"/><tag k="name" v="Distributore TOTAL-ERG"/><tag k="operator" v="Restiani - S.P.A."/><tag k="ref:mise" v="24417"/></node><node id="228019254" version="3" lat="44.541546" lon="7.718943" action="modify"><tag k="fuel:octane_95" v="yes"/><tag k="amenity" v="fuel"/><tag k="fuel:diesel" v="yes"/><tag k="operator" v="Leone Irene"/><tag k="brand" v="Repsol"/><tag k="name" v="Repsol"/><tag k="ref:mise" v="36159"/></node><node id="6125737601" version="3" lat="44.7016479" lon="7.8478444" action="modify"><tag k="addr:city" v="Bra"/><tag k="fuel:diesel" v="yes"/><tag k="amenity" v="fuel"/><tag k="addr:postcode" v="12042"/><tag k="fuel:octane_95" v="yes"/><tag k="brand" v="Europam"/><tag k="addr:street" v="Via Vittorio Emanuele II"/><tag k="addr:housenumber" v="5"/><tag k="operator" v="Sicram Srl"/><tag k="ref:mise" v="36201"/></node><node id="227663463" version="5" lat="44.628489" lon="7.362943" action="modify"><tag k="fuel:octane_95" v="yes"/><tag k="amenity" v="fuel"/><tag k="fuel:diesel" v="yes"/><tag k="operator" v="Benzoil Società a Responsabilità Limitata Semplificata"/><tag k="fixme" v="name"/><tag k="name" v="TotalErg"/><tag k="ref:mise" v="37889"/></node><node id="5305560630" version="2" lat="44.41481" lon="7.7000266" action="modify"><tag k="fuel:octane_95" v="yes"/><tag k="amenity" v="fuel"/><tag k="fuel:lpg" v="yes"/><tag k="fuel:diesel" v="yes"/><tag k="brand" v="Esso"/><tag k="fixme" v="verificare cambio brand"/><tag k="operator" v="L'arcobaleno S.A.S.di Menna Alberto e Miscia Maurizio &amp; C."/><tag k="ref:mise" v="43028"/></node><node id="4959886622" version="3" lat="44.5547356" lon="7.7128524" action="modify"><tag k="fuel:octane_95" v="yes"/><tag k="fixme" v="togliere name:it"/><tag k="amenity" v="fuel"/><tag k="fuel:lpg" v="yes"/><tag k="fuel:diesel" v="yes"/><tag k="addr:street" v="Via Ceresolia"/><tag k="name:it" v="Centro Petroli"/><tag k="name" v="Centro Petroli"/><tag k="operator" v="Centro Petroli Fossano S.R.L."/><tag k="ref:mise" v="15023"/></node><node id="227959978" version="5" lat="44.3851952" lon="7.5347422" action="modify"><tag k="fuel:octane_95" v="yes"/><tag k="amenity" v="fuel"/><tag k="fuel:diesel" v="yes"/><tag k="brand" v="Europam"/><tag k="fixme" v="name"/><tag k="name" v="IP"/><tag k="operator" v="Deplano Maurizio"/><tag k="ref:mise" v="20864"/></node><node id="1432534371" version="3" lat="44.3066302" lon="7.1734305" action="modify"><tag k="fuel:octane_95" v="yes"/><tag k="amenity" v="fuel"/><tag k="fuel:diesel" v="yes"/><tag k="brand" v="Total Erg"/><tag k="operator" v="Coro S.R.L."/><tag k="ref:mise" v="8648"/></node><node id="802819245" version="6" lat="44.3806229" lon="7.5587151" action="modify"><tag k="fuel:octane_95" v="yes"/><tag k="amenity" v="fuel"/><tag k="fuel:diesel" v="yes"/><tag k="brand" v="Esso"/><tag k="operator" v="Repaci Domenico"/><tag k="ref:mise" v="43871"/></node><node id="227804992" version="4" lat="44.464542" lon="7.830253" action="modify"><tag k="fuel:octane_95" v="yes"/><tag k="amenity" v="fuel"/><tag k="fuel:diesel" v="yes"/><tag k="operator" v="Centro Calor S.R.L."/><tag k="name" v="C. Calor"/><tag k="ref:mise" v="10526"/></node><node id="227660282" version="4" lat="44.543425" lon="7.828676" action="modify"><tag k="fuel:octane_95" v="yes"/><tag k="amenity" v="fuel"/><tag k="fuel:diesel" v="yes"/><tag k="brand" v="Total Erg"/><tag k="fixme" v="name"/><tag k="name" v="Shell"/><tag k="operator" v="Bertola Claudio"/><tag k="ref:mise" v="13987"/></node><node id="227660713" version="4" lat="44.351136" lon="7.507954" action="modify"><tag k="fuel:octane_95" v="yes"/><tag k="amenity" v="fuel"/><tag k="fuel:diesel" v="yes"/><tag k="operator" v="Servizi &amp; Gestioni Italia S.R.L."/><tag k="brand" v="Q8"/><tag k="fixme" v="name"/><tag k="name" v="Shell"/><tag k="ref:mise" v="11549"/></node><node id="227776900" version="7" lat="44.6514887" lon="7.3845815" action="modify"><tag k="note" v="Di Conti s.n.c."/><tag k="fuel:octane_95" v="yes"/><tag k="amenity" v="fuel"/><tag k="fuel:diesel" v="yes"/><tag k="operator" v="Petrolnafta di Conti Giovanni &amp; C. S.N.C."/><tag k="fixme" v="rimuovere note"/><tag k="name" v="Petrolnafta"/><tag k="ref:mise" v="21342"/></node><node id="227663226" version="5" lat="44.5611966" lon="7.7393153" action="modify"><tag k="fuel:octane_95" v="yes"/><tag k="amenity" v="fuel"/><tag k="fuel:diesel" v="yes"/><tag k="operator" v="Servizi &amp; Gestioni Italia S.R.L."/><tag k="brand" v="Q8"/><tag k="name" v="Q8"/><tag k="ref:mise" v="11550"/></node><node id="2477105673" version="2" lat="44.783953" lon="7.7299017" action="modify"><tag k="fuel:octane_95" v="yes"/><tag k="amenity" v="fuel"/><tag k="fuel:lpg" v="yes"/><tag k="fuel:diesel" v="yes"/><tag k="brand" v="Total Erg"/><tag k="operator" v="Break &amp; Wash S.N.C.di Cassara' Giuseppe e di Maio Fabiana"/><tag k="ref:mise" v="44580"/></node><node id="1481083651" version="3" lat="44.6295916" lon="7.5604883" action="modify"><tag k="fuel:octane_95" v="yes"/><tag k="amenity" v="fuel"/><tag k="fuel:diesel" v="yes"/><tag k="brand" v="Total Erg"/><tag k="operator" v="Ferrero Silvano"/><tag k="ref:mise" v="19712"/></node><node id="226904955" version="4" lat="44.747846" lon="7.408476" action="modify"><tag k="fuel:octane_95" v="yes"/><tag k="amenity" v="fuel"/><tag k="fuel:diesel" v="yes"/><tag k="operator" v="Pons Flavio"/><tag k="brand" v="Total Erg"/><tag k="name" v="Erg"/><tag k="ref:mise" v="19579"/></node><node id="1974228883" version="3" lat="44.5570107" lon="7.7118785" action="modify"><tag k="fuel:octane_95" v="yes"/><tag k="amenity" v="fuel"/><tag k="fuel:octane_100" v="yes"/><tag k="fuel:diesel" v="yes"/><tag k="brand" v="Agip Eni"/><tag k="name:it" v="AGIP"/><tag k="name" v="AGIP"/><tag k="operator" v="Allocco Ermanno &amp; Aimetta Marilena S.N.C."/><tag k="ref:mise" v="26572"/></node><node id="228019900" version="3" lat="44.540431" lon="7.612474" action="modify"><tag k="fuel:octane_95" v="yes"/><tag k="amenity" v="fuel"/><tag k="fuel:diesel" v="yes"/><tag k="operator" v="Società Agricola Lubrificanti Carburanti Ed Affini (sigla S.A.L.C.A.) a Responsabilità Limitata"/><tag k="brand" v="Total Erg"/><tag k="name" v="Erg"/><tag k="ref:mise" v="41416"/></node><way id="385203928" version="3" action="modify"><tag k="fuel:octane_95" v="yes"/><tag k="ref:mise" v="31743"/><tag k="addr:street" v="Via Saluzzo"/><tag k="name" v="TotalErg"/><tag k="addr:housenumber" v="32 A"/><tag k="wheelchair" v="yes"/><tag k="amenity" v="fuel"/><tag k="fuel:lpg" v="yes"/><tag k="fuel:diesel" v="yes"/><tag k="operator" v="Ferrero Giulia"/><tag k="brand" v="Total Erg"/><tag k="source:date" v="2018-04-16"/><tag k="building" v="industrial"/><nd ref="3885599375"/><nd ref="3885599367"/><nd ref="3885599326"/><nd ref="3885599328"/><nd ref="3885599333"/><nd ref="3885599337"/><nd ref="3885599375"/></way><node id="226988273" version="4" lat="44.405979" lon="7.806854" action="modify"><tag k="fuel:octane_95" v="yes"/><tag k="amenity" v="fuel"/><tag k="fuel:diesel" v="yes"/><tag k="operator" v="Cordischi Ivan"/><tag k="brand" v="Agip Eni"/><tag k="name" v="Agip"/><tag k="ref:mise" v="27851"/></node><node id="226910299" version="4" lat="44.601025" lon="7.483041" action="modify"><tag k="fuel:octane_95" v="yes"/><tag k="amenity" v="fuel"/><tag k="fuel:diesel" v="yes"/><tag k="operator" v="La Capinera S.N.C.di Quinto Gilberto &amp; C."/><tag k="brand" v="Esso"/><tag k="name" v="Esso"/><tag k="ref:mise" v="31667"/></node><node id="5267518209" version="2" lat="44.5617121" lon="7.7401071" action="modify"><tag k="fuel:octane_95" v="yes"/><tag k="amenity" v="fuel"/><tag k="fuel:octane_100" v="yes"/><tag k="fuel:diesel" v="yes"/><tag k="operator" v="Tuninetti Gianni"/><tag k="brand" v="Agip Eni"/><tag k="name" v="Eni"/><tag k="ref:mise" v="6975"/></node><node id="226912492" version="4" lat="44.391506" lon="7.542822" action="modify"><tag k="fuel:octane_95" v="yes"/><tag k="amenity" v="fuel"/><tag k="fuel:octane_100" v="yes"/><tag k="fuel:diesel" v="yes"/><tag k="operator" v="Bonelli Danilo"/><tag k="brand" v="Agip Eni"/><tag k="name" v="Agip"/><tag k="ref:mise" v="36162"/></node><node id="226914700" version="4" lat="44.414931" lon="7.549775" action="modify"><tag k="fuel:octane_95" v="yes"/><tag k="amenity" v="fuel"/><tag k="fuel:diesel" v="yes"/><tag k="operator" v="Abello Sergio"/><tag k="brand" v="Total Erg"/><tag k="name" v="Erg"/><tag k="ref:mise" v="13999"/></node><node id="227529948" version="5" lat="44.5623113" lon="7.396643" action="modify"><tag k="fuel:octane_95" v="yes"/><tag k="amenity" v="fuel"/><tag k="fuel:diesel" v="yes"/><tag k="brand" v="Europam"/><tag k="fixme" v="name"/><tag k="name" v="IP"/><tag k="operator" v="Europam S.P.A."/><tag k="ref:mise" v="43724"/></node><node id="228766718" version="6" lat="44.3946926" lon="7.5650429" action="modify"><tag k="fuel:octane_95" v="yes"/><tag k="amenity" v="fuel"/><tag k="fuel:diesel" v="yes"/><tag k="brand" v="Api-Ip"/><tag k="fuel:cng" v="yes"/><tag k="fixme" v="ok"/><tag k="name" v="IP"/><tag k="operator" v="Cmg S.N.C.di Caula Federica &amp; C."/><tag k="ref:mise" v="44373"/></node><node id="227663454" version="4" lat="44.792636" lon="8.111467" action="modify"><tag k="fuel:octane_95" v="yes"/><tag k="amenity" v="fuel"/><tag k="fuel:octane_100" v="yes"/><tag k="fuel:diesel" v="yes"/><tag k="operator" v="Servizi &amp; Gestioni Italia S.R.L."/><tag k="brand" v="Q8"/><tag k="name" v="Shell"/><tag k="ref:mise" v="11555"/></node><node id="227663473" version="4" lat="44.398475" lon="7.823934" action="modify"><tag k="fuel:octane_95" v="yes"/><tag k="amenity" v="fuel"/><tag k="fuel:lpg" v="yes"/><tag k="fuel:diesel" v="yes"/><tag k="fuel:octane_100" v="yes"/><tag k="brand" v="Q8"/><tag k="fixme" v="name"/><tag k="name" v="Shell"/><tag k="operator" v="Mondoservice S.A.S. di D'Angelo Gabriele e C."/><tag k="ref:mise" v="5028"/></node><node id="227660278" version="6" lat="44.7024298" lon="8.0640802" action="modify"><tag k="fuel:octane_95" v="yes"/><tag k="amenity" v="fuel"/><tag k="fuel:diesel" v="yes"/><tag k="brand" v="Kerotris"/><tag k="operator" v="Giordano Claudio"/><tag k="ref:mise" v="19710"/></node><node id="228775180" version="4" lat="44.650299" lon="7.684979" action="modify"><tag k="fuel:octane_95" v="yes"/><tag k="amenity" v="fuel"/><tag k="fuel:lpg" v="yes"/><tag k="fuel:diesel" v="yes"/><tag k="brand" v="Socogas"/><tag k="fixme" v="name"/><tag k="name" v="Agip"/><tag k="operator" v="On The Road S.N.C. di Cavallero Rinaldo &amp; C. Siglabile On The Road S.N.C."/><tag k="ref:mise" v="38535"/></node><node id="2902207242" version="5" lat="44.4297918" lon="7.5675883" action="modify"><tag k="amenity" v="fuel"/><tag k="fuel:diesel" v="yes"/><tag k="addr:city" v="Cuneo"/><tag k="fuel:octane_95" v="yes"/><tag k="contact:phone" v="+39 0171 300708"/><tag k="addr:street" v="via Bra"/><tag k="fixme" v="name; capitalize address"/><tag k="name" v="Metano"/><tag k="fuel:cng" v="yes"/><tag k="operator" v="Saced S.R.L."/><tag k="ref:mise" v="37781"/></node><node id="227663467" version="4" lat="44.404132" lon="7.83058" action="modify"><tag k="fuel:octane_95" v="yes"/><tag k="amenity" v="fuel"/><tag k="fuel:diesel" v="yes"/><tag k="operator" v="Europam S.P.A."/><tag k="brand" v="Europam"/><tag k="fixme" v="name; spostare il marker su edificio a est"/><tag k="name" v="Shell"/><tag k="ref:mise" v="39502"/></node><node id="227806951" version="4" lat="44.397789" lon="7.822829" action="modify"><tag k="fuel:octane_95" v="yes"/><tag k="amenity" v="fuel"/><tag k="fuel:diesel" v="yes"/><tag k="operator" v="Fazio Giuseppe"/><tag k="brand" v="Tamoil"/><tag k="fixme" v="adjust position"/><tag k="name" v="Tamoil"/><tag k="ref:mise" v="8598"/></node><node id="1963466550" version="3" lat="44.6869073" lon="8.148534" action="modify"><tag k="fuel:octane_95" v="yes"/><tag k="fixme" v="adjust position"/><tag k="amenity" v="fuel"/><tag k="fuel:diesel" v="yes"/><tag k="brand" v="Api-Ip"/><tag k="name:it" v="IP"/><tag k="name" v="IP"/><tag k="operator" v="Giordano Claudio"/><tag k="ref:mise" v="39501"/></node><node id="227806953" version="4" lat="44.402227" lon="7.828676" action="modify"><tag k="fuel:octane_95" v="yes"/><tag k="amenity" v="fuel"/><tag k="fuel:octane_100" v="yes"/><tag k="fuel:diesel" v="yes"/><tag k="operator" v="Mengarelli Luca"/><tag k="brand" v="Agip Eni"/><tag k="name" v="Agip"/><tag k="ref:mise" v="34662"/></node><node id="226988640" version="5" lat="44.685147" lon="7.85001" action="modify"><tag k="fuel:octane_95" v="yes"/><tag k="addr:city" v="Bra"/><tag k="addr:postcode" v="12042"/><tag k="addr:street" v="Via Cuneo"/><tag k="fixme" v="spostare su edificio a est"/><tag k="name" v="Agip"/><tag k="addr:housenumber" v="136"/><tag k="amenity" v="fuel"/><tag k="fuel:diesel" v="yes"/><tag k="brand" v="Agip Eni"/><tag k="operator" v="Z.A. S.N.C. di Zoccarato Pietro &amp; C. Siglabile in Z.A. S.N.C."/><tag k="ref:mise" v="13828"/></node><node id="5853345313" version="2" lat="44.4262026" lon="7.5637329" action="modify"><tag k="fuel:octane_95" v="yes"/><tag k="fuel:diesel" v="yes"/><tag k="amenity" v="fuel"/><tag k="operator" v="Centro Calor S.R.L."/><tag k="ref:mise" v="10531"/></node><node id="227806401" version="4" lat="44.548605" lon="7.784854" action="modify"><tag k="fuel:octane_95" v="yes"/><tag k="amenity" v="fuel"/><tag k="fuel:diesel" v="yes"/><tag k="operator" v="Salzotto Gianfranco"/><tag k="brand" v="Q8"/><tag k="name" v="Q8"/><tag k="ref:mise" v="3933"/></node><way id="554111369" version="3" action="modify"><tag k="fuel:octane_95" v="yes"/><tag k="amenity" v="fuel"/><tag k="fuel:diesel" v="yes"/><tag k="brand" v="Total Erg"/><tag k="name" v="Total"/><tag k="source:date" v="2018-04-16"/><tag k="operator" v="Rabbia Giovanni Piero"/><tag k="ref:mise" v="18297"/><nd ref="5347892257"/><nd ref="5347892256"/><nd ref="5347892230"/><nd ref="5347892254"/><nd ref="5347892257"/></way><node id="227600266" version="4" lat="44.351249" lon="7.778846" action="modify"><tag k="fuel:octane_95" v="yes"/><tag k="fuel:octane_98" v="yes"/><tag k="amenity" v="fuel"/><tag k="fuel:diesel" v="yes"/><tag k="operator" v="Gonella &amp; Soma' S.R.L."/><tag k="brand" v="Api-Ip"/><tag k="name" v="IP"/><tag k="ref:mise" v="24518"/></node><node id="228020913" version="4" lat="44.634261" lon="7.496152" action="modify"><tag k="fuel:octane_95" v="yes"/><tag k="amenity" v="fuel"/><tag k="fuel:lpg" v="yes"/><tag k="fuel:diesel" v="yes"/><tag k="operator" v="Para D. &amp; G. di Para Domenica, Para Giuseppe &amp; C. S.N.C."/><tag k="brand" v="Socogas"/><tag k="fuel:cng" v="yes"/><tag k="name" v="Tamoil"/><tag k="ref:mise" v="4432"/></node><node id="727188984" version="3" lat="44.1476684" lon="7.9098875" action="modify"><tag k="fuel:octane_95" v="yes"/><tag k="amenity" v="fuel"/><tag k="fuel:diesel" v="yes"/><tag k="operator" v="Mazza Amanda"/><tag k="brand" v="Agip Eni"/><tag k="name" v="Agip"/><tag k="ref:mise" v="34960"/></node><way id="489492048" version="3" action="modify"><tag k="fuel:octane_95" v="yes"/><tag k="ref:mise" v="18253"/><tag k="fixme" v="togliere name:en name:it"/><tag k="name:en" v="Q8"/><tag k="amenity" v="fuel"/><tag k="fuel:lpg" v="yes"/><tag k="fuel:diesel" v="yes"/><tag k="brand" v="Q8"/><tag k="name:lt" v="Q 8"/><tag k="name" v="Q8"/><tag k="source:date" v="2018-04-16"/><tag k="operator" v="Chris Cafe' S.A.S. di La Greca Claudia &amp; C."/><nd ref="4817286209"/><nd ref="4817286208"/><nd ref="4817286207"/><nd ref="4817286206"/><nd ref="5414321056"/><nd ref="5414321055"/><nd ref="4817286209"/></way><node id="811087091" version="2" lat="44.3691827" lon="7.6329774" action="modify"><tag k="fuel:octane_95" v="yes"/><tag k="amenity" v="fuel"/><tag k="fuel:diesel" v="yes"/><tag k="brand" v="Total Erg"/><tag k="operator" v="Dragone Ivana"/><tag k="ref:mise" v="11241"/></node><node id="4268890993" version="2" lat="44.2089043" lon="8.0150581" action="modify"><tag k="fuel:octane_95" v="yes"/><tag k="amenity" v="fuel"/><tag k="fuel:octane_100" v="yes"/><tag k="fuel:diesel" v="yes"/><tag k="operator" v="Ricca Mauro"/><tag k="brand" v="Agip Eni"/><tag k="name" v="Agip"/><tag k="ref:mise" v="36190"/></node><node id="227959354" version="6" lat="44.3313334" lon="7.4937934" action="modify"><tag k="fuel:octane_95" v="yes"/><tag k="amenity" v="fuel"/><tag k="fuel:diesel" v="yes"/><tag k="operator" v="3v di Violino Diego &amp; C. S.N.C."/><tag k="brand" v="Esso"/><tag k="name" v="Esso"/><tag k="ref:mise" v="43921"/></node><way id="383392480" version="4" action="modify"><tag k="building" v="yes"/><tag k="amenity" v="fuel"/><tag k="fuel:octane_95" v="yes"/><tag k="brand" v="Q8"/><tag k="fuel:diesel" v="yes"/><tag k="source:date" v="2018-04-16"/><tag k="operator" v="Servizi &amp; Gestioni Italia S.R.L."/><tag k="ref:mise" v="11557"/><nd ref="3866472309"/><nd ref="3866472311"/><nd ref="3866472319"/><nd ref="3866472321"/><nd ref="3866472322"/><nd ref="3866472338"/><nd ref="3866472350"/><nd ref="3866472351"/><nd ref="3866472366"/><nd ref="3866472342"/><nd ref="3866472332"/><nd ref="3866472330"/><nd ref="3866472328"/><nd ref="3866472326"/><nd ref="3866472325"/><nd ref="3866472312"/><nd ref="3866472315"/><nd ref="3866472297"/><nd ref="3866472300"/><nd ref="3866472279"/><nd ref="3866472292"/><nd ref="3866472309"/></way><node id="228302238" version="6" lat="44.3624118" lon="7.833692" action="modify"><tag k="fuel:octane_95" v="yes"/><tag k="amenity" v="fuel"/><tag k="fuel:diesel" v="yes"/><tag k="brand" v="Tamoil"/><tag k="fuel:cng" v="yes"/><tag k="fixme" v="adjust position"/><tag k="name" v="Tamoil"/><tag k="operator" v="T.D.M. S.R.L."/><tag k="ref:mise" v="44658"/></node><node id="227806217" version="5" lat="44.434631" lon="7.8500515" action="modify"><tag k="fuel:octane_95" v="yes"/><tag k="amenity" v="fuel"/><tag k="fuel:lpg" v="yes"/><tag k="fuel:diesel" v="yes"/><tag k="operator" v="Vivocaffe' S.A.S. di Damiano Giuseppe e C."/><tag k="brand" v="Esso"/><tag k="name" v="Esso"/><tag k="ref:mise" v="38468"/></node><node id="3179266361" version="3" lat="44.6456976" lon="7.8665147" action="modify"><tag k="fuel:octane_95" v="yes"/><tag k="amenity" v="fuel"/><tag k="fuel:lpg" v="yes"/><tag k="fuel:diesel" v="yes"/><tag k="operator" v="Erretre S.R.L."/><tag k="fuel:cng" v="yes"/><tag k="name" v="Erretre"/><tag k="ref:mise" v="12648"/></node><node id="228112356" version="4" lat="44.82306" lon="7.62549" action="modify"><tag k="fuel:octane_95" v="yes"/><tag k="amenity" v="fuel"/><tag k="fuel:diesel" v="yes"/><tag k="operator" v="Distributore Esso di Fazal Shahzad"/><tag k="brand" v="Esso"/><tag k="name" v="Esso"/><tag k="ref:mise" v="43265"/></node><way id="489492894" version="3" action="modify"><tag k="fuel:octane_95" v="yes"/><tag k="amenity" v="fuel"/><tag k="fuel:lpg" v="yes"/><tag k="fuel:diesel" v="yes"/><tag k="brand" v="Esso"/><tag k="fixme" v="name; verificare cambio brand"/><tag k="name" v="Eni"/><tag k="source:date" v="2018-04-16"/><tag k="operator" v="Ristobar Del Sole S.R.L.Società a Responsabilità Limitata Semplificata"/><tag k="ref:mise" v="29881"/><nd ref="4817293464"/><nd ref="4817293463"/><nd ref="4817293462"/><nd ref="4817293461"/><nd ref="4817293460"/><nd ref="4817293459"/><nd ref="4817293458"/><nd ref="4817293457"/><nd ref="4817293837"/><nd ref="4817293456"/><nd ref="4817293455"/><nd ref="4817293454"/><nd ref="4817293453"/><nd ref="4817293829"/><nd ref="4817293464"/></way><node id="3180506130" version="3" lat="44.5998988" lon="7.8701716" action="modify"><tag k="fuel:octane_95" v="yes"/><tag k="amenity" v="fuel"/><tag k="fuel:diesel" v="yes"/><tag k="operator" v="Broggio Franco"/><tag k="brand" v="Tamoil"/><tag k="name" v="Distributore"/><tag k="ref:mise" v="8289"/></node><node id="5851831891" version="1" lat="44.6961973" lon="7.9502488" action="modify"><tag k="fuel:octane_95" v="yes"/><tag k="amenity" v="fuel"/><tag k="fuel:lpg" v="yes"/><tag k="fuel:diesel" v="yes"/><tag k="brand" v="Agip Eni"/><tag k="fuel:octane_100" v="yes"/><tag k="operator" v="Mister Animal S.A.S. di Marchiaro Roberto &amp; C."/><tag k="ref:mise" v="45009"/></node><node id="226909552" version="6" lat="44.6408818" lon="7.4978631" action="modify"><tag k="fuel:octane_95" v="yes"/><tag k="fuel:biodiesel" v="no"/><tag k="name" v="Eni"/><tag k="fuel:octane_100" v="yes"/><tag k="fuel:diesel" v="yes"/><tag k="brand" v="Agip Eni"/><tag k="amenity" v="fuel"/><tag k="operator" v="Laurenti Maurizio"/><tag k="ref:mise" v="10002"/></node><way id="478409617" version="4" action="modify"><tag k="fuel:octane_95" v="yes"/><tag k="amenity" v="fuel"/><tag k="fuel:octane_100" v="yes"/><tag k="fuel:diesel" v="yes"/><tag k="brand" v="Agip Eni"/><tag k="operator" v="Reineri Valerio"/><tag k="ref:mise" v="19629"/><nd ref="4716327811"/><nd ref="4716327810"/><nd ref="4710580421"/><nd ref="3728366649"/><nd ref="4716327811"/></way><node id="3246066914" version="2" lat="44.3868735" lon="7.5592803" action="modify"><tag k="fuel:octane_95" v="yes"/><tag k="amenity" v="fuel"/><tag k="fuel:diesel" v="yes"/><tag k="brand" v="Total Erg"/><tag k="operator" v="Società Agricola Lubrificanti Carburanti Ed Affini (sigla S.A.L.C.A.) a Responsabilità Limitata"/><tag k="ref:mise" v="45167"/></node><node id="226914695" version="9" lat="44.3945479" lon="7.548332" action="modify"><tag k="fuel:octane_95" v="yes"/><tag k="amenity" v="fuel"/><tag k="fuel:lpg" v="yes"/><tag k="fuel:diesel" v="yes"/><tag k="brand" v="Socogas"/><tag k="fixme" v="spostare su edificio a ovest"/><tag k="operator" v="Daniele Raimondo &amp; Busso Duilio S.N.C."/><tag k="ref:mise" v="24366"/></node><way id="368901151" version="2" action="modify"><tag k="fuel:octane_95" v="yes"/><tag k="amenity" v="fuel"/><tag k="fuel:diesel" v="yes"/><tag k="brand" v="Tamoil"/><tag k="operator" v="Lello Bar di Calleri Antonello"/><tag k="ref:mise" v="42013"/><nd ref="3727420100"/><nd ref="3727420103"/><nd ref="3727420069"/><nd ref="3727420053"/><nd ref="3727420084"/><nd ref="3727420095"/><nd ref="3727420097"/><nd ref="3727420100"/></way><node id="227797347" version="5" lat="44.743838" lon="8.058343" action="modify"><tag k="fuel:octane_95" v="yes"/><tag k="addr:city" v="Castagnito"/><tag k="addr:postcode" v="12050"/><tag k="addr:street" v="Via Alba"/><tag k="name" v="Erg"/><tag k="addr:housenumber" v="1"/><tag k="amenity" v="fuel"/><tag k="fuel:lpg" v="yes"/><tag k="fuel:diesel" v="yes"/><tag k="brand" v="Total Erg"/><tag k="operator" v="Enrici Armando"/><tag k="ref:mise" v="25192"/></node><node id="365689556" version="4" lat="44.3399961" lon="7.7775192" action="modify"><tag k="fuel:octane_95" v="yes"/><tag k="fuel:diesel" v="yes"/><tag k="amenity" v="fuel"/><tag k="operator" v="Italiana Petroli 1980 S.R.L.S."/><tag k="ref:mise" v="33699"/></node><node id="228116764" version="4" lat="44.74809" lon="7.529626" action="modify"><tag k="fuel:octane_95" v="yes"/><tag k="amenity" v="fuel"/><tag k="fuel:diesel" v="yes"/><tag k="operator" v="Società Agricola Lubrificanti Carburanti Ed Affini (sigla S.A.L.C.A.) a Responsabilità Limitata"/><tag k="brand" v="Total Erg"/><tag k="name" v="Erg"/><tag k="ref:mise" v="41507"/></node><node id="226988270" version="4" lat="44.763681" lon="7.542538" action="modify"><tag k="fuel:octane_95" v="yes"/><tag k="amenity" v="fuel"/><tag k="fuel:octane_100" v="yes"/><tag k="fuel:diesel" v="yes"/><tag k="operator" v="Laurenti Maurizio"/><tag k="brand" v="Agip Eni"/><tag k="fixme" v="adjust position"/><tag k="name" v="Agip"/><tag k="ref:mise" v="10003"/></node><node id="1432578550" version="2" lat="44.375929" lon="7.7008218" action="modify"><tag k="fuel:octane_95" v="yes"/><tag k="amenity" v="fuel"/><tag k="fuel:diesel" v="yes"/><tag k="brand" v="Agip Eni"/><tag k="fixme" v="adjust position"/><tag k="operator" v="D.A.R.M. Petroli S.R.L."/><tag k="ref:mise" v="38411"/></node><node id="226912500" version="4" lat="44.41257" lon="7.552414" action="modify"><tag k="fuel:octane_95" v="yes"/><tag k="fixme" v="spostare su palazzo a ovest"/><tag k="amenity" v="fuel"/><tag k="fuel:lpg" v="yes"/><tag k="fuel:diesel" v="yes"/><tag k="operator" v="Botanica Claudia"/><tag k="brand" v="Agip Eni"/><tag k="fuel:cng" v="yes"/><tag k="fuel:octane_100" v="yes"/><tag k="name" v="Agip"/><tag k="ref:mise" v="32389"/></node><node id="4386140490" version="3" lat="44.693332" lon="7.9402509" action="modify"><tag k="fuel:octane_95" v="yes"/><tag k="fixme" v="togliere name:it; "/><tag k="addr:city" v="Santa Vittoria d'Alba"/><tag k="addr:postcode" v="12069"/><tag k="addr:street" v="Via dell'Industria"/><tag k="name:it" v="Q8"/><tag k="name" v="Q8"/><tag k="addr:housenumber" v="2"/><tag k="amenity" v="fuel"/><tag k="fuel:lpg" v="yes"/><tag k="fuel:diesel" v="yes"/><tag k="brand" v="Q8"/><tag k="operator" v="Servizi &amp; Gestioni Italia S.R.L."/><tag k="ref:mise" v="7275"/></node><node id="1125029985" version="3" lat="44.3016367" lon="7.7972668" action="modify"><tag k="fuel:octane_95" v="yes"/><tag k="amenity" v="fuel"/><tag k="brand" v="Total Erg"/><tag k="shop" v="yes"/><tag k="fuel:diesel" v="yes"/><tag k="fixme" v="adjust position"/><tag k="operator" v="Trebi S.N.C. di Botto Paolo , Bertolino Piercarlo &amp; C."/><tag k="ref:mise" v="11300"/></node><node id="229124101" version="8" lat="44.4208378" lon="7.8499711" action="modify"><tag k="fuel:octane_95" v="yes"/><tag k="fixme" v="name; spostare marker su edificio a est"/><tag k="wheelchair" v="yes"/><tag k="amenity" v="fuel"/><tag k="ref:vatin" v="IT00476750047"/><tag k="fuel:diesel" v="yes"/><tag k="name" v="Mondovicino"/><tag k="operator" v="Filea S.P.A."/><tag k="ref:mise" v="12764"/></node><node id="227661316" version="4" lat="44.812935" lon="7.616438" action="modify"><tag k="fuel:octane_95" v="yes"/><tag k="amenity" v="fuel"/><tag k="fuel:diesel" v="yes"/><tag k="operator" v="Magnini Paolo"/><tag k="brand" v="Total Erg"/><tag k="fixme" v="adjust position"/><tag k="name" v="Shell"/><tag k="ref:mise" v="22827"/></node><node id="227529935" version="6" lat="44.572708" lon="7.461262" action="modify"><tag k="fuel:octane_95" v="yes"/><tag k="addr:city" v="Piasco"/><tag k="addr:postcode" v="12026"/><tag k="fuel:octane_98" v="yes"/><tag k="addr:street" v="Via Europa"/><tag k="fixme" v="spostare marker su edificio a nord"/><tag k="name" v="TotalErg"/><tag k="addr:housenumber" v="22"/><tag k="amenity" v="fuel"/><tag k="fuel:diesel" v="yes"/><tag k="brand" v="Total Erg"/><tag k="operator" v="Carpani S.N.C.di Carpani Bruno e Fabio Siglabile, Ove Consentito, Carpani Snc"/><tag k="ref:mise" v="19907"/></node><node id="228023499" version="5" lat="44.555096" lon="7.541814" action="modify"><tag k="fuel:octane_95" v="yes"/><tag k="fixme" v="verificare posizione marker"/><tag k="amenity" v="fuel"/><tag k="fuel:lpg" v="yes"/><tag k="fuel:diesel" v="yes"/><tag k="brand" v="Agip Eni"/><tag k="fuel:cng" v="yes"/><tag k="fuel:octane_100" v="yes"/><tag k="name" v="Agip"/><tag k="operator" v="Laurenti Maurizio"/><tag k="ref:mise" v="32683"/></node><node id="227776708" version="5" lat="44.647559" lon="7.517953" action="modify"><tag k="fuel:octane_95" v="yes"/><tag k="name" v="IP"/><tag k="fuel:lpg" v="yes"/><tag k="fuel:diesel" v="yes"/><tag k="brand" v="Api-Ip"/><tag k="amenity" v="fuel"/><tag k="fixme" v="spostare marker su edificio ad ovest"/><tag k="operator" v="Gonella &amp; Soma' S.R.L."/><tag k="ref:mise" v="21782"/></node><node id="4398950969" version="3" lat="44.5733153" lon="8.2006173" action="modify"><tag k="fuel:octane_95" v="yes"/><tag k="amenity" v="fuel"/><tag k="fuel:lpg" v="yes"/><tag k="fuel:diesel" v="yes"/><tag k="fixme" v="adjust location"/><tag k="operator" v="Collino e C.- S.P.A."/><tag k="ref:mise" v="25012"/></node><node id="227806962" version="5" lat="44.4782938" lon="7.870311" action="modify"><tag k="fuel:octane_95" v="yes"/><tag k="amenity" v="fuel"/><tag k="fuel:diesel" v="yes"/><tag k="operator" v="Chiapello Adriana"/><tag k="brand" v="Europam"/><tag k="fixme" v="name; adjust position"/><tag k="name" v="IP"/><tag k="ref:mise" v="11174"/></node><node id="228215864" version="4" lat="44.693827" lon="8.016286" action="modify"><tag k="fuel:octane_95" v="yes"/><tag k="amenity" v="fuel"/><tag k="fuel:lpg" v="yes"/><tag k="fuel:diesel" v="yes"/><tag k="operator" v="Gierre S.N.C.di Rabezzana Giampiero e Belio Roberto"/><tag k="brand" v="Total Erg"/><tag k="fixme" v="adjust position"/><tag k="name" v="Erg"/><tag k="ref:mise" v="4759"/></node><node id="-1" version="1" lat="44.4239" lon="7.85536"><tag k="fuel:octane_95" v="yes"/><tag k="ref:mise" v="3779"/><tag k="fuel:diesel" v="yes"/><tag k="brand" v="Total Erg"/><tag k="operator" v="Chiera &amp; C. S.A.S. di Chiera Alessandro e Luca"/><tag k="amenity" v="fuel"/></node><node id="-2" version="1" lat="44.38806" lon="8.03256"><tag k="fuel:octane_95" v="yes"/><tag k="ref:mise" v="41551"/><tag k="fuel:diesel" v="yes"/><tag k="brand" v="Tamoil"/><tag k="fixme" v="survey for position"/><tag k="operator" v="T.D.M. S.R.L."/><tag k="amenity" v="fuel"/></node><node id="-3" version="1" lat="44.31325" lon="8.04845"><tag k="fuel:octane_95" v="yes"/><tag k="ref:mise" v="41734"/><tag k="fuel:lpg" v="yes"/><tag k="fuel:diesel" v="yes"/><tag k="brand" v="DIS-CAR"/><tag k="operator" v="Fa.Ma.Lu. di Rizzo Fabio, Nicolino Luca e Nicolino Matteo S.N.C.Siglabile Ove Consentito Fa.Ma.Lu. Snc"/><tag k="amenity" v="fuel"/></node><node id="-4" version="1" lat="44.78331" lon="7.68071"><tag k="fuel:octane_95" v="yes"/><tag k="ref:mise" v="43906"/><tag k="fuel:diesel" v="yes"/><tag k="brand" v="Oil Italia"/><tag k="fixme" v="% nell'operator"/><tag k="operator" v="Oil Italia S.R.L.% Oil Italia Gmbh"/><tag k="amenity" v="fuel"/></node><node id="-5" version="1" lat="44.69212" lon="8.02384"><tag k="fuel:octane_95" v="yes"/><tag k="ref:mise" v="44390"/><tag k="fuel:diesel" v="yes"/><tag k="brand" v="Tamoil"/><tag k="operator" v="Orgiana Manuel"/><tag k="amenity" v="fuel"/></node><node id="227768406" version="5" lat="44.688933" lon="7.2803426" action="modify"><tag k="amenity" v="fuel"/><tag k="operator" v="Depetris Claudio"/><tag k="brand" v="Tamoil"/><tag k="fixme" v="This object might have been dismantled, please check"/><tag k="name" v="Tamoil"/><tag k="ref:mise" v="11971"/></node><node id="227661320" version="3" lat="44.675123" lon="7.844131" action="modify"><tag k="brand" v="Shell"/><tag k="fixme" v="This object might have been dismantled, please check"/><tag k="name" v="Shell"/><tag k="amenity" v="fuel"/><tag k="operator" v="Shell"/></node><node id="1446224747" version="1" lat="44.276188" lon="7.3975854" action="modify"><tag k="brand" v="Shell"/><tag k="fixme" v="This object might have been dismantled, please check"/><tag k="name" v="Corso Caduti in guerra"/><tag k="amenity" v="fuel"/><tag k="operator" v="Shell"/></node><node id="227663504" version="6" lat="44.5574662" lon="8.0598796" action="modify"><tag k="amenity" v="fuel"/><tag k="brand" v="Total Erg"/><tag k="shop" v="convenience"/><tag k="fixme" v="This object might have been dismantled, please check"/><tag k="operator" v="Traversa Mario Snc di Traversa Massimo e Marco Siglabile Traversa Snc"/><tag k="ref:mise" v="18666"/></node><node id="227606045" version="3" lat="44.589359" lon="7.661548" action="modify"><tag k="brand" v="Shell"/><tag k="fixme" v="This object might have been dismantled, please check"/><tag k="name" v="Shell"/><tag k="amenity" v="fuel"/><tag k="operator" v="Shell"/></node><node id="227798482" version="3" lat="44.667627" lon="7.832426" action="modify"><tag k="brand" v="ERG"/><tag k="fixme" v="This object might have been dismantled, please check"/><tag k="name" v="Erg"/><tag k="amenity" v="fuel"/><tag k="operator" v="Erg"/></node><node id="5851837192" version="1" lat="44.6639728" lon="7.9818171" action="modify"><tag k="brand" v="Agip Eni"/><tag k="fixme" v="This object might have been dismantled, please check"/><tag k="amenity" v="fuel"/><tag k="operator" v="Alessandria Roberta"/><tag k="ref:mise" v="33260"/></node><node id="6165147637" version="3" lat="44.3763218" lon="7.5203849" action="modify"><tag k="brand" v="Enercoop"/><tag k="fixme" v="This object might have been dismantled, please check"/><tag k="amenity" v="fuel"/></node><node id="226910149" version="4" lat="44.387366" lon="8.044181" action="modify"><tag k="amenity" v="fuel"/><tag k="operator" v="Negro Mauro"/><tag k="brand" v="Socogas"/><tag k="fixme" v="This object might have been dismantled, please check"/><tag k="name" v="Shell"/><tag k="ref:mise" v="34125"/></node><node id="228020097" version="5" lat="44.4686438" lon="7.3575713" action="modify"><tag k="amenity" v="fuel"/><tag k="operator" v="Arneodo Gennifer"/><tag k="brand" v="Tamoil"/><tag k="fixme" v="This object might have been dismantled, please check"/><tag k="name" v="Tamoil"/><tag k="ref:mise" v="38197"/></node><node id="2106182072" version="2" lat="44.4671143" lon="8.1162122" action="modify"><tag k="brand" v="Total Erg"/><tag k="fixme" v="This object might have been dismantled, please check"/><tag k="amenity" v="fuel"/><tag k="operator" v="Decastelli Giancarlo"/><tag k="ref:mise" v="16828"/></node><node id="2276779517" version="3" lat="44.532516" lon="7.9445908" action="modify"><tag k="brand" v="Esso"/><tag k="fixme" v="This object might have been dismantled, please check"/><tag k="amenity" v="fuel"/></node><node id="4560497278" version="1" lat="44.425971" lon="7.5564984" action="modify"><tag k="brand" v="TotalErg"/><tag k="fixme" v="This object might have been dismantled, please check"/><tag k="amenity" v="fuel"/></node><node id="2444067634" version="1" lat="44.243504" lon="7.3978006" action="modify"><tag k="fixme" v="This object might have been dismantled, please check"/><tag k="amenity" v="fuel"/></node><node id="1447900010" version="1" lat="44.3663139" lon="7.6463201" action="modify"><tag k="fixme" v="This object might have been dismantled, please check"/><tag k="amenity" v="fuel"/></node><node id="3179266363" version="1" lat="44.6458981" lon="7.8667844" action="modify"><tag k="fixme" v="This object might have been dismantled, please check"/><tag k="amenity" v="fuel"/><tag k="name" v="LPG"/></node><node id="3179266362" version="2" lat="44.6459578" lon="7.8669403" action="modify"><tag k="fuel:cng" v="yes"/><tag k="fixme" v="This object might have been dismantled, please check"/><tag k="amenity" v="fuel"/><tag k="name" v="Metano"/></node><node id="226988086" version="4" lat="44.709898" lon="7.83918" action="modify"><tag k="amenity" v="fuel"/><tag k="operator" v="Lavalle Bruno"/><tag k="brand" v="Agip Eni"/><tag k="fixme" v="This object might have been dismantled, please check"/><tag k="name" v="Agip"/><tag k="ref:mise" v="40590"/></node><node id="226910607" version="3" lat="44.755297" lon="7.314963" action="modify"><tag k="brand" v="Esso"/><tag k="fixme" v="This object might have been dismantled, please check"/><tag k="name" v="Esso"/><tag k="amenity" v="fuel"/><tag k="operator" v="Esso"/></node><node id="226905078" version="4" lat="44.654566" lon="7.488041" action="modify"><tag k="amenity" v="fuel"/><tag k="operator" v="Novena Alessandra"/><tag k="brand" v="Esso"/><tag k="fixme" v="This object might have been dismantled, please check"/><tag k="name" v="Esso"/><tag k="ref:mise" v="19479"/></node><node id="229103132" version="4" lat="44.483892" lon="7.891788" action="modify"><tag k="amenity" v="fuel"/><tag k="operator" v="Calo' Massimiliano"/><tag k="brand" v="Agip Eni"/><tag k="fixme" v="This object might have been dismantled, please check"/><tag k="name" v="Esso"/><tag k="ref:mise" v="29799"/></node><node id="877807485" version="3" lat="44.6823176" lon="8.0020298" action="modify"><tag k="brand" v="Agip Eni"/><tag k="fixme" v="This object might have been dismantled, please check"/><tag k="amenity" v="fuel"/><tag k="operator" v="Parussa Michele"/><tag k="ref:mise" v="39512"/></node><node id="227529939" version="5" lat="44.5642737" lon="7.4554378" action="modify"><tag k="addr:city" v="Piasco"/><tag k="amenity" v="fuel"/><tag k="addr:postcode" v="12026"/><tag k="brand" v="Shell"/><tag k="addr:street" v="Via Dante"/><tag k="fixme" v="This object might have been dismantled, please check"/><tag k="name" v="Shell"/><tag k="operator" v="Shell"/><tag k="addr:housenumber" v="10"/></node><node id="1490046016" version="3" lat="44.4848218" lon="7.0663888" action="modify"><tag k="brand" v="Total Erg"/><tag k="fixme" v="This object might have been dismantled, please check"/><tag k="amenity" v="fuel"/><tag k="operator" v="Baralis Renata"/><tag k="ref:mise" v="11063"/></node><node id="5851843937" version="1" lat="44.2141651" lon="8.0142514" action="modify"><tag k="brand" v="Total Erg"/><tag k="fixme" v="This object might have been dismantled, please check"/><tag k="amenity" v="fuel"/><tag k="operator" v="Bologna Silvana"/><tag k="ref:mise" v="16869"/></node><node id="5851832279" version="1" lat="44.6520353" lon="7.6559973" action="modify"><tag k="brand" v="Total Erg"/><tag k="fixme" v="This object might have been dismantled, please check"/><tag k="amenity" v="fuel"/><tag k="operator" v="Rascu Claudiu Daniel"/><tag k="ref:mise" v="39838"/></node><node id="5851845588" version="1" lat="44.7642626" lon="8.0286415" action="modify"><tag k="brand" v="Tamoil"/><tag k="fixme" v="This object might have been dismantled, please check"/><tag k="amenity" v="fuel"/><tag k="operator" v="Gatto Mauro"/><tag k="ref:mise" v="11240"/></node><node id="5851841580" version="1" lat="44.6985434" lon="7.6840622" action="modify"><tag k="brand" v="Agip Eni"/><tag k="fixme" v="This object might have been dismantled, please check"/><tag k="amenity" v="fuel"/><tag k="operator" v="Gestioni Innovative Italia S.R.L."/><tag k="ref:mise" v="25036"/></node><node id="5851845488" version="1" lat="44.6683645" lon="7.510078" action="modify"><tag k="brand" v="Tamoil"/><tag k="fixme" v="This object might have been dismantled, please check"/><tag k="amenity" v="fuel"/><tag k="operator" v="G.A.R.E. di Dalmasso Renata &amp; C. S.A.S."/><tag k="ref:mise" v="12118"/></node><node id="5851831605" version="1" lat="44.712859" lon="7.8342685" action="modify"><tag k="brand" v="Socogas"/><tag k="fixme" v="This object might have been dismantled, please check"/><tag k="amenity" v="fuel"/><tag k="operator" v="Manzo Mauro"/><tag k="ref:mise" v="4966"/></node><node id="5851841505" version="1" lat="44.8021291" lon="7.5923409" action="modify"><tag k="brand" v="Europam"/><tag k="fixme" v="This object might have been dismantled, please check"/><tag k="amenity" v="fuel"/><tag k="operator" v="Penati Marco"/><tag k="ref:mise" v="25775"/></node><node id="227663477" version="5" lat="44.7136736" lon="7.9550447" action="modify"><tag k="addr:city" v="Monticello d'Alba"/><tag k="fixme" v="This object might have been dismantled, please check"/><tag k="amenity" v="fuel"/><tag k="addr:postcode" v="12066"/><tag k="brand" v="Total Erg"/><tag k="addr:street" v="Via Stazione"/><tag k="addr:housenumber" v="38"/><tag k="name" v="Total"/><tag k="operator" v="Delmonte Patrizia"/><tag k="ref:mise" v="13276"/></node><node id="226906012" version="4" lat="44.742527" lon="7.476282" action="modify"><tag k="amenity" v="fuel"/><tag k="brand" v="Tamoil"/><tag k="fixme" v="This object might have been dismantled, please check"/><tag k="name" v="IES"/><tag k="operator" v="Re Micaela"/><tag k="ref:mise" v="34435"/></node><node id="3444728739" version="2" lat="44.7443911" lon="7.9038565" action="modify"><tag k="brand" v="Tamoil"/><tag k="fixme" v="This object might have been dismantled, please check"/><tag k="amenity" v="fuel"/><tag k="operator" v="Gramaglia Lorenzo"/><tag k="ref:mise" v="30035"/></node><node id="227777077" version="4" lat="44.6821253" lon="7.2766968" action="modify"><tag k="brand" v="Tamoil"/><tag k="fixme" v="This object might have been dismantled, please check"/><tag k="name" v="Tamoil"/><tag k="amenity" v="fuel"/><tag k="operator" v="Tamoil"/></node><node id="5851831524" version="1" lat="44.8121412" lon="7.6990315" action="modify"><tag k="brand" v="Socogas"/><tag k="fixme" v="This object might have been dismantled, please check"/><tag k="amenity" v="fuel"/><tag k="operator" v="Stazione di Servizio Socogas di Lino Sebastiano"/><tag k="ref:mise" v="6381"/></node><node id="4633445106" version="2" lat="44.5382587" lon="7.4863528" action="modify"><tag k="brand" v="Total Erg"/><tag k="fixme" v="This object might have been dismantled, please check"/><tag k="amenity" v="fuel"/><tag k="operator" v="Caffe' Del Teatro S.N.C. di Galliano Oreste e C."/><tag k="ref:mise" v="24612"/></node><node id="227662799" version="4" lat="44.6539538" lon="7.9797632" action="modify"><tag k="brand" v="Shell"/><tag k="fixme" v="This object might have been dismantled, please check"/><tag k="name" v="Shell"/><tag k="amenity" v="fuel"/><tag k="operator" v="Shell"/></node><node id="227958893" version="3" lat="44.482552" lon="7.65073" action="modify"><tag k="brand" v="ERG"/><tag k="fixme" v="This object might have been dismantled, please check"/><tag k="name" v="Erg"/><tag k="amenity" v="fuel"/><tag k="operator" v="Erg"/></node><node id="227663455" version="3" lat="44.776371" lon="8.089612" action="modify"><tag k="brand" v="Shell"/><tag k="fixme" v="This object might have been dismantled, please check"/><tag k="name" v="Shell"/><tag k="amenity" v="fuel"/><tag k="operator" v="Shell"/></node><node id="227806954" version="3" lat="44.366424" lon="7.797316" action="modify"><tag k="brand" v="Agip"/><tag k="fixme" v="This object might have been dismantled, please check"/><tag k="amenity" v="fuel"/><tag k="operator" v="AGIP"/></node><node id="227530054" version="5" lat="44.561686" lon="7.310436" action="modify"><tag k="amenity" v="fuel"/><tag k="operator" v="Tarditi Ornella"/><tag k="brand" v="Total Erg"/><tag k="fixme" v="This object might have been dismantled, please check"/><tag k="name" v="Total Erg"/><tag k="ref:mise" v="20515"/></node><node id="228185456" version="3" lat="44.423892" lon="7.720159" action="modify"><tag k="brand" v="Independent"/><tag k="fixme" v="This object might have been dismantled, please check"/><tag k="name" v="Indipend."/><tag k="amenity" v="fuel"/><tag k="operator" v="Indipend."/></node><node id="226904585" version="5" lat="44.755423" lon="7.5339089" action="modify"><tag k="amenity" v="fuel"/><tag k="operator" v="Pozza Roberto"/><tag k="brand" v="Tamoil"/><tag k="fixme" v="This object might have been dismantled, please check"/><tag k="name" v="Tamoil"/><tag k="ref:mise" v="39941"/></node><node id="227797732" version="5" lat="44.704412" lon="7.9858017" action="modify"><tag k="addr:city" v="Alba"/><tag k="fixme" v="This object might have been dismantled, please check"/><tag k="amenity" v="fuel"/><tag k="addr:postcode" v="12051"/><tag k="brand" v="Total Erg"/><tag k="addr:street" v="Corso Unità d'Italia"/><tag k="addr:housenumber" v="65"/><tag k="name" v="Total Erg"/><tag k="operator" v="De Leo Francesco"/><tag k="ref:mise" v="39592"/></node><node id="227776533" version="3" lat="44.6461111" lon="7.4977778" action="modify"><tag k="brand" v="IP"/><tag k="fixme" v="This object might have been dismantled, please check"/><tag k="name" v="IP"/><tag k="amenity" v="fuel"/><tag k="operator" v="IP"/></node><node id="5851843058" version="1" lat="44.8280617" lon="7.9336122" action="modify"><tag k="brand" v="Total Erg"/><tag k="fixme" v="This object might have been dismantled, please check"/><tag k="amenity" v="fuel"/><tag k="operator" v="Canavese Claudia"/><tag k="ref:mise" v="21041"/></node><node id="1447994477" version="4" lat="44.3300464" lon="7.5517022" action="modify"><tag k="amenity" v="fuel"/><tag k="operator" v="Giuliano Ettore"/><tag k="brand" v="Total Erg"/><tag k="fixme" v="This object might have been dismantled, please check"/><tag k="name" v="Stazione di Servizio Erg"/><tag k="ref:mise" v="13228"/></node><node id="229112868" version="3" lat="44.68819" lon="7.9975" action="modify"><tag k="brand" v="ERG"/><tag k="fixme" v="This object might have been dismantled, please check"/><tag k="name" v="Erg"/><tag k="amenity" v="fuel"/><tag k="operator" v="Erg"/></node><node id="3352858542" version="1" lat="44.5253192" lon="7.4804531" action="modify"><tag k="brand" v="Shell"/><tag k="fixme" v="This object might have been dismantled, please check"/><tag k="amenity" v="fuel"/></node><node id="229112872" version="4" lat="44.5689638" lon="7.900999" action="modify"><tag k="brand" v="ERG"/><tag k="fixme" v="This object might have been dismantled, please check"/><tag k="name" v="Erg"/><tag k="amenity" v="fuel"/><tag k="operator" v="Erg"/></node><node id="227806966" version="4" lat="44.481427" lon="7.871146" action="modify"><tag k="amenity" v="fuel"/><tag k="operator" v="Viarengo Franca"/><tag k="brand" v="Agip Eni"/><tag k="fixme" v="This object might have been dismantled, please check"/><tag k="name" v="Agip"/><tag k="ref:mise" v="31021"/></node><node id="227797538" version="5" lat="44.715011" lon="8.04166" action="modify"><tag k="amenity" v="fuel"/><tag k="operator" v="Mci Gestioni di Marenda Claudio e C. S.A.S. Siglabile Ove Consentito Mci Gestioni S.A.S."/><tag k="brand" v="Api-Ip"/><tag k="fixme" v="This object might have been dismantled, please check"/><tag k="name" v="Api"/><tag k="ref:mise" v="16976"/></node><node id="4802177090" version="4" lat="44.3753786" lon="8.0656786" action="modify"><tag k="fixme" v="This object might have been dismantled, please check"/><tag k="name" v="Termoceva"/><tag k="amenity" v="fuel"/><tag k="operator" v="Termoceva S.R.L."/><tag k="ref:mise" v="31765"/></node><node id="5851832972" version="1" lat="44.7019508" lon="8.0290201" action="modify"><tag k="brand" v="Agip Eni"/><tag k="fixme" v="This object might have been dismantled, please check"/><tag k="amenity" v="fuel"/><tag k="operator" v="Pronino Diego"/><tag k="ref:mise" v="39206"/></node><node id="1273809837" version="2" lat="44.1926669" lon="7.5711191" action="modify"><tag k="brand" v="Europam"/><tag k="fixme" v="This object might have been dismantled, please check"/><tag k="amenity" v="fuel"/><tag k="operator" v="Tosello Maria Grazia"/><tag k="ref:mise" v="39147"/></node><node id="227797147" version="3" lat="44.782476" lon="8.094023" action="modify"><tag k="brand" v="ERG"/><tag k="fixme" v="This object might have been dismantled, please check"/><tag k="name" v="Erg"/><tag k="amenity" v="fuel"/><tag k="operator" v="Erg"/></node><node id="227958674" version="3" lat="44.53881" lon="7.772344" action="modify"><tag k="brand" v="Q8"/><tag k="fixme" v="This object might have been dismantled, please check"/><tag k="name" v="Q8"/><tag k="amenity" v="fuel"/><tag k="operator" v="Q8"/></node></osm>