<?xml version="1.0" encoding="UTF-8"?><osm version="0.6" generator="Overpass API 0.7.55.7 8b86ff77">
<note>The data included in this document is from www.openstreetmap.org. The data is made available under ODbL.</note>
<meta osm_base="2019-05-23T08:34:02Z" areas="2019-05-23T05:47:02Z"/>

  <node id="5851839910" lat="39.9942841" lon="15.7057513" version="1" timestamp="2018-08-23T16:36:25Z" changeset="61927015" uid="8727120" user="attilaimport">
    <tag k="amenity" v="fuel"/>
    <tag k="brand" v="Tamoil"/>
    <tag k="operator" v="Santi Settimio"/>
    <tag k="ref:mise" v="27347"/>
  </node>
  <node id="3971637450" lat="39.9969260" lon="15.7097359" version="2" timestamp="2018-08-25T13:27:39Z" changeset="61984835" uid="361003" user="Cascafico">
    <tag k="amenity" v="fuel"/>
    <tag k="brand" v="Agip Eni"/>
    <tag k="operator" v="Limongi Giacomo"/>
    <tag k="ref:mise" v="23646"/>
  </node>
  <node id="5853344467" lat="39.9436026" lon="15.7684828" version="1" timestamp="2018-08-24T10:02:27Z" changeset="61948858" uid="8727120" user="attilaimport">
    <tag k="amenity" v="fuel"/>
    <tag k="operator" v="C F Gestioni - S.R.L."/>
    <tag k="ref:mise" v="23684"/>
  </node>
  <node id="5851836407" lat="39.9902009" lon="15.8026441" version="1" timestamp="2018-08-23T16:35:03Z" changeset="61927015" uid="8727120" user="attilaimport">
    <tag k="amenity" v="fuel"/>
    <tag k="brand" v="Tamoil"/>
    <tag k="operator" v="Trazza - S.A.S. di Eupremio Rocco Trazza &amp; C."/>
    <tag k="ref:mise" v="35361"/>
  </node>
  <node id="3094261445" lat="40.0074997" lon="15.7985560" version="2" timestamp="2018-08-25T13:26:31Z" changeset="61984835" uid="361003" user="Cascafico">
    <tag k="amenity" v="fuel"/>
    <tag k="brand" v="Esso"/>
    <tag k="operator" v="Colombo Giandomenico"/>
    <tag k="ref:mise" v="32221"/>
  </node>
  <node id="5691903554" lat="40.0182975" lon="15.8988476" version="2" timestamp="2018-08-25T13:30:15Z" changeset="61984835" uid="361003" user="Cascafico">
    <tag k="amenity" v="fuel"/>
    <tag k="brand" v="Esso"/>
    <tag k="name" v="Galdo Est"/>
    <tag k="operator" v="Zaccagnino Service Station Snc di Zaccagnino Dina e Zaccagnino Leonardo"/>
    <tag k="ref:mise" v="3988"/>
  </node>
  <node id="5691903553" lat="40.0168627" lon="15.8998212" version="2" timestamp="2018-08-25T13:30:15Z" changeset="61984835" uid="361003" user="Cascafico">
    <tag k="amenity" v="fuel"/>
    <tag k="brand" v="Esso"/>
    <tag k="name" v="Galdo Ovest"/>
    <tag k="operator" v="Di.Ma S.A.S. di Maria Rosaria Errichiello"/>
    <tag k="ref:mise" v="22090"/>
  </node>
  <node id="5851831529" lat="40.0145779" lon="15.9012696" version="1" timestamp="2018-08-23T16:33:47Z" changeset="61927015" uid="8727120" user="attilaimport">
    <tag k="amenity" v="fuel"/>
    <tag k="brand" v="Conad"/>
    <tag k="operator" v="Suanno 89 S.R.L."/>
    <tag k="ref:mise" v="6333"/>
  </node>
  <node id="5851839895" lat="40.0349784" lon="15.8360624" version="1" timestamp="2018-08-23T16:36:24Z" changeset="61927015" uid="8727120" user="attilaimport">
    <tag k="amenity" v="fuel"/>
    <tag k="brand" v="Ies"/>
    <tag k="operator" v="Pesce Nicola"/>
    <tag k="ref:mise" v="27484"/>
  </node>
  <node id="5851833987" lat="40.0530856" lon="15.8342218" version="1" timestamp="2018-08-23T16:34:25Z" changeset="61927015" uid="8727120" user="attilaimport">
    <tag k="amenity" v="fuel"/>
    <tag k="brand" v="Agip Eni"/>
    <tag k="operator" v="Scaldaferri Giuseppe"/>
    <tag k="ref:mise" v="38577"/>
  </node>
  <node id="4043562526" lat="40.0788037" lon="15.7589881" version="2" timestamp="2018-08-25T13:27:43Z" changeset="61984835" uid="361003" user="Cascafico">
    <tag k="amenity" v="fuel"/>
    <tag k="brand" v="Api-Ip"/>
    <tag k="name" v="IP"/>
    <tag k="operator" v="Siervo Antonio"/>
    <tag k="ref:mise" v="38700"/>
  </node>
  <node id="5851842786" lat="40.1030963" lon="15.7436684" version="1" timestamp="2018-08-23T16:37:05Z" changeset="61927015" uid="8727120" user="attilaimport">
    <tag k="amenity" v="fuel"/>
    <tag k="brand" v="Agip Eni"/>
    <tag k="operator" v="Delta Carburanti di Palmieri Anna"/>
    <tag k="ref:mise" v="22713"/>
  </node>
  <node id="5851830581" lat="40.1339358" lon="15.7374778" version="1" timestamp="2018-08-23T16:33:25Z" changeset="61927015" uid="8727120" user="attilaimport">
    <tag k="amenity" v="fuel"/>
    <tag k="brand" v="Tamoil"/>
    <tag k="operator" v="Falabella Nicola"/>
    <tag k="ref:mise" v="9542"/>
  </node>
  <node id="5851837316" lat="40.1250792" lon="15.7644508" version="1" timestamp="2018-08-23T16:35:33Z" changeset="61927015" uid="8727120" user="attilaimport">
    <tag k="amenity" v="fuel"/>
    <tag k="brand" v="Tamoil"/>
    <tag k="operator" v="Pesce Nicola"/>
    <tag k="ref:mise" v="32541"/>
  </node>
  <node id="5853342989" lat="40.1336364" lon="15.7638413" version="1" timestamp="2018-08-24T10:01:43Z" changeset="61948858" uid="8727120" user="attilaimport">
    <tag k="amenity" v="fuel"/>
    <tag k="operator" v="Mavidil - S.R.L."/>
    <tag k="ref:mise" v="9948"/>
  </node>
  <node id="5851830993" lat="40.0747297" lon="15.9257314" version="1" timestamp="2018-08-23T16:33:25Z" changeset="61927015" uid="8727120" user="attilaimport">
    <tag k="amenity" v="fuel"/>
    <tag k="brand" v="Q8"/>
    <tag k="operator" v="Malfen - S.R.L."/>
    <tag k="ref:mise" v="9461"/>
  </node>
  <node id="5851830572" lat="40.0744366" lon="15.9383136" version="1" timestamp="2018-08-23T16:33:24Z" changeset="61927015" uid="8727120" user="attilaimport">
    <tag k="amenity" v="fuel"/>
    <tag k="brand" v="Api-Ip"/>
    <tag k="operator" v="Re.Me.C. S.N.C. di Rega Giuseppina &amp; C."/>
    <tag k="ref:mise" v="9626"/>
  </node>
  <node id="5851837309" lat="40.2450687" lon="15.8557973" version="1" timestamp="2018-08-23T16:35:33Z" changeset="61927015" uid="8727120" user="attilaimport">
    <tag k="amenity" v="fuel"/>
    <tag k="brand" v="Api-Ip"/>
    <tag k="operator" v="La Frontiera S.A.S. di Dandrea Rocco &amp; Castelluccio Domenica"/>
    <tag k="ref:mise" v="32576"/>
  </node>
  <node id="5853344468" lat="40.2434054" lon="15.8694021" version="1" timestamp="2018-08-24T10:02:27Z" changeset="61948858" uid="8727120" user="attilaimport">
    <tag k="amenity" v="fuel"/>
    <tag k="operator" v="Val D'Agri Oil Italia S.A.S. di Cuomo P. e C."/>
    <tag k="ref:mise" v="23678"/>
  </node>
  <node id="5851841508" lat="40.2603944" lon="15.8766375" version="1" timestamp="2018-08-23T16:36:41Z" changeset="61927015" uid="8727120" user="attilaimport">
    <tag k="amenity" v="fuel"/>
    <tag k="brand" v="Api-Ip"/>
    <tag k="operator" v="Lo.Be. Bar di Cirigliano Rosa &amp; C. Snc"/>
    <tag k="ref:mise" v="25726"/>
  </node>
  <node id="5851837308" lat="40.2513038" lon="15.8875615" version="1" timestamp="2018-08-23T16:35:33Z" changeset="61927015" uid="8727120" user="attilaimport">
    <tag k="amenity" v="fuel"/>
    <tag k="brand" v="Api-Ip"/>
    <tag k="operator" v="La Frontiera S.A.S. di Dandrea Rocco &amp; Castelluccio Domenica"/>
    <tag k="ref:mise" v="32577"/>
  </node>
  <node id="5851836472" lat="40.4609624" lon="15.5861463" version="1" timestamp="2018-08-23T16:35:11Z" changeset="61927015" uid="8727120" user="attilaimport">
    <tag k="amenity" v="fuel"/>
    <tag k="brand" v="Q8"/>
    <tag k="operator" v="Fabiano Energia S.R.L."/>
    <tag k="ref:mise" v="34972"/>
  </node>
  <node id="5853343103" lat="40.4432620" lon="15.6032243" version="1" timestamp="2018-08-24T10:01:49Z" changeset="61948858" uid="8727120" user="attilaimport">
    <tag k="amenity" v="fuel"/>
    <tag k="operator" v="Opera Fuel S.R.L."/>
    <tag k="ref:mise" v="40611"/>
  </node>
  <node id="5851845684" lat="40.4514824" lon="15.6653237" version="1" timestamp="2018-08-23T16:38:40Z" changeset="61927015" uid="8727120" user="attilaimport">
    <tag k="amenity" v="fuel"/>
    <tag k="brand" v="Ies"/>
    <tag k="operator" v="Md2 Carburanti di Muro Domenico"/>
    <tag k="ref:mise" v="10247"/>
  </node>
  <node id="2350985526" lat="40.4765841" lon="15.6273559" version="1" timestamp="2013-06-18T10:57:38Z" changeset="16601937" uid="463596" user="primax61">
    <tag k="amenity" v="fuel"/>
    <tag k="brand" v="Agip"/>
  </node>
  <node id="5851835271" lat="40.4753541" lon="15.6251644" version="1" timestamp="2018-08-23T16:34:54Z" changeset="61927015" uid="8727120" user="attilaimport">
    <tag k="amenity" v="fuel"/>
    <tag k="brand" v="Agip Eni"/>
    <tag k="operator" v="Cofin Consult S.R.L."/>
    <tag k="ref:mise" v="36153"/>
  </node>
  <node id="5851841520" lat="40.3177257" lon="15.7903758" version="1" timestamp="2018-08-23T16:36:41Z" changeset="61927015" uid="8727120" user="attilaimport">
    <tag k="amenity" v="fuel"/>
    <tag k="brand" v="Q8"/>
    <tag k="operator" v="Bontempi Alfonso"/>
    <tag k="ref:mise" v="25601"/>
  </node>
  <node id="5851845674" lat="40.3817512" lon="15.7472813" version="1" timestamp="2018-08-23T16:38:40Z" changeset="61927015" uid="8727120" user="attilaimport">
    <tag k="amenity" v="fuel"/>
    <tag k="brand" v="Total Erg"/>
    <tag k="operator" v="Paterno Petroli S.A.S. di Fortunato Michelina &amp; C."/>
    <tag k="ref:mise" v="10385"/>
  </node>
  <node id="5851837552" lat="40.3447151" lon="15.8298777" version="1" timestamp="2018-08-23T16:35:46Z" changeset="61927015" uid="8727120" user="attilaimport">
    <tag k="amenity" v="fuel"/>
    <tag k="brand" v="Ies"/>
    <tag k="operator" v="G. G. Petroli S.R.L."/>
    <tag k="ref:mise" v="31554"/>
  </node>
  <node id="5851831403" lat="40.3542684" lon="15.8273506" version="1" timestamp="2018-08-23T16:33:39Z" changeset="61927015" uid="8727120" user="attilaimport">
    <tag k="amenity" v="fuel"/>
    <tag k="brand" v="Agip Eni"/>
    <tag k="operator" v="Petrol Station Val D'Agri S.N.C."/>
    <tag k="ref:mise" v="7338"/>
  </node>
  <node id="980160235" lat="40.3646866" lon="15.7819641" version="2" timestamp="2018-08-25T13:21:49Z" changeset="61984835" uid="361003" user="Cascafico">
    <tag k="amenity" v="fuel"/>
    <tag k="brand" v="Agip Eni"/>
    <tag k="fixme" v="name"/>
    <tag k="fuel:GTL_diesel" v="yes"/>
    <tag k="fuel:HGV_diesel" v="yes"/>
    <tag k="fuel:diesel" v="yes"/>
    <tag k="fuel:octane_98" v="yes"/>
    <tag k="name" v="Esso"/>
    <tag k="opening_hours" v="24/7"/>
    <tag k="operator" v="G.M.C. S.N.C. di Berardone Prospero Giuseppe &amp; C."/>
    <tag k="ref:mise" v="22131"/>
  </node>
  <node id="1348195956" lat="40.3001007" lon="15.9211352" version="5" timestamp="2018-08-25T13:22:26Z" changeset="61984835" uid="361003" user="Cascafico">
    <tag k="addr:city" v="Grumento Nova"/>
    <tag k="addr:street" v="Strada Statale 598 Valle Agri"/>
    <tag k="amenity" v="fuel"/>
    <tag k="brand" v="Tamoil"/>
    <tag k="fuel:octane_95" v="yes"/>
    <tag k="operator" v="Agri Sud S.N.C. di Ielpo Domenico e Torraca Mimmo"/>
    <tag k="ref:mise" v="26219"/>
  </node>
  <node id="5851839922" lat="40.3561666" lon="15.8400336" version="1" timestamp="2018-08-23T16:36:25Z" changeset="61927015" uid="8727120" user="attilaimport">
    <tag k="amenity" v="fuel"/>
    <tag k="brand" v="Ies"/>
    <tag k="operator" v="Damiano Francesco"/>
    <tag k="ref:mise" v="27282"/>
  </node>
  <node id="5851837632" lat="40.3458691" lon="15.8994269" version="1" timestamp="2018-08-23T16:35:51Z" changeset="61927015" uid="8727120" user="attilaimport">
    <tag k="amenity" v="fuel"/>
    <tag k="brand" v="Agip Eni"/>
    <tag k="operator" v="Gagliardi Oil di Gagliardi Maria Rossella"/>
    <tag k="ref:mise" v="31045"/>
  </node>
  <node id="980160121" lat="40.4014124" lon="15.7394258" version="2" timestamp="2018-08-25T13:21:49Z" changeset="61984835" uid="361003" user="Cascafico">
    <tag k="amenity" v="fuel"/>
    <tag k="nobrand" v="yes"/>
    <tag k="operator" v="Marsicoil S.R.L."/>
    <tag k="ref:mise" v="38646"/>
  </node>
  <node id="966217184" lat="40.4263161" lon="15.7364063" version="3" timestamp="2018-08-25T13:21:47Z" changeset="61984835" uid="361003" user="Cascafico">
    <tag k="amenity" v="fuel"/>
    <tag k="brand" v="Esso"/>
    <tag k="fuel:GTL_diesel" v="yes"/>
    <tag k="fuel:diesel" v="yes"/>
    <tag k="fuel:octane_95" v="yes"/>
    <tag k="name" v="Esso"/>
    <tag k="operator" v="Sassano Marco"/>
    <tag k="ref:mise" v="25514"/>
  </node>
  <node id="5851844659" lat="40.4760221" lon="15.8473469" version="1" timestamp="2018-08-23T16:38:01Z" changeset="61927015" uid="8727120" user="attilaimport">
    <tag k="amenity" v="fuel"/>
    <tag k="brand" v="Total Erg"/>
    <tag k="operator" v="Camera Antonietta"/>
    <tag k="ref:mise" v="14868"/>
  </node>
  <node id="534580313" lat="40.5141014" lon="15.6331194" version="3" timestamp="2018-08-25T13:20:43Z" changeset="61984835" uid="361003" user="Cascafico">
    <tag k="amenity" v="fuel"/>
    <tag k="brand" v="Ies"/>
    <tag k="fuel:diesel" v="yes"/>
    <tag k="fuel:lpg" v="yes"/>
    <tag k="fuel:octane_95" v="yes"/>
    <tag k="name" v="Ies"/>
    <tag k="operator" v="Md2 Carburanti di Muro Domenico"/>
    <tag k="ref:mise" v="10246"/>
    <tag k="shop" v="yes"/>
  </node>
  <node id="5851839975" lat="40.5280325" lon="15.6401217" version="1" timestamp="2018-08-23T16:36:32Z" changeset="61927015" uid="8727120" user="attilaimport">
    <tag k="amenity" v="fuel"/>
    <tag k="brand" v="Api-Ip"/>
    <tag k="operator" v="Commerciale Melandro S.R.L."/>
    <tag k="ref:mise" v="27022"/>
  </node>
  <node id="534580318" lat="40.5934957" lon="15.6864320" version="3" timestamp="2018-08-25T13:20:43Z" changeset="61984835" uid="361003" user="Cascafico">
    <tag k="amenity" v="fuel"/>
    <tag k="brand" v="Q8"/>
    <tag k="fixme" v="name"/>
    <tag k="fuel:diesel" v="yes"/>
    <tag k="fuel:lpg" v="yes"/>
    <tag k="fuel:octane_95" v="yes"/>
    <tag k="name" v="Tamoil"/>
    <tag k="operator" v="Immobiliare e Servizi S.A.S. di Sapienza Donata &amp; C."/>
    <tag k="ref:mise" v="27158"/>
    <tag k="shop" v="yes"/>
  </node>
  <node id="5853343831" lat="40.6368680" lon="15.6233192" version="1" timestamp="2018-08-24T10:02:05Z" changeset="61948858" uid="8727120" user="attilaimport">
    <tag k="amenity" v="fuel"/>
    <tag k="operator" v="Energia Lucana S.R.L."/>
    <tag k="ref:mise" v="33979"/>
  </node>
  <node id="5851843345" lat="40.6553353" lon="15.5500337" version="1" timestamp="2018-08-23T16:37:29Z" changeset="61927015" uid="8727120" user="attilaimport">
    <tag k="amenity" v="fuel"/>
    <tag k="brand" v="Api-Ip"/>
    <tag k="operator" v="Eurocarburanti di Pacella Rocco e C. - S.A.S."/>
    <tag k="ref:mise" v="19260"/>
  </node>
  <node id="5851843024" lat="40.6934697" lon="15.5557327" version="1" timestamp="2018-08-23T16:37:14Z" changeset="61927015" uid="8727120" user="attilaimport">
    <tag k="amenity" v="fuel"/>
    <tag k="brand" v="Q8"/>
    <tag k="operator" v="Distribuzione Carburanti Losasso di Losasso Vito e Figlia S.A.S."/>
    <tag k="ref:mise" v="21457"/>
  </node>
  <node id="5851831078" lat="40.6931106" lon="15.5752297" version="1" timestamp="2018-08-23T16:33:31Z" changeset="61927015" uid="8727120" user="attilaimport">
    <tag k="amenity" v="fuel"/>
    <tag k="brand" v="Api-Ip"/>
    <tag k="operator" v="Cocina Vito Antonio"/>
    <tag k="ref:mise" v="8792"/>
  </node>
  <node id="2996194653" lat="40.6031991" lon="15.6955440" version="5" timestamp="2018-08-25T13:26:23Z" changeset="61984835" uid="361003" user="Cascafico">
    <tag k="amenity" v="fuel"/>
    <tag k="brand" v="Total Erg"/>
    <tag k="fixme" v="name"/>
    <tag k="fuel:cng" v="yes"/>
    <tag k="name" v="Metano"/>
    <tag k="operator" v="Gatta Giovanna"/>
    <tag k="ref:mise" v="27136"/>
  </node>
  <node id="2517176995" lat="40.6068030" lon="15.6981163" version="2" timestamp="2018-08-25T13:25:35Z" changeset="61984835" uid="361003" user="Cascafico">
    <tag k="amenity" v="fuel"/>
    <tag k="brand" v="Agip Eni"/>
    <tag k="building" v="yes"/>
    <tag k="operator" v="Gatta Gerardo"/>
    <tag k="ref:mise" v="21931"/>
  </node>
  <node id="228078819" lat="40.6149775" lon="15.6863478" version="7" timestamp="2018-08-25T13:16:39Z" changeset="61983827" uid="361003" user="Cascafico">
    <tag k="amenity" v="fuel"/>
    <tag k="fuel:cng" v="yes"/>
    <tag k="name" v="Metano"/>
    <tag k="nobrand" v="yes"/>
    <tag k="operator" v="Metanauto Lucana S.R.L."/>
    <tag k="ref:mise" v="5301"/>
  </node>
  <node id="228079845" lat="40.5759646" lon="15.7813720" version="6" timestamp="2014-09-17T12:59:25Z" changeset="25500170" uid="554973" user="dgitto">
    <tag k="amenity" v="fuel"/>
    <tag k="brand" v="api"/>
    <tag k="name" v="Api"/>
    <tag k="operator" v="Api"/>
  </node>
  <node id="5851844647" lat="40.5215233" lon="15.8994872" version="1" timestamp="2018-08-23T16:38:00Z" changeset="61927015" uid="8727120" user="attilaimport">
    <tag k="amenity" v="fuel"/>
    <tag k="brand" v="Total Erg"/>
    <tag k="operator" v="Petruzzi Rocco &amp; Figli"/>
    <tag k="ref:mise" v="15008"/>
  </node>
  <node id="227547536" lat="40.6271650" lon="15.7995700" version="5" timestamp="2018-08-25T13:12:23Z" changeset="61983827" uid="361003" user="Cascafico">
    <tag k="amenity" v="fuel"/>
    <tag k="brand" v="Agip Eni"/>
    <tag k="name" v="Agip"/>
    <tag k="operator" v="Acca Radiste di Lichinchi Giuseppe &amp; C. - S.N.C."/>
    <tag k="ref:mise" v="19991"/>
  </node>
  <node id="5851837631" lat="40.6231265" lon="15.7965146" version="1" timestamp="2018-08-23T16:35:51Z" changeset="61927015" uid="8727120" user="attilaimport">
    <tag k="amenity" v="fuel"/>
    <tag k="brand" v="Agip Eni"/>
    <tag k="operator" v="Fuels Services S.R.L."/>
    <tag k="ref:mise" v="31046"/>
  </node>
  <node id="4960417103" lat="40.6350395" lon="15.8039818" version="3" timestamp="2018-08-25T13:29:22Z" changeset="61984835" uid="361003" user="Cascafico">
    <tag k="addr:city" v="Potenza"/>
    <tag k="addr:postcode" v="85100"/>
    <tag k="addr:street" v="Viale Guglielmo Marconi"/>
    <tag k="amenity" v="fuel"/>
    <tag k="brand" v="Tamoil"/>
    <tag k="name" v="Tamoil"/>
    <tag k="operator" v="Macrifugi Donato"/>
    <tag k="ref:mise" v="13615"/>
  </node>
  <node id="5851831450" lat="40.6340746" lon="15.8063151" version="1" timestamp="2018-08-23T16:33:42Z" changeset="61927015" uid="8727120" user="attilaimport">
    <tag k="amenity" v="fuel"/>
    <tag k="brand" v="Q8"/>
    <tag k="operator" v="Servizi &amp; Gestioni Italia Srl"/>
    <tag k="ref:mise" v="6769"/>
  </node>
  <node id="5851844896" lat="40.6321515" lon="15.8020527" version="1" timestamp="2018-08-23T16:38:04Z" changeset="61927015" uid="8727120" user="attilaimport">
    <tag k="amenity" v="fuel"/>
    <tag k="brand" v="Agip Eni"/>
    <tag k="operator" v="Garramone Antonio"/>
    <tag k="ref:mise" v="14465"/>
  </node>
  <node id="5851842849" lat="40.6396703" lon="15.7878356" version="1" timestamp="2018-08-23T16:37:09Z" changeset="61927015" uid="8727120" user="attilaimport">
    <tag k="amenity" v="fuel"/>
    <tag k="brand" v="Esso"/>
    <tag k="operator" v="Eredi Ruggieri di Ruggieri Maria &amp; C. - S.N.C."/>
    <tag k="ref:mise" v="22087"/>
  </node>
  <node id="5851841493" lat="40.6360142" lon="15.8005905" version="1" timestamp="2018-08-23T16:36:40Z" changeset="61927015" uid="8727120" user="attilaimport">
    <tag k="amenity" v="fuel"/>
    <tag k="brand" v="Q8"/>
    <tag k="operator" v="Servizi &amp; Gestioni Italia S.R.L."/>
    <tag k="ref:mise" v="25868"/>
  </node>
  <node id="2692523882" lat="40.6442910" lon="15.7982619" version="3" timestamp="2017-06-23T13:57:37Z" changeset="49771229" uid="6188067" user="Mausna">
    <tag k="addr:city" v="Potenza"/>
    <tag k="addr:postcode" v="85100"/>
    <tag k="addr:street" v="Piazza Bologna"/>
    <tag k="amenity" v="fuel"/>
    <tag k="name" v="IP"/>
  </node>
  <node id="5851836791" lat="40.6485611" lon="15.7964680" version="1" timestamp="2018-08-23T16:35:12Z" changeset="61927015" uid="8727120" user="attilaimport">
    <tag k="amenity" v="fuel"/>
    <tag k="brand" v="Esso"/>
    <tag k="operator" v="F.lli Giordano - S.A.S. di Giordano Antonello &amp; C."/>
    <tag k="ref:mise" v="34885"/>
  </node>
  <node id="2692563230" lat="40.6457380" lon="15.8040363" version="3" timestamp="2018-08-25T13:25:53Z" changeset="61984835" uid="361003" user="Cascafico">
    <tag k="amenity" v="fuel"/>
    <tag k="brand" v="Q8"/>
    <tag k="operator" v="Servizi &amp; Gestioni Italia Srl"/>
    <tag k="ref:mise" v="6770"/>
  </node>
  <node id="2692563231" lat="40.6485009" lon="15.8011130" version="2" timestamp="2018-08-25T13:25:53Z" changeset="61984835" uid="361003" user="Cascafico">
    <tag k="amenity" v="fuel"/>
    <tag k="brand" v="Total Erg"/>
    <tag k="operator" v="Zaccagnino Giuseppe"/>
    <tag k="ref:mise" v="13155"/>
  </node>
  <node id="5851837290" lat="40.6387958" lon="15.8090038" version="1" timestamp="2018-08-23T16:35:32Z" changeset="61927015" uid="8727120" user="attilaimport">
    <tag k="amenity" v="fuel"/>
    <tag k="brand" v="Api-Ip"/>
    <tag k="operator" v="Ip Services S.R.L."/>
    <tag k="ref:mise" v="32672"/>
  </node>
  <node id="5851845249" lat="40.6416303" lon="15.8094382" version="1" timestamp="2018-08-23T16:38:17Z" changeset="61927015" uid="8727120" user="attilaimport">
    <tag k="amenity" v="fuel"/>
    <tag k="brand" v="Api-Ip"/>
    <tag k="operator" v="Lioi Clemente"/>
    <tag k="ref:mise" v="13417"/>
  </node>
  <node id="5851832197" lat="40.6356490" lon="15.8187847" version="1" timestamp="2018-08-23T16:34:07Z" changeset="61927015" uid="8727120" user="attilaimport">
    <tag k="amenity" v="fuel"/>
    <tag k="brand" v="Total Erg"/>
    <tag k="operator" v="Ra.C.O.M.A. Srl"/>
    <tag k="ref:mise" v="40329"/>
  </node>
  <node id="250773079" lat="40.6364301" lon="15.8296468" version="3" timestamp="2018-08-25T13:19:28Z" changeset="61984835" uid="361003" user="Cascafico">
    <tag k="amenity" v="fuel"/>
    <tag k="brand" v="Esso"/>
    <tag k="name" v="Stazione di servizio"/>
    <tag k="operator" v="Ferrara S.R.L."/>
    <tag k="ref:mise" v="31692"/>
  </node>
  <node id="1279392962" lat="40.6357048" lon="15.8275706" version="1" timestamp="2011-05-10T17:09:50Z" changeset="8104235" uid="450519" user="aureliodb">
    <tag k="amenity" v="fuel"/>
  </node>
  <node id="333758536" lat="40.6435788" lon="15.8308223" version="4" timestamp="2018-07-06T16:19:48Z" changeset="60472037" uid="1960233" user="corfede">
    <tag k="amenity" v="fuel"/>
    <tag k="name" v="AGIP"/>
    <tag k="operator" v="Agip"/>
  </node>
  <node id="340597475" lat="40.6487289" lon="15.8025135" version="3" timestamp="2018-08-25T13:20:04Z" changeset="61984835" uid="361003" user="Cascafico">
    <tag k="amenity" v="fuel"/>
    <tag k="brand" v="Esso"/>
    <tag k="name" v="Esso"/>
    <tag k="operator" v="B.D.C. Buccino Distribuzione Carburanti di Lupo Antonio &amp; C. - S.A.S."/>
    <tag k="ref:mise" v="36982"/>
  </node>
  <node id="5853343389" lat="40.6527492" lon="15.8697322" version="1" timestamp="2018-08-24T10:01:53Z" changeset="61948858" uid="8727120" user="attilaimport">
    <tag k="amenity" v="fuel"/>
    <tag k="operator" v="Sergio Petroli S.R.L."/>
    <tag k="ref:mise" v="39029"/>
  </node>
  <node id="5851831658" lat="40.6555024" lon="15.8842953" version="1" timestamp="2018-08-23T16:33:58Z" changeset="61927015" uid="8727120" user="attilaimport">
    <tag k="amenity" v="fuel"/>
    <tag k="brand" v="Esso"/>
    <tag k="operator" v="Vaglio S.R.L."/>
    <tag k="ref:mise" v="41166"/>
  </node>
  <node id="5851831919" lat="40.6900811" lon="15.8410594" version="1" timestamp="2018-08-23T16:34:02Z" changeset="61927015" uid="8727120" user="attilaimport">
    <tag k="amenity" v="fuel"/>
    <tag k="brand" v="Total Erg"/>
    <tag k="operator" v="Elle2Bi di Barbato Salvatore &amp; C. S.N.C."/>
    <tag k="ref:mise" v="40833"/>
  </node>
  <node id="5851836458" lat="39.9495219" lon="16.0393678" version="1" timestamp="2018-08-23T16:35:10Z" changeset="61927015" uid="8727120" user="attilaimport">
    <tag k="amenity" v="fuel"/>
    <tag k="brand" v="Api-Ip"/>
    <tag k="operator" v="Ip Services S.R.L."/>
    <tag k="ref:mise" v="35022"/>
  </node>
  <node id="5851837322" lat="39.9542210" lon="16.0363658" version="1" timestamp="2018-08-23T16:35:34Z" changeset="61927015" uid="8727120" user="attilaimport">
    <tag k="amenity" v="fuel"/>
    <tag k="brand" v="Agip Eni"/>
    <tag k="operator" v="Cavaliere Pietro"/>
    <tag k="ref:mise" v="32520"/>
  </node>
  <node id="1394101771" lat="40.0053581" lon="15.9752071" version="2" timestamp="2018-08-25T13:22:35Z" changeset="61984835" uid="361003" user="Cascafico">
    <tag k="amenity" v="fuel"/>
    <tag k="brand" v="Q8"/>
    <tag k="operator" v="Servizi &amp; Gestioni Italia S.R.L."/>
    <tag k="ref:mise" v="8644"/>
  </node>
  <node id="5851839907" lat="40.0600605" lon="16.0236077" version="1" timestamp="2018-08-23T16:36:25Z" changeset="61927015" uid="8727120" user="attilaimport">
    <tag k="amenity" v="fuel"/>
    <tag k="brand" v="Total Erg"/>
    <tag k="operator" v="Gema S.N.C. di Germano Rosario Vincenzo e Marziale Maria"/>
    <tag k="ref:mise" v="27368"/>
  </node>
  <node id="1330960633" lat="39.9707287" lon="16.0822569" version="1" timestamp="2011-06-19T15:28:05Z" changeset="8485249" uid="473275" user="Ganguse">
    <tag k="amenity" v="fuel"/>
  </node>
  <node id="5851831544" lat="40.0716069" lon="16.0506627" version="1" timestamp="2018-08-23T16:33:48Z" changeset="61927015" uid="8727120" user="attilaimport">
    <tag k="amenity" v="fuel"/>
    <tag k="brand" v="Total Erg"/>
    <tag k="operator" v="Gema S.N.C. di Germano Rosario Vincenzo e Marziale Maria"/>
    <tag k="ref:mise" v="6043"/>
  </node>
  <node id="2506274450" lat="40.0222750" lon="16.1360953" version="2" timestamp="2018-08-25T13:25:34Z" changeset="61984835" uid="361003" user="Cascafico">
    <tag k="amenity" v="fuel"/>
    <tag k="building" v="yes"/>
    <tag k="nobrand" v="yes"/>
    <tag k="operator" v="Fittipaldi Angelina"/>
    <tag k="ref:mise" v="26694"/>
  </node>
  <node id="538992957" lat="40.0367337" lon="16.3045467" version="3" timestamp="2018-08-25T13:20:45Z" changeset="61984835" uid="361003" user="Cascafico">
    <tag k="amenity" v="fuel"/>
    <tag k="brand" v="Api-Ip"/>
    <tag k="name" v="IP"/>
    <tag k="operator" v="Enfil di Lufrano Filomena &amp; C. S.A.S."/>
    <tag k="ref:mise" v="32729"/>
  </node>
  <node id="5851837293" lat="40.0465697" lon="16.3484094" version="1" timestamp="2018-08-23T16:35:32Z" changeset="61927015" uid="8727120" user="attilaimport">
    <tag k="amenity" v="fuel"/>
    <tag k="brand" v="Total Erg"/>
    <tag k="operator" v="Tarantino Ferdinando"/>
    <tag k="ref:mise" v="32645"/>
  </node>
  <node id="5851834934" lat="40.2672069" lon="15.9881209" version="1" timestamp="2018-08-23T16:34:40Z" changeset="61927015" uid="8727120" user="attilaimport">
    <tag k="amenity" v="fuel"/>
    <tag k="brand" v="Toma Petroli"/>
    <tag k="operator" v="Paladino Cristoforo"/>
    <tag k="ref:mise" v="37692"/>
  </node>
  <node id="5851844954" lat="40.1866409" lon="16.1053307" version="1" timestamp="2018-08-23T16:38:07Z" changeset="61927015" uid="8727120" user="attilaimport">
    <tag k="amenity" v="fuel"/>
    <tag k="brand" v="Api-Ip"/>
    <tag k="operator" v="Gresia Umberto"/>
    <tag k="ref:mise" v="14029"/>
  </node>
  <node id="5851837220" lat="40.0829066" lon="16.1921149" version="1" timestamp="2018-08-23T16:35:27Z" changeset="61927015" uid="8727120" user="attilaimport">
    <tag k="amenity" v="fuel"/>
    <tag k="brand" v="Agip Eni"/>
    <tag k="operator" v="Iannibelli Nunzio Pasquale"/>
    <tag k="ref:mise" v="33040"/>
  </node>
  <node id="5853344487" lat="40.1225615" lon="16.2182866" version="1" timestamp="2018-08-24T10:02:28Z" changeset="61948858" uid="8727120" user="attilaimport">
    <tag k="amenity" v="fuel"/>
    <tag k="operator" v="Sergio Petroli S.R.L."/>
    <tag k="ref:mise" v="23137"/>
  </node>
  <node id="3129033756" lat="40.1380837" lon="16.3105313" version="2" timestamp="2018-08-25T13:26:34Z" changeset="61984835" uid="361003" user="Cascafico">
    <tag k="amenity" v="fuel"/>
    <tag k="brand" v="Agip Eni"/>
    <tag k="name" v="Agip"/>
    <tag k="operator" v="Sinnica Carburanti di Miraglia Antonio &amp; C. S.N.C."/>
    <tag k="ref:mise" v="19291"/>
  </node>
  <node id="3129037258" lat="40.1394785" lon="16.3106225" version="2" timestamp="2018-08-25T13:26:35Z" changeset="61984835" uid="361003" user="Cascafico">
    <tag k="amenity" v="fuel"/>
    <tag k="brand" v="Esso"/>
    <tag k="operator" v="M.G. di Marino Gennaro"/>
    <tag k="ref:mise" v="32623"/>
  </node>
  <node id="5851837491" lat="40.2116631" lon="16.2022096" version="1" timestamp="2018-08-23T16:35:39Z" changeset="61927015" uid="8727120" user="attilaimport">
    <tag k="amenity" v="fuel"/>
    <tag k="brand" v="Api-Ip"/>
    <tag k="operator" v="Pluriservice di De Pierro Domenico Rosario &amp; C. S.A.S."/>
    <tag k="ref:mise" v="32105"/>
  </node>
  <node id="1348195767" lat="40.2674775" lon="16.1606153" version="2" timestamp="2018-08-21T20:10:20Z" changeset="61868096" uid="693626" user="mad_map">
    <tag k="amenity" v="fuel"/>
    <tag k="brand" v="Z Gas"/>
    <tag k="fuel:lpg" v="yes"/>
  </node>
  <node id="1348195813" lat="40.2668752" lon="16.1639344" version="2" timestamp="2018-08-25T13:22:25Z" changeset="61984835" uid="361003" user="Cascafico">
    <tag k="amenity" v="fuel"/>
    <tag k="brand" v="Agip Eni"/>
    <tag k="operator" v="Di Bitetto Rosalba"/>
    <tag k="ref:mise" v="16703"/>
  </node>
  <node id="1348195857" lat="40.2622188" lon="16.2495864" version="3" timestamp="2018-08-25T13:22:25Z" changeset="61984835" uid="361003" user="Cascafico">
    <tag k="amenity" v="fuel"/>
    <tag k="brand" v="Toma Petroli"/>
    <tag k="fuel:diesel" v="yes"/>
    <tag k="fuel:lpg" v="yes"/>
    <tag k="fuel:octane_95" v="yes"/>
    <tag k="operator" v="Toma Vito Domenico S.R.L."/>
    <tag k="ref:mise" v="38435"/>
  </node>
  <node id="314769362" lat="40.2609455" lon="16.2959464" version="7" timestamp="2018-08-25T13:19:56Z" changeset="61984835" uid="361003" user="Cascafico">
    <tag k="addr:city" v="Sant'Arcangelo"/>
    <tag k="addr:country" v="IT"/>
    <tag k="addr:street" v="S.S. 598 Fondo Valle d'Agri Km. 83+180"/>
    <tag k="amenity" v="fuel"/>
    <tag k="brand" v="Esso"/>
    <tag k="contact:phone" v="+39 0973 618207"/>
    <tag k="name" v="Esso"/>
    <tag k="opening_hours" v="24/7"/>
    <tag k="operator" v="Stazione di Servizio Esso di Stigliano Michele"/>
    <tag k="ref" v="Esso 7148"/>
    <tag k="ref:mise" v="22812"/>
    <tag k="tenant" v="Stigliano"/>
  </node>
  <node id="1348195967" lat="40.2635628" lon="16.3010289" version="1" timestamp="2011-07-03T17:08:31Z" changeset="8621261" uid="1987" user="niubii">
    <tag k="amenity" v="fuel"/>
    <tag k="brand" v="Tamoil"/>
  </node>
  <node id="5853344633" lat="40.2972435" lon="15.9887432" version="1" timestamp="2018-08-24T10:02:36Z" changeset="61948858" uid="8727120" user="attilaimport">
    <tag k="amenity" v="fuel"/>
    <tag k="operator" v="Friguglietti Vincezina"/>
    <tag k="ref:mise" v="17935"/>
  </node>
  <node id="304139203" lat="40.3838350" lon="16.0418677" version="2" timestamp="2018-08-25T13:19:50Z" changeset="61984835" uid="361003" user="Cascafico">
    <tag k="amenity" v="fuel"/>
    <tag k="brand" v="Esso"/>
    <tag k="fixme" v="apostrophe in operator"/>
    <tag k="name" v="Esso"/>
    <tag k="operator" v="Mast di Donnoli Carmelo &amp; C. - Società in Accomandita Semplice"/>
    <tag k="ref:mise" v="13894"/>
  </node>
  <node id="2022852350" lat="40.3530037" lon="16.0833127" version="2" timestamp="2018-08-25T13:24:16Z" changeset="61984835" uid="361003" user="Cascafico">
    <tag k="amenity" v="fuel"/>
    <tag k="brand" v="Ies"/>
    <tag k="name" v="Stazione di Servizio di Luisi Vincenzo"/>
    <tag k="operator" v="Distributore Ies-Enotria Cafe' di Luisi Vincenzo"/>
    <tag k="ref:mise" v="12647"/>
  </node>
  <node id="5851841840" lat="40.4593718" lon="15.9715328" version="1" timestamp="2018-08-23T16:36:49Z" changeset="61927015" uid="8727120" user="attilaimport">
    <tag k="amenity" v="fuel"/>
    <tag k="brand" v="Total Erg"/>
    <tag k="operator" v="Fanelli Graziano Rocco"/>
    <tag k="ref:mise" v="24504"/>
  </node>
  <node id="5851836850" lat="40.3867563" lon="16.0492815" version="1" timestamp="2018-08-23T16:35:16Z" changeset="61927015" uid="8727120" user="attilaimport">
    <tag k="amenity" v="fuel"/>
    <tag k="brand" v="Total Erg"/>
    <tag k="operator" v="Petrol Rete S.R.L."/>
    <tag k="ref:mise" v="34345"/>
  </node>
  <node id="3531006545" lat="40.5866364" lon="16.0375839" version="2" timestamp="2018-08-25T13:26:58Z" changeset="61984835" uid="361003" user="Cascafico">
    <tag k="amenity" v="fuel"/>
    <tag k="brand" v="Api-Ip"/>
    <tag k="name" v="IP"/>
    <tag k="operator" v="Appia Carburanti - S.A.S. di Francesco Santangelo &amp; C."/>
    <tag k="ref:mise" v="40704"/>
  </node>
  <node id="5851843039" lat="40.6950934" lon="16.0184587" version="1" timestamp="2018-08-23T16:37:15Z" changeset="61927015" uid="8727120" user="attilaimport">
    <tag k="amenity" v="fuel"/>
    <tag k="brand" v="Agip Eni"/>
    <tag k="operator" v="Carburanti F.lli Frontuto S.N.C. di Frontuto Vito &amp; C."/>
    <tag k="ref:mise" v="21314"/>
  </node>
  <node id="5851840957" lat="40.6781033" lon="16.0729048" version="1" timestamp="2018-08-23T16:36:37Z" changeset="61927015" uid="8727120" user="attilaimport">
    <tag k="amenity" v="fuel"/>
    <tag k="brand" v="Agip Eni"/>
    <tag k="operator" v="F.lli Raimondi Snc di Raimondi Biagino G. e Gaetano Snc"/>
    <tag k="ref:mise" v="26225"/>
  </node>
  <node id="3238766173" lat="40.7326156" lon="15.4994481" version="1" timestamp="2014-12-16T23:11:53Z" changeset="27518574" uid="2524189" user="GiusFerr">
    <tag k="amenity" v="fuel"/>
    <tag k="name" v="Megoil"/>
    <tag k="operator" v="Pompa Bianca"/>
  </node>
  <node id="5853343369" lat="40.7301375" lon="15.5022501" version="1" timestamp="2018-08-24T10:02:12Z" changeset="61948858" uid="8727120" user="attilaimport">
    <tag k="amenity" v="fuel"/>
    <tag k="operator" v="Agri Car S.R.L."/>
    <tag k="ref:mise" v="32477"/>
  </node>
  <node id="3238766172" lat="40.7381793" lon="15.4932957" version="2" timestamp="2018-08-25T13:26:44Z" changeset="61984835" uid="361003" user="Cascafico">
    <tag k="amenity" v="fuel"/>
    <tag k="brand" v="Agip Eni"/>
    <tag k="name" v="Fuel Service S.R.L."/>
    <tag k="operator" v="Ercolani S.R.L."/>
    <tag k="ref:mise" v="31072"/>
  </node>
  <node id="1470673824" lat="40.7902109" lon="15.4340287" version="2" timestamp="2018-08-25T13:22:47Z" changeset="61984835" uid="361003" user="Cascafico">
    <tag k="amenity" v="fuel"/>
    <tag k="fuel:diesel" v="yes"/>
    <tag k="fuel:octane_95" v="yes"/>
    <tag k="nobrand" v="yes"/>
    <tag k="operator" v="Fiamma Lucana - S.R.L."/>
    <tag k="ref:mise" v="32644"/>
  </node>
  <node id="5851837295" lat="40.8472011" lon="15.3759609" version="1" timestamp="2018-08-23T16:35:32Z" changeset="61927015" uid="8727120" user="attilaimport">
    <tag k="amenity" v="fuel"/>
    <tag k="brand" v="Api-Ip"/>
    <tag k="operator" v="Cignarella Giuseppe"/>
    <tag k="ref:mise" v="32639"/>
  </node>
  <node id="1781726251" lat="40.8356064" lon="15.3957544" version="2" timestamp="2018-08-25T13:23:34Z" changeset="61984835" uid="361003" user="Cascafico">
    <tag k="amenity" v="fuel"/>
    <tag k="brand" v="Total Erg"/>
    <tag k="operator" v="Mescia Giuseppe Gerardo"/>
    <tag k="ref:mise" v="15270"/>
  </node>
  <node id="1334021507" lat="40.8903048" lon="15.4845046" version="3" timestamp="2018-08-25T13:22:24Z" changeset="61984835" uid="361003" user="Cascafico">
    <tag k="amenity" v="fuel"/>
    <tag k="brand" v="Api-Ip"/>
    <tag k="fuel:diesel" v="yes"/>
    <tag k="fuel:lpg" v="no"/>
    <tag k="fuel:octane_95" v="yes"/>
    <tag k="operator" v="Metallo Canio"/>
    <tag k="ref:mise" v="6148"/>
    <tag k="shop" v="yes"/>
  </node>
  <node id="5851843003" lat="40.7012786" lon="15.5445237" version="1" timestamp="2018-08-23T16:37:12Z" changeset="61927015" uid="8727120" user="attilaimport">
    <tag k="amenity" v="fuel"/>
    <tag k="brand" v="Q8"/>
    <tag k="operator" v="Sileo Giuseppe"/>
    <tag k="ref:mise" v="21629"/>
  </node>
  <node id="5851843049" lat="40.7570425" lon="15.5413370" version="1" timestamp="2018-08-23T16:37:15Z" changeset="61927015" uid="8727120" user="attilaimport">
    <tag k="amenity" v="fuel"/>
    <tag k="brand" v="Q8"/>
    <tag k="operator" v="Carretta Cosimo"/>
    <tag k="ref:mise" v="21150"/>
  </node>
  <node id="5851843274" lat="40.7131678" lon="15.6882291" version="1" timestamp="2018-08-23T16:37:36Z" changeset="61927015" uid="8727120" user="attilaimport">
    <tag k="amenity" v="fuel"/>
    <tag k="brand" v="Ies"/>
    <tag k="operator" v="F.G.S. Service di Sabatina Gentilesca &amp; C. S.N.C."/>
    <tag k="ref:mise" v="18652"/>
  </node>
  <node id="5851836790" lat="40.7326022" lon="15.7236061" version="1" timestamp="2018-08-23T16:35:12Z" changeset="61927015" uid="8727120" user="attilaimport">
    <tag k="amenity" v="fuel"/>
    <tag k="brand" v="Esso"/>
    <tag k="operator" v="F.lli Giordano - S.A.S. di Giordano Antonello &amp; C."/>
    <tag k="ref:mise" v="34886"/>
  </node>
  <node id="5851844941" lat="40.8195431" lon="15.5424839" version="1" timestamp="2018-08-23T16:38:07Z" changeset="61927015" uid="8727120" user="attilaimport">
    <tag k="amenity" v="fuel"/>
    <tag k="brand" v="Tamoil"/>
    <tag k="operator" v="Del Monte Pasqualino"/>
    <tag k="ref:mise" v="14103"/>
  </node>
  <node id="6247490959" lat="40.8166871" lon="15.5471877" version="1" timestamp="2019-01-30T17:16:24Z" changeset="66777320" uid="69259" user="DnaX">
    <tag k="amenity" v="fuel"/>
    <tag k="brand" v="Tamoil"/>
    <tag k="brand:wikidata" v="Q706793"/>
    <tag k="brand:wikipedia" v="en:Tamoil"/>
    <tag k="name" v="Tamoil"/>
  </node>
  <node id="5853344384" lat="40.8299254" lon="15.7004339" version="1" timestamp="2018-08-24T10:02:23Z" changeset="61948858" uid="8727120" user="attilaimport">
    <tag k="amenity" v="fuel"/>
    <tag k="operator" v="Macchia Carburanti di Macchia Pasquale &amp; C. - S.N.C."/>
    <tag k="ref:mise" v="26181"/>
  </node>
  <node id="5853343108" lat="40.8236726" lon="15.7046270" version="1" timestamp="2018-08-24T10:01:49Z" changeset="61948858" uid="8727120" user="attilaimport">
    <tag k="amenity" v="fuel"/>
    <tag k="operator" v="S. N. S.R.L."/>
    <tag k="ref:mise" v="40529"/>
  </node>
  <node id="355006290" lat="40.8495995" lon="15.7037109" version="2" timestamp="2018-08-25T13:20:06Z" changeset="61984835" uid="361003" user="Cascafico">
    <tag k="amenity" v="fuel"/>
    <tag k="brand" v="Tamoil"/>
    <tag k="name" v="Tamoil"/>
    <tag k="operator" v="Valvano Rocchino"/>
    <tag k="ref:mise" v="17729"/>
  </node>
  <node id="5851837291" lat="40.8864688" lon="15.6546927" version="1" timestamp="2018-08-23T16:35:32Z" changeset="61927015" uid="8727120" user="attilaimport">
    <tag k="amenity" v="fuel"/>
    <tag k="brand" v="Api-Ip"/>
    <tag k="operator" v="Ip Services S.R.L."/>
    <tag k="ref:mise" v="32671"/>
  </node>
  <node id="5853344539" lat="40.8810646" lon="15.6885973" version="1" timestamp="2018-08-24T10:02:31Z" changeset="61948858" uid="8727120" user="attilaimport">
    <tag k="amenity" v="fuel"/>
    <tag k="operator" v="Patto di Sviluppo S.R.L."/>
    <tag k="ref:mise" v="21334"/>
  </node>
  <node id="5586547570" lat="40.9044073" lon="15.6894526" version="3" timestamp="2018-08-25T13:30:11Z" changeset="61984835" uid="361003" user="Cascafico">
    <tag k="amenity" v="fuel"/>
    <tag k="name" v="GPL"/>
    <tag k="nobrand" v="yes"/>
    <tag k="operator" v="Chieppa Aldo Gerardo"/>
    <tag k="ref:mise" v="32825"/>
  </node>
  <node id="1975802456" lat="40.7160361" lon="15.7490239" version="2" timestamp="2018-08-25T13:24:08Z" changeset="61984835" uid="361003" user="Cascafico">
    <tag k="amenity" v="fuel"/>
    <tag k="brand" v="Ies"/>
    <tag k="operator" v="Petrol.Bo S.R.L."/>
    <tag k="ref:mise" v="17137"/>
  </node>
  <node id="5851837321" lat="40.7360146" lon="15.7311324" version="1" timestamp="2018-08-23T16:35:34Z" changeset="61927015" uid="8727120" user="attilaimport">
    <tag k="amenity" v="fuel"/>
    <tag k="brand" v="Api-Ip"/>
    <tag k="operator" v="Scotto di Santolo Antonio"/>
    <tag k="ref:mise" v="32522"/>
  </node>
  <node id="2246435700" lat="40.7319024" lon="15.8069020" version="1" timestamp="2013-04-03T11:59:17Z" changeset="15593764" uid="1293257" user="Wolfgang Mück">
    <tag k="amenity" v="fuel"/>
  </node>
  <node id="5851843623" lat="40.8024516" lon="15.7337791" version="1" timestamp="2018-08-23T16:37:39Z" changeset="61927015" uid="8727120" user="attilaimport">
    <tag k="amenity" v="fuel"/>
    <tag k="brand" v="Q8"/>
    <tag k="operator" v="Maio Salvatore"/>
    <tag k="ref:mise" v="18052"/>
  </node>
  <node id="1325764609" lat="40.7882147" lon="15.7611337" version="4" timestamp="2018-08-25T13:22:22Z" changeset="61984835" uid="361003" user="Cascafico">
    <tag k="amenity" v="fuel"/>
    <tag k="brand" v="Total Erg"/>
    <tag k="operator" v="Petrol Maman S.A.S. di Santarsiero Giuseppe &amp; C."/>
    <tag k="ref:mise" v="32890"/>
  </node>
  <node id="4066845089" lat="40.7877158" lon="15.7607287" version="1" timestamp="2016-03-18T15:35:49Z" changeset="37922188" uid="1987" user="niubii">
    <tag k="amenity" v="fuel"/>
    <tag k="brand" v="TotalErg"/>
  </node>
  <node id="309296261" lat="40.7706530" lon="15.7934638" version="4" timestamp="2018-08-25T13:19:54Z" changeset="61984835" uid="361003" user="Cascafico">
    <tag k="amenity" v="fuel"/>
    <tag k="brand" v="Esso"/>
    <tag k="name" v="Esso"/>
    <tag k="operator" v="Zaccagnino Service Station Snc di Zaccagnino Dina e Zaccagnino Leonardo"/>
    <tag k="ref" v="Esso 1277"/>
    <tag k="ref:mise" v="3989"/>
  </node>
  <node id="5853344527" lat="40.7898152" lon="15.9340817" version="1" timestamp="2018-08-24T10:02:30Z" changeset="61948858" uid="8727120" user="attilaimport">
    <tag k="amenity" v="fuel"/>
    <tag k="operator" v="Carburanti Cappiello &amp; C. S.A.S."/>
    <tag k="ref:mise" v="21718"/>
  </node>
  <node id="297377548" lat="40.8185836" lon="15.7427805" version="4" timestamp="2013-05-16T13:15:32Z" changeset="16153119" uid="893327" user="mcheckimport">
    <tag k="amenity" v="fuel"/>
    <tag k="brand" v="Esso"/>
    <tag k="ref" v="Esso 1587"/>
  </node>
  <node id="687138000" lat="40.9102029" lon="15.8265576" version="2" timestamp="2018-08-25T13:21:07Z" changeset="61984835" uid="361003" user="Cascafico">
    <tag k="amenity" v="fuel"/>
    <tag k="nobrand" v="yes"/>
    <tag k="operator" v="Grieco Donato"/>
    <tag k="ref:mise" v="40916"/>
  </node>
  <node id="5853344357" lat="40.8567809" lon="15.8543497" version="1" timestamp="2018-08-24T10:02:22Z" changeset="61948858" uid="8727120" user="attilaimport">
    <tag k="amenity" v="fuel"/>
    <tag k="operator" v="Ungaro Donato"/>
    <tag k="ref:mise" v="27067"/>
  </node>
  <node id="5853343014" lat="40.8615039" lon="15.8473907" version="1" timestamp="2018-08-24T10:01:44Z" changeset="61948858" uid="8727120" user="attilaimport">
    <tag k="amenity" v="fuel"/>
    <tag k="operator" v="Pupino Carmela"/>
    <tag k="ref:mise" v="7606"/>
  </node>
  <node id="534569505" lat="40.9202747" lon="15.6690877" version="2" timestamp="2018-08-25T13:20:43Z" changeset="61984835" uid="361003" user="Cascafico">
    <tag k="amenity" v="fuel"/>
    <tag k="brand" v="Agip Eni"/>
    <tag k="name" v="Agip"/>
    <tag k="operator" v="Euro Carburanti di Brienza A. e di Pierro G.D. &amp; C. S.N.C."/>
    <tag k="ref:mise" v="33053"/>
  </node>
  <node id="360653970" lat="40.9212073" lon="15.6698517" version="2" timestamp="2018-08-25T13:20:07Z" changeset="61984835" uid="361003" user="Cascafico">
    <tag k="amenity" v="fuel"/>
    <tag k="brand" v="Esso"/>
    <tag k="name" v="Esso"/>
    <tag k="operator" v="Carrieri Petroli di Assunta Gisella Carrieri &amp; C. S.A.S."/>
    <tag k="ref:mise" v="33016"/>
  </node>
  <node id="508495490" lat="40.9135651" lon="15.6816058" version="3" timestamp="2018-08-25T13:20:39Z" changeset="61984835" uid="361003" user="Cascafico">
    <tag k="amenity" v="fuel"/>
    <tag k="brand" v="Api-Ip"/>
    <tag k="name" v="API"/>
    <tag k="operator" v="P.D.G. Carburanti di Pierri Enrico e C. S.A.S."/>
    <tag k="ref:mise" v="8405"/>
  </node>
  <node id="508642112" lat="40.9413406" lon="15.6776437" version="3" timestamp="2018-08-25T13:20:39Z" changeset="61984835" uid="361003" user="Cascafico">
    <tag k="amenity" v="fuel"/>
    <tag k="brand" v="Total Erg"/>
    <tag k="operator" v="Elle2Bi di Barbato Salvatore &amp; C. S.N.C."/>
    <tag k="ref:mise" v="40834"/>
  </node>
  <node id="1325786004" lat="40.9564260" lon="15.6817570" version="2" timestamp="2018-08-25T13:22:22Z" changeset="61984835" uid="361003" user="Cascafico">
    <tag k="amenity" v="fuel"/>
    <tag k="brand" v="Q8"/>
    <tag k="operator" v="D&amp;B di Dinoia Laura Tiziana"/>
    <tag k="ref:mise" v="8945"/>
  </node>
  <node id="228187468" lat="40.9943556" lon="15.6423208" version="7" timestamp="2018-08-25T13:17:33Z" changeset="61983827" uid="361003" user="Cascafico">
    <tag k="amenity" v="fuel"/>
    <tag k="brand" v="Esso"/>
    <tag k="fuel:diesel" v="yes"/>
    <tag k="fuel:lpg" v="yes"/>
    <tag k="fuel:octane_95" v="yes"/>
    <tag k="name" v="Esso"/>
    <tag k="opening_hours" v="24/7"/>
    <tag k="operator" v="C.L.R.T. di Rosa V. &amp; C. S.A.S."/>
    <tag k="ref:mise" v="4216"/>
    <tag k="shop" v="yes"/>
    <tag k="wheelchair" v="no"/>
  </node>
  <node id="228187680" lat="40.9906210" lon="15.6478200" version="6" timestamp="2018-08-25T13:17:33Z" changeset="61983827" uid="361003" user="Cascafico">
    <tag k="amenity" v="fuel"/>
    <tag k="brand" v="Agip Eni"/>
    <tag k="name" v="Agip"/>
    <tag k="operator" v="Mossucca Michele"/>
    <tag k="ref:mise" v="25123"/>
    <tag k="wheelchair" v="no"/>
  </node>
  <node id="228187683" lat="41.0076700" lon="15.6283680" version="6" timestamp="2018-08-25T13:17:34Z" changeset="61983827" uid="361003" user="Cascafico">
    <tag k="amenity" v="fuel"/>
    <tag k="brand" v="Agip Eni"/>
    <tag k="name" v="Agip"/>
    <tag k="operator" v="Festino Vito"/>
    <tag k="ref:mise" v="23810"/>
    <tag k="wheelchair" v="no"/>
  </node>
  <node id="5851837524" lat="41.0037662" lon="15.6261454" version="1" timestamp="2018-08-23T16:35:41Z" changeset="61927015" uid="8727120" user="attilaimport">
    <tag k="amenity" v="fuel"/>
    <tag k="brand" v="Q8"/>
    <tag k="operator" v="Servizi &amp; Gestioni Italia S.R.L."/>
    <tag k="ref:mise" v="31874"/>
  </node>
  <node id="5851845242" lat="40.9757451" lon="15.6769672" version="1" timestamp="2018-08-23T16:38:17Z" changeset="61927015" uid="8727120" user="attilaimport">
    <tag k="amenity" v="fuel"/>
    <tag k="brand" v="Api-Ip"/>
    <tag k="operator" v="Ambrosio Mario &amp; C. S.N.C."/>
    <tag k="ref:mise" v="13473"/>
  </node>
  <node id="306285366" lat="41.0935251" lon="15.5940186" version="4" timestamp="2018-08-25T13:19:51Z" changeset="61984835" uid="361003" user="Cascafico">
    <tag k="amenity" v="fuel"/>
    <tag k="brand" v="Esso"/>
    <tag k="name" v="Esso"/>
    <tag k="operator" v="Area Food S.R.L."/>
    <tag k="ref:mise" v="25493"/>
    <tag k="wheelchair" v="limited"/>
  </node>
  <node id="306285349" lat="41.0639242" lon="15.7107077" version="6" timestamp="2018-08-25T13:19:51Z" changeset="61984835" uid="361003" user="Cascafico">
    <tag k="amenity" v="fuel"/>
    <tag k="brand" v="Q8"/>
    <tag k="name" v="Q8 Montelungo"/>
    <tag k="operator" v="Servizi &amp; Gestioni Italia S.R.L."/>
    <tag k="ref:mise" v="22967"/>
  </node>
  <node id="5853343356" lat="41.0796617" lon="15.6868029" version="1" timestamp="2018-08-24T10:02:12Z" changeset="61948858" uid="8727120" user="attilaimport">
    <tag k="amenity" v="fuel"/>
    <tag k="operator" v="Service Area Montanarella S.R.L."/>
    <tag k="ref:mise" v="32716"/>
  </node>
  <node id="5851844302" lat="40.9134822" lon="15.7300454" version="1" timestamp="2018-08-23T16:37:51Z" changeset="61927015" uid="8727120" user="attilaimport">
    <tag k="amenity" v="fuel"/>
    <tag k="brand" v="Total Erg"/>
    <tag k="operator" v="Pompa Donato Claudio"/>
    <tag k="ref:mise" v="16248"/>
  </node>
  <node id="5804828257" lat="40.9593208" lon="15.8069000" version="2" timestamp="2018-08-25T13:30:20Z" changeset="61984835" uid="361003" user="Cascafico">
    <tag k="amenity" v="fuel"/>
    <tag k="brand" v="Tamoil"/>
    <tag k="name" v="Tamoil"/>
    <tag k="operator" v="Selvatico Antonio"/>
    <tag k="ref:mise" v="11195"/>
  </node>
  <node id="562015140" lat="40.9629907" lon="15.8169408" version="4" timestamp="2018-08-25T13:20:49Z" changeset="61984835" uid="361003" user="Cascafico">
    <tag k="amenity" v="fuel"/>
    <tag k="brand" v="Api-Ip"/>
    <tag k="name" v="IP"/>
    <tag k="operator" v="Ip Services S.R.L."/>
    <tag k="ref:mise" v="30993"/>
  </node>
  <node id="5804828258" lat="40.9654663" lon="15.8127448" version="2" timestamp="2018-08-25T13:30:20Z" changeset="61984835" uid="361003" user="Cascafico">
    <tag k="amenity" v="fuel"/>
    <tag k="brand" v="Esso"/>
    <tag k="name" v="Esso"/>
    <tag k="operator" v="Auto Minco di Martone Pasquale e Milco S.N.C."/>
    <tag k="ref:mise" v="31276"/>
  </node>
  <node id="562103932" lat="40.9665370" lon="15.8254069" version="3" timestamp="2018-08-25T13:20:49Z" changeset="61984835" uid="361003" user="Cascafico">
    <tag k="amenity" v="fuel"/>
    <tag k="brand" v="Agip Eni"/>
    <tag k="name" v="Agip"/>
    <tag k="operator" v="Venusia Carburanti S.N.C. di Ciavatta Cesare e A."/>
    <tag k="ref:mise" v="4493"/>
  </node>
  <node id="667534055" lat="41.0048651" lon="15.8514061" version="2" timestamp="2018-08-25T13:21:04Z" changeset="61984835" uid="361003" user="Cascafico">
    <tag k="amenity" v="fuel"/>
    <tag k="brand" v="Esso"/>
    <tag k="name" v="Esso"/>
    <tag k="operator" v="Penta Petroli Srl"/>
    <tag k="ref:mise" v="28841"/>
  </node>
  <node id="5851831612" lat="41.0374127" lon="15.7732290" version="1" timestamp="2018-08-23T16:33:52Z" changeset="61927015" uid="8727120" user="attilaimport">
    <tag k="amenity" v="fuel"/>
    <tag k="brand" v="Agip Eni"/>
    <tag k="operator" v="Metanauto Lavello di Bisceglia Giuseppe e C. Società In Nome Collettivo"/>
    <tag k="ref:mise" v="4830"/>
  </node>
  <node id="309292349" lat="41.0401999" lon="15.7759507" version="2" timestamp="2010-12-04T00:13:34Z" changeset="6533449" uid="1987" user="niubii">
    <tag k="amenity" v="fuel"/>
    <tag k="name" v="Basile Petroli"/>
    <tag k="operator" v="Basile Petroli"/>
  </node>
  <node id="5853343176" lat="41.0177566" lon="15.8157608" version="1" timestamp="2018-08-24T10:01:53Z" changeset="61948858" uid="8727120" user="attilaimport">
    <tag k="amenity" v="fuel"/>
    <tag k="operator" v="Penta Petroli Srl"/>
    <tag k="ref:mise" v="39379"/>
  </node>
  <node id="793734509" lat="41.0437853" lon="15.7859266" version="3" timestamp="2018-08-25T13:21:28Z" changeset="61984835" uid="361003" user="Cascafico">
    <tag k="amenity" v="fuel"/>
    <tag k="brand" v="Esso"/>
    <tag k="fuel:diesel" v="yes"/>
    <tag k="fuel:octane_95" v="yes"/>
    <tag k="operator" v="Fuel Corporation di Liseno Antonio &amp; C. S.A.S."/>
    <tag k="ref:mise" v="34979"/>
    <tag k="shop" v="kiosk"/>
  </node>
  <node id="228078629" lat="41.0475822" lon="15.7908162" version="6" timestamp="2018-08-25T13:16:39Z" changeset="61983827" uid="361003" user="Cascafico">
    <tag k="amenity" v="fuel"/>
    <tag k="brand" v="Total Erg"/>
    <tag k="fuel:diesel" v="yes"/>
    <tag k="fuel:octane_80" v="yes"/>
    <tag k="name" v="erg"/>
    <tag k="operator" v="Sinesi Costanza"/>
    <tag k="ref:mise" v="40543"/>
  </node>
  <node id="699225938" lat="41.0860554" lon="15.8794261" version="2" timestamp="2018-08-25T13:21:09Z" changeset="61984835" uid="361003" user="Cascafico">
    <tag k="amenity" v="fuel"/>
    <tag k="fuel:diesel" v="yes"/>
    <tag k="fuel:octane_95" v="yes"/>
    <tag k="name" v="Di Noia Carburanti"/>
    <tag k="nobrand" v="yes"/>
    <tag k="operator" v="Di Noia Petroli - S.R.L."/>
    <tag k="ref:mise" v="32553"/>
  </node>
  <node id="309292355" lat="41.1204619" lon="15.8781669" version="2" timestamp="2018-08-25T13:19:53Z" changeset="61984835" uid="361003" user="Cascafico">
    <tag k="amenity" v="fuel"/>
    <tag k="brand" v="Loro"/>
    <tag k="fixme" v="Name"/>
    <tag k="name" v="IP"/>
    <tag k="operator" v="Perillo Domenico"/>
    <tag k="ref:mise" v="33598"/>
  </node>
  <node id="5851837764" lat="40.7636193" lon="15.9683624" version="1" timestamp="2018-08-23T16:35:59Z" changeset="61927015" uid="8727120" user="attilaimport">
    <tag k="amenity" v="fuel"/>
    <tag k="brand" v="Api-Ip"/>
    <tag k="operator" v="Cn Petroli - S.R.L."/>
    <tag k="ref:mise" v="30041"/>
  </node>
  <node id="1695155718" lat="40.7364842" lon="16.0544211" version="3" timestamp="2018-08-25T13:23:19Z" changeset="61984835" uid="361003" user="Cascafico">
    <tag k="amenity" v="fuel"/>
    <tag k="nobrand" v="yes"/>
    <tag k="operator" v="Rossi Fuell - Società a Responsabilità Limitata Semplificata"/>
    <tag k="ref:mise" v="39397"/>
  </node>
  <node id="308140056" lat="40.7623772" lon="16.0628709" version="2" timestamp="2018-08-25T13:19:52Z" changeset="61984835" uid="361003" user="Cascafico">
    <tag k="amenity" v="fuel"/>
    <tag k="brand" v="Api-Ip"/>
    <tag k="fixme" v="name"/>
    <tag k="name" v="Agip"/>
    <tag k="operator" v="Cn Petroli - S.R.L."/>
    <tag k="ref:mise" v="30040"/>
  </node>
  <node id="5851841494" lat="40.8458243" lon="16.0338096" version="1" timestamp="2018-08-23T16:36:40Z" changeset="61927015" uid="8727120" user="attilaimport">
    <tag k="amenity" v="fuel"/>
    <tag k="brand" v="Agip Eni"/>
    <tag k="operator" v="Loguercio Pasquale"/>
    <tag k="ref:mise" v="25844"/>
  </node>
  <node id="5851834996" lat="40.8599378" lon="16.0096905" version="1" timestamp="2018-08-23T16:34:43Z" changeset="61927015" uid="8727120" user="attilaimport">
    <tag k="amenity" v="fuel"/>
    <tag k="brand" v="Total Erg"/>
    <tag k="operator" v="Giacomino Angela"/>
    <tag k="ref:mise" v="37213"/>
  </node>
  <node id="5851836822" lat="40.9323986" lon="15.9739675" version="1" timestamp="2018-08-23T16:35:14Z" changeset="61927015" uid="8727120" user="attilaimport">
    <tag k="amenity" v="fuel"/>
    <tag k="brand" v="Agip Eni"/>
    <tag k="operator" v="Limitone Michele"/>
    <tag k="ref:mise" v="34583"/>
  </node>
  <node id="228112883" lat="40.9438450" lon="15.9830470" version="4" timestamp="2014-09-17T13:21:33Z" changeset="25500680" uid="554973" user="dgitto">
    <tag k="amenity" v="fuel"/>
    <tag k="brand" v="Independent"/>
    <tag k="name" v="Indipend."/>
    <tag k="operator" v="Indipend."/>
  </node>
  <node id="5851844363" lat="40.9414185" lon="16.0122246" version="1" timestamp="2018-08-23T16:37:55Z" changeset="61927015" uid="8727120" user="attilaimport">
    <tag k="amenity" v="fuel"/>
    <tag k="brand" v="Camer"/>
    <tag k="operator" v="Cna di Cosentino Antonio &amp; C. S.A.S."/>
    <tag k="ref:mise" v="15756"/>
  </node>
  <node id="391651573" lat="40.9761577" lon="15.9681456" version="2" timestamp="2014-09-15T12:09:33Z" changeset="25454041" uid="554973" user="dgitto">
    <tag k="amenity" v="fuel"/>
    <tag k="fuel:diesel" v="no"/>
    <tag k="fuel:lpg" v="yes"/>
    <tag k="fuel:octane_100" v="no"/>
    <tag k="fuel:octane_91" v="no"/>
    <tag k="fuel:octane_95" v="no"/>
    <tag k="fuel:octane_98" v="no"/>
  </node>
  <node id="699225936" lat="41.0318141" lon="15.9729861" version="2" timestamp="2018-08-25T13:21:09Z" changeset="61984835" uid="361003" user="Cascafico">
    <tag k="amenity" v="fuel"/>
    <tag k="brand" v="Api-Ip"/>
    <tag k="operator" v="Mennuti Donato"/>
    <tag k="ref:mise" v="20615"/>
  </node>
  <node id="4101306534" lat="41.0302098" lon="15.9715020" version="1" timestamp="2016-04-06T06:15:45Z" changeset="38340439" uid="893327" user="mcheckimport">
    <tag k="amenity" v="fuel"/>
    <tag k="name" v="IP"/>
  </node>
  <way id="361474302" version="2" timestamp="2018-08-25T13:35:40Z" changeset="61984835" uid="361003" user="Cascafico">
    <center lat="40.0530277" lon="15.8414007"/>
    <nd ref="3659426004"/>
    <nd ref="3659426005"/>
    <nd ref="3659426006"/>
    <nd ref="3659426007"/>
    <nd ref="3659426004"/>
    <tag k="amenity" v="fuel"/>
    <tag k="brand" v="Agip Eni"/>
    <tag k="building" v="yes"/>
    <tag k="operator" v="Scardino Annunziata"/>
    <tag k="ref:mise" v="27005"/>
    <tag k="source:date" v="2018-04-16"/>
  </way>
  <way id="459081886" version="3" timestamp="2018-08-25T13:37:02Z" changeset="61984835" uid="361003" user="Cascafico">
    <center lat="40.5982353" lon="15.5078342"/>
    <nd ref="4549980906"/>
    <nd ref="4549980907"/>
    <nd ref="4549980908"/>
    <nd ref="4549980909"/>
    <nd ref="4549980906"/>
    <tag k="amenity" v="fuel"/>
    <tag k="brand" v="Agip Eni"/>
    <tag k="fixme" v="name"/>
    <tag k="fuel:diesel" v="yes"/>
    <tag k="name" v="Benzina"/>
    <tag k="opening_hours" v="24/7"/>
    <tag k="operator" v="Gestione Distributore Carburanti Fabio Roberto"/>
    <tag k="ref:mise" v="25537"/>
    <tag k="source:date" v="2018-04-16"/>
  </way>
  <way id="502772837" version="2" timestamp="2018-08-25T13:40:17Z" changeset="61985256" uid="361003" user="Cascafico">
    <center lat="40.6317401" lon="15.7896087"/>
    <nd ref="4931513180"/>
    <nd ref="4931513181"/>
    <nd ref="4931513182"/>
    <nd ref="4931513183"/>
    <nd ref="4931513180"/>
    <tag k="addr:city" v="Potenza"/>
    <tag k="addr:postcode" v="85100"/>
    <tag k="addr:street" v="Via del Gallitello"/>
    <tag k="amenity" v="fuel"/>
    <tag k="brand" v="Q8"/>
    <tag k="name" v="Q8 Easy"/>
    <tag k="operator" v="Servizi &amp; Gestioni Italia S.R.L."/>
    <tag k="ref:mise" v="35898"/>
    <tag k="source:date" v="2018-04-16"/>
  </way>
  <way id="502644676" version="1" timestamp="2017-06-22T09:45:10Z" changeset="49741787" uid="6188067" user="Mausna">
    <center lat="40.6440274" lon="15.8306475"/>
    <nd ref="4930486276"/>
    <nd ref="4930486277"/>
    <nd ref="4930486280"/>
    <nd ref="4930486281"/>
    <nd ref="4930486278"/>
    <nd ref="4930486279"/>
    <nd ref="4930486276"/>
    <tag k="amenity" v="fuel"/>
    <tag k="name" v="Agip"/>
  </way>
  <way id="502644677" version="2" timestamp="2018-08-25T13:40:17Z" changeset="61985256" uid="361003" user="Cascafico">
    <center lat="40.6437934" lon="15.8307518"/>
    <nd ref="4930486280"/>
    <nd ref="4930486281"/>
    <nd ref="4930486282"/>
    <nd ref="4930486283"/>
    <nd ref="4930486280"/>
    <tag k="amenity" v="fuel"/>
    <tag k="brand" v="Agip Eni"/>
    <tag k="name" v="Agip"/>
    <tag k="operator" v="Eni Fuel S.P.A."/>
    <tag k="ref:mise" v="5428"/>
    <tag k="source:date" v="2018-04-16"/>
  </way>
  <way id="547486716" version="2" timestamp="2018-08-25T13:40:37Z" changeset="61985256" uid="361003" user="Cascafico">
    <center lat="40.0864722" lon="15.9995188"/>
    <nd ref="5290140121"/>
    <nd ref="5290140122"/>
    <nd ref="5290140123"/>
    <nd ref="5290140124"/>
    <nd ref="5290140125"/>
    <nd ref="5290140126"/>
    <nd ref="5290140127"/>
    <nd ref="5290140128"/>
    <nd ref="5290140121"/>
    <tag k="amenity" v="fuel"/>
    <tag k="brand" v="Q8"/>
    <tag k="name" v="Benzina"/>
    <tag k="operator" v="Soc. P. &amp; P. di Ponzo A. e Papaleo G. S.N.C."/>
    <tag k="ref:mise" v="9274"/>
    <tag k="source:date" v="2018-04-16"/>
  </way>
  <way id="307619400" version="4" timestamp="2018-08-25T13:34:16Z" changeset="61984835" uid="361003" user="Cascafico">
    <center lat="40.1400763" lon="16.2987968"/>
    <nd ref="3128144658"/>
    <nd ref="3128144659"/>
    <nd ref="3128143137"/>
    <nd ref="3128144660"/>
    <nd ref="3128144661"/>
    <nd ref="3128144662"/>
    <nd ref="3128144663"/>
    <nd ref="3128143139"/>
    <nd ref="3128143138"/>
    <nd ref="3128144664"/>
    <nd ref="897627876"/>
    <nd ref="3128144665"/>
    <nd ref="3128144666"/>
    <nd ref="3128144658"/>
    <tag k="amenity" v="fuel"/>
    <tag k="brand" v="Ies"/>
    <tag k="building" v="yes"/>
    <tag k="operator" v="Se.Di.Ca. Srl"/>
    <tag k="ref:mise" v="32636"/>
    <tag k="source:date" v="2018-04-16"/>
  </way>
  <way id="610584997" version="1" timestamp="2018-07-24T17:04:37Z" changeset="61030962" uid="8595888" user="MARKIO319">
    <center lat="40.8302299" lon="15.7011233"/>
    <nd ref="1891309315"/>
    <nd ref="5782226164"/>
    <nd ref="5782226165"/>
    <nd ref="5782226166"/>
    <nd ref="1891309315"/>
    <tag k="amenity" v="fuel"/>
    <tag k="brand" v="Macchia Carburanti"/>
    <tag k="name" v="Macchia Carburanti di Macchia Pasquale &amp; C. s.n.c."/>
    <tag k="opening_hours" v="Mo-Sa 07:00-13:00 Mo-Sa 15:00-19:30"/>
  </way>

</osm>