<?xml version='1.0' encoding='utf-8'?>
<osm generator="OSM Conflator 1.3.1" version="0.6"><changeset><tag k="source" v="Mise"/><tag k="type" v="import"/><tag k="created_by" v="OSM Conflator 1.3.1"/></changeset><node id="5851837145" version="1" lat="40.53248" lon="16.6106991" action="modify"><tag k="fuel:octane_95" v="yes"/><tag k="fuel:diesel" v="yes"/><tag k="brand" v="Agip Eni"/><tag k="amenity" v="fuel"/><tag k="operator" v="Esseffe Energy S.R.L."/><tag k="ref:mise" v="33675"/></node><node id="5853344592" version="1" lat="40.5288409" lon="16.3196302" action="modify"><tag k="amenity" v="fuel"/><tag k="fuel:octane_95" v="yes"/><tag k="operator" v="Pace Giuseppe"/><tag k="fuel:diesel" v="yes"/><tag k="ref:mise" v="19483"/></node><node id="5851843951" version="1" lat="40.4190196" lon="16.5520822" action="modify"><tag k="fuel:octane_95" v="yes"/><tag k="fuel:diesel" v="yes"/><tag k="brand" v="Q8"/><tag k="amenity" v="fuel"/><tag k="operator" v="Garaguso Salvatore"/><tag k="ref:mise" v="16757"/></node><node id="5853343460" version="1" lat="40.7533193" lon="16.2366021" action="modify"><tag k="amenity" v="fuel"/><tag k="fuel:octane_95" v="yes"/><tag k="operator" v="Tommasini Food &amp; Service Società a Responsabilità Limitata Semplificata"/><tag k="fuel:diesel" v="yes"/><tag k="ref:mise" v="37224"/></node><node id="5851843078" version="1" lat="40.3597318" lon="16.6644989" action="modify"><tag k="fuel:octane_95" v="yes"/><tag k="fuel:diesel" v="yes"/><tag k="brand" v="Q8"/><tag k="amenity" v="fuel"/><tag k="operator" v="Benedetto Carlo"/><tag k="ref:mise" v="20787"/></node><node id="5851834011" version="1" lat="40.394811" lon="16.1410376" action="modify"><tag k="fuel:octane_95" v="yes"/><tag k="fuel:diesel" v="yes"/><tag k="brand" v="Toma Petroli"/><tag k="amenity" v="fuel"/><tag k="operator" v="Toma Vito Domenico S.R.L."/><tag k="ref:mise" v="38436"/></node><node id="5851840959" version="1" lat="40.491178" lon="16.1572418" action="modify"><tag k="fuel:octane_95" v="yes"/><tag k="fuel:diesel" v="yes"/><tag k="brand" v="Total Erg"/><tag k="amenity" v="fuel"/><tag k="operator" v="Giammarino Giovanni"/><tag k="ref:mise" v="26195"/></node><node id="5853344628" version="1" lat="40.4199883" lon="16.6768277" action="modify"><tag k="amenity" v="fuel"/><tag k="fuel:octane_95" v="yes"/><tag k="operator" v="Megal S.R.L."/><tag k="fuel:diesel" v="yes"/><tag k="ref:mise" v="18111"/></node><node id="5851844656" version="1" lat="40.4867497" lon="16.2473568" action="modify"><tag k="fuel:octane_95" v="yes"/><tag k="fuel:diesel" v="yes"/><tag k="brand" v="Total Erg"/><tag k="amenity" v="fuel"/><tag k="operator" v="Diluca Giovanni"/><tag k="ref:mise" v="14916"/></node><node id="5851843387" version="1" lat="40.6647674" lon="16.5969501" action="modify"><tag k="fuel:octane_95" v="yes"/><tag k="fuel:diesel" v="yes"/><tag k="brand" v="Tamoil"/><tag k="amenity" v="fuel"/><tag k="operator" v="Chiro S.A.S. di Chita Maria &amp; C."/><tag k="ref:mise" v="18796"/></node><node id="5851834971" version="1" lat="40.5696083" lon="16.4970832" action="modify"><tag k="fuel:octane_95" v="yes"/><tag k="fuel:diesel" v="yes"/><tag k="brand" v="Api-Ip"/><tag k="amenity" v="fuel"/><tag k="operator" v="Marinaro Massimiliano Emanuele"/><tag k="ref:mise" v="37391"/></node><node id="5853344488" version="1" lat="40.6845832" lon="16.575349" action="modify"><tag k="fuel:octane_95" v="yes"/><tag k="fuel:lpg" v="yes"/><tag k="fuel:diesel" v="yes"/><tag k="ref:mise" v="23114"/><tag k="amenity" v="fuel"/><tag k="operator" v="Gr S.R.L."/></node><node id="5851843952" version="1" lat="40.3882065" lon="16.5646403" action="modify"><tag k="fuel:octane_95" v="yes"/><tag k="fuel:diesel" v="yes"/><tag k="brand" v="Q8"/><tag k="amenity" v="fuel"/><tag k="operator" v="Garaguso Salvatore"/><tag k="ref:mise" v="16753"/></node><node id="5853343096" version="1" lat="40.5829607" lon="16.3531246" action="modify"><tag k="amenity" v="fuel"/><tag k="fuel:octane_95" v="yes"/><tag k="operator" v="Iacovino Rocco"/><tag k="fuel:diesel" v="yes"/><tag k="ref:mise" v="40745"/></node><node id="5853343366" version="1" lat="40.1100934" lon="16.3879018" action="modify"><tag k="amenity" v="fuel"/><tag k="fuel:octane_95" v="yes"/><tag k="operator" v="Panio Nicola"/><tag k="fuel:diesel" v="yes"/><tag k="ref:mise" v="32561"/></node><node id="5851831453" version="1" lat="40.7223436" lon="16.5737211" action="modify"><tag k="fuel:octane_95" v="yes"/><tag k="fuel:diesel" v="yes"/><tag k="brand" v="Q8"/><tag k="amenity" v="fuel"/><tag k="operator" v="Servizi &amp; Gestioni Italia Srl"/><tag k="ref:mise" v="6764"/></node><node id="5851841803" version="1" lat="40.6596163" lon="16.5929992" action="modify"><tag k="fuel:octane_95" v="yes"/><tag k="fuel:diesel" v="yes"/><tag k="brand" v="Api-Ip"/><tag k="amenity" v="fuel"/><tag k="operator" v="Ip Services S.R.L."/><tag k="ref:mise" v="24807"/></node><node id="5851844330" version="1" lat="40.4962972" lon="16.4579946" action="modify"><tag k="fuel:octane_95" v="yes"/><tag k="fuel:diesel" v="yes"/><tag k="brand" v="Q8"/><tag k="amenity" v="fuel"/><tag k="operator" v="Giocoli Maria Elena Maddalena"/><tag k="ref:mise" v="16057"/></node><node id="5851843376" version="1" lat="40.1753546" lon="16.4449507" action="modify"><tag k="fuel:octane_95" v="yes"/><tag k="fuel:diesel" v="yes"/><tag k="brand" v="Total Erg"/><tag k="amenity" v="fuel"/><tag k="operator" v="Liguori Francesco"/><tag k="ref:mise" v="18914"/></node><node id="5851842995" version="1" lat="40.3644745" lon="16.6890317" action="modify"><tag k="fuel:octane_95" v="yes"/><tag k="fuel:diesel" v="yes"/><tag k="brand" v="Agip Eni"/><tag k="amenity" v="fuel"/><tag k="operator" v="Ettorre Stella e Cassano Rosa S.N.C."/><tag k="ref:mise" v="21685"/></node><node id="5853344085" version="1" lat="40.6589349" lon="16.5392297" action="modify"><tag k="amenity" v="fuel"/><tag k="fuel:octane_95" v="yes"/><tag k="operator" v="Fiore Vincenzo"/><tag k="fuel:diesel" v="yes"/><tag k="ref:mise" v="32269"/></node><node id="5853344589" version="1" lat="40.3999255" lon="16.695933" action="modify"><tag k="fuel:octane_95" v="yes"/><tag k="fuel:lpg" v="yes"/><tag k="fuel:diesel" v="yes"/><tag k="ref:mise" v="19510"/><tag k="amenity" v="fuel"/><tag k="operator" v="Vicenti Giuseppe"/></node><node id="5851838480" version="1" lat="40.2132851" lon="16.6791881" action="modify"><tag k="fuel:octane_95" v="yes"/><tag k="fuel:diesel" v="yes"/><tag k="brand" v="Agip Eni"/><tag k="amenity" v="fuel"/><tag k="operator" v="Bellino Nicola"/><tag k="ref:mise" v="28383"/></node><node id="5851842855" version="1" lat="40.5976454" lon="16.388973" action="modify"><tag k="fuel:octane_95" v="yes"/><tag k="fuel:diesel" v="yes"/><tag k="brand" v="Api-Ip"/><tag k="amenity" v="fuel"/><tag k="operator" v="D'Aria Pietro"/><tag k="ref:mise" v="22037"/></node><way id="298516894" version="3" action="modify"><tag k="source:date" v="2018-04-16"/><tag k="ref:mise" v="40319"/><tag k="fuel:octane_95" v="yes"/><tag k="fuel:octane_100" v="yes"/><tag k="brand" v="Agip Eni"/><tag k="layer" v="1"/><tag k="addr:street" v="Strada Statale 106 Jonica"/><tag k="addr:city" v="Bernalda"/><tag k="amenity" v="fuel"/><tag k="fuel:lpg" v="yes"/><tag k="fuel:diesel" v="yes"/><tag k="name" v="Eni"/><tag k="operator" v="Di Canio Pasquale"/><tag k="building" v="roof"/><nd ref="3024317919"/><nd ref="3024317920"/><nd ref="3024317921"/><nd ref="3024317922"/><nd ref="3024317919"/></way><node id="5161342109" version="2" lat="40.3400284" lon="16.2375052" action="modify"><tag k="fuel:octane_95" v="yes"/><tag k="fuel:diesel" v="yes"/><tag k="brand" v="Ies"/><tag k="amenity" v="fuel"/><tag k="operator" v="Calbi Cristian"/><tag k="ref:mise" v="15879"/></node><way id="243427942" version="4" action="modify"><tag k="fuel:octane_95" v="yes"/><tag k="source:date" v="2018-04-16"/><tag k="fuel:diesel" v="yes"/><tag k="fuel:octane_100" v="yes"/><tag k="fuel:octane_98" v="yes"/><tag k="amenity" v="fuel"/><tag k="operator" v="Cifarelli Giuseppe"/><tag k="ref:mise" v="36578"/><tag k="building" v="yes"/><tag k="name" v="Q8"/><tag k="brand" v="Q8"/><nd ref="2508379171"/><nd ref="2508379173"/><nd ref="2508379175"/><nd ref="2508379177"/><nd ref="2508379179"/><nd ref="2508379181"/><nd ref="2508379182"/><nd ref="2508379183"/><nd ref="2508379184"/><nd ref="2508379185"/><nd ref="2508379171"/></way><way id="243685218" version="2" action="modify"><tag k="ref:mise" v="18247"/><tag k="fuel:octane_95" v="yes"/><tag k="fuel:diesel" v="yes"/><tag k="addr:housename" v="IP"/><tag k="brand" v="Api-Ip"/><tag k="amenity" v="fuel"/><tag k="operator" v="Stazione di Servizio Ip di Antezza Leonardo"/><tag k="source:date" v="2018-04-16"/><tag k="building" v="roof"/><tag k="name" v="IP"/><nd ref="2510602498"/><nd ref="2510602502"/><nd ref="2510602505"/><nd ref="2510602509"/><nd ref="2510602498"/></way><node id="5853344171" version="1" lat="40.173189" lon="16.523058" action="modify"><tag k="amenity" v="fuel"/><tag k="fuel:octane_95" v="yes"/><tag k="operator" v="Sergio Petroli S.R.L."/><tag k="fuel:diesel" v="yes"/><tag k="ref:mise" v="29811"/></node><node id="4329204089" version="4" lat="40.3808796" lon="16.7838248" action="modify"><tag k="fuel:octane_95" v="yes"/><tag k="fuel:diesel" v="yes"/><tag k="brand" v="Api-Ip"/><tag k="amenity" v="fuel"/><tag k="operator" v="La Masseria - S.R.L."/><tag k="ref:mise" v="22749"/><tag k="fuel:cng" v="yes"/></node><way id="243490109" version="4" action="modify"><tag k="source:date" v="2018-04-16"/><tag k="ref:mise" v="22322"/><tag k="fuel:octane_95" v="yes"/><tag k="brand" v="Pompe Bianche"/><tag k="name" v="Latorre"/><tag k="addr:city" v="Matera"/><tag k="amenity" v="fuel"/><tag k="fuel:diesel" v="yes"/><tag k="addr:housename" v="Latorre Carburanti"/><tag k="operator" v="Latorre Carburanti S.N.C. di Latorre Carlo &amp; C."/><tag k="building" v="roof"/><tag k="addr:postcode" v="75100"/><nd ref="2508863925"/><nd ref="2508863929"/><nd ref="2508863915"/><nd ref="2508863913"/><nd ref="2508863925"/></way><node id="382657106" version="3" lat="40.3808094" lon="16.783169" action="modify"><tag k="fuel:octane_95" v="yes"/><tag k="fuel:diesel" v="yes"/><tag k="brand" v="Api-Ip"/><tag k="amenity" v="fuel"/><tag k="operator" v="Meta Co S.R.L"/><tag k="ref:mise" v="40793"/><tag k="fuel:cng" v="yes"/><tag k="name" v="API"/><tag k="fixme" v="merge"/></node><way id="487500843" version="2" action="modify"><tag k="source:date" v="2018-04-16"/><tag k="fuel:diesel" v="yes"/><tag k="ref:mise" v="19993"/><tag k="amenity" v="fuel"/><tag k="operator" v="F.lli Mulieri S.N.C. di Mulieri Angelo e Domenico"/><tag k="brand" v="Pompe Bianche"/><tag k="name" v="Mulieri"/><tag k="fuel:octane_95" v="yes"/><nd ref="4799546805"/><nd ref="4799546806"/><nd ref="4799546807"/><nd ref="4799546808"/><nd ref="4799546805"/></way><way id="243479544" version="3" action="modify"><tag k="source:date" v="2018-04-16"/><tag k="ref:mise" v="5601"/><tag k="amenity" v="fuel"/><tag k="brand" v="Agip Eni"/><tag k="addr:street" v="Via Dante Alighieri"/><tag k="addr:city" v="Matera"/><tag k="fuel:octane_95" v="yes"/><tag k="fuel:diesel" v="yes"/><tag k="addr:housename" v="Agip"/><tag k="name" v="Agip"/><tag k="operator" v="Stazione di Servizio Agip di Bonamassa Pietro"/><tag k="building" v="roof"/><tag k="addr:postcode" v="75100"/><nd ref="2508771932"/><nd ref="2508771935"/><nd ref="2508771934"/><nd ref="2508771931"/><nd ref="2508771929"/><nd ref="2508771928"/><nd ref="2508771932"/></way><way id="243482868" version="3" action="modify"><tag k="source:date" v="2018-04-16"/><tag k="ref:mise" v="39277"/><tag k="fuel:octane_95" v="yes"/><tag k="brand" v="Esso"/><tag k="addr:street" v="Via Nazionale"/><tag k="addr:city" v="Matera"/><tag k="amenity" v="fuel"/><tag k="fuel:diesel" v="yes"/><tag k="name" v="Esso"/><tag k="operator" v="Stazione di Servizio Esso di Giacinta D'Ercole"/><tag k="building" v="yes"/><tag k="addr:postcode" v="75100"/><nd ref="2510031764"/><nd ref="2508800300"/><nd ref="2508800301"/><nd ref="2510031747"/><nd ref="2510031764"/></way><node id="539005772" version="3" lat="40.3594531" lon="16.778189" action="modify"><tag k="fuel:octane_95" v="yes"/><tag k="fuel:lpg" v="yes"/><tag k="fuel:diesel" v="yes"/><tag k="brand" v="Q8"/><tag k="amenity" v="fuel"/><tag k="operator" v="Servizi &amp; Gestioni Italia S.R.L."/><tag k="ref:mise" v="34855"/></node><node id="5853344410" version="1" lat="40.7531496" lon="16.2307334" action="modify"><tag k="amenity" v="fuel"/><tag k="fuel:octane_95" v="yes"/><tag k="operator" v="Abbatecola Carburanti di Abbatecola Raffaele &amp; C. S.A.S."/><tag k="fuel:diesel" v="yes"/><tag k="ref:mise" v="25585"/></node><node id="4322161305" version="3" lat="40.5210952" lon="16.5420475" action="modify"><tag k="fuel:octane_95" v="yes"/><tag k="fuel:diesel" v="yes"/><tag k="brand" v="Total Erg"/><tag k="amenity" v="fuel"/><tag k="operator" v="Cirella Massimiliano"/><tag k="ref:mise" v="24267"/></node><node id="314767266" version="2" lat="40.4828867" lon="16.4955296" action="modify"><tag k="fuel:octane_95" v="yes"/><tag k="fuel:diesel" v="yes"/><tag k="brand" v="Esso"/><tag k="amenity" v="fuel"/><tag k="operator" v="Gallo Giuseppina"/><tag k="ref:mise" v="22897"/><tag k="name" v="Esso"/></node><node id="2508492413" version="3" lat="40.6731713" lon="16.5854062" action="modify"><tag k="addr:city" v="Matera"/><tag k="fuel:octane_95" v="yes"/><tag k="fuel:diesel" v="yes"/><tag k="ref:mise" v="18390"/><tag k="amenity" v="fuel"/><tag k="operator" v="F.lli Gaudiano S.A.S. di Vincenza Gaudiano &amp; C."/><tag k="brand" v="Api-Ip"/><tag k="building" v="yes"/><tag k="addr:street" v="Via La Martella"/><tag k="addr:postcode" v="75100"/></node><node id="4975353308" version="2" lat="40.1333877" lon="16.6299669" action="modify"><tag k="fuel:octane_95" v="yes"/><tag k="fuel:diesel" v="yes"/><tag k="brand" v="Q8"/><tag k="amenity" v="fuel"/><tag k="operator" v="Servizi &amp; Gestioni Italia S.R.L."/><tag k="ref:mise" v="8086"/></node><way id="243230821" version="2" action="modify"><tag k="source:date" v="2018-04-16"/><tag k="fuel:diesel" v="yes"/><tag k="ref:mise" v="32111"/><tag k="amenity" v="fuel"/><tag k="operator" v="Rubino Francesco Paolo"/><tag k="brand" v="Agip Eni"/><tag k="fuel:octane_100" v="yes"/><tag k="name" v="Agip"/><tag k="fuel:octane_95" v="yes"/><nd ref="2506488339"/><nd ref="2506488340"/><nd ref="2506488341"/><nd ref="2506488342"/><nd ref="2506488339"/></way><way id="382676580" version="2" action="modify"><tag k="fuel:octane_100" v="yes"/><tag k="source:date" v="2018-04-16"/><tag k="fuel:lpg" v="yes"/><tag k="fuel:diesel" v="yes"/><tag k="ref:mise" v="37036"/><tag k="amenity" v="fuel"/><tag k="operator" v="Ettorre Stella e Cassano Rosa S.N.C."/><tag k="brand" v="Agip Eni"/><tag k="building" v="yes"/><tag k="fuel:octane_95" v="yes"/><nd ref="3858985761"/><nd ref="3858985762"/><nd ref="3858985763"/><nd ref="3858985764"/><nd ref="3858985761"/></way><node id="309295766" version="2" lat="40.7111656" lon="16.5800699" action="modify"><tag k="fuel:octane_95" v="yes"/><tag k="fuel:diesel" v="yes"/><tag k="ref:mise" v="40746"/><tag k="brand" v="Esso"/><tag k="amenity" v="fuel"/><tag k="operator" v="La Sosta S.R.L."/><tag k="ref" v="Esso 0191"/><tag k="name" v="Esso"/></node><node id="538961256" version="5" lat="40.205231" lon="16.4833991" action="modify"><tag k="fuel:octane_95" v="yes"/><tag k="fuel:lpg" v="yes"/><tag k="fuel:diesel" v="yes"/><tag k="ref:mise" v="25444"/><tag k="amenity" v="fuel"/><tag k="operator" v="Iflem S.N.C.di Melfi Vincenzo &amp; C."/><tag k="fuel:cng" v="yes"/></node><node id="314768923" version="3" lat="40.3052117" lon="16.3875112" action="modify"><tag k="fuel:octane_95" v="yes"/><tag k="fuel:diesel" v="yes"/><tag k="ref:mise" v="15709"/><tag k="amenity" v="fuel"/><tag k="operator" v="Marino Luigia"/><tag k="nobrand" v="yes"/><tag k="name" v="Basile Petroli"/></node><node id="4894985432" version="2" lat="40.2869726" lon="16.5725622" action="modify"><tag k="fuel:octane_95" v="yes"/><tag k="fuel:diesel" v="yes"/><tag k="brand" v="Agip Eni"/><tag k="amenity" v="fuel"/><tag k="operator" v="Lucarelli Immacolata"/><tag k="ref:mise" v="25521"/><tag k="fuel:octane_100" v="yes"/></node><node id="2557009654" version="1" lat="40.6351788" lon="16.5942932" action="modify"><tag k="fuel:octane_95" v="yes"/><tag k="fuel:diesel" v="yes"/><tag k="brand" v="Air"/><tag k="amenity" v="fuel"/><tag k="operator" v="Air Carburanti S.R.L."/><tag k="ref:mise" v="43917"/></node><way id="412931508" version="2" action="modify"><tag k="source:date" v="2018-04-16"/><tag k="fuel:diesel" v="yes"/><tag k="ref:mise" v="33509"/><tag k="amenity" v="fuel"/><tag k="operator" v="Technoplant Sud di Di Noia Maria"/><tag k="brand" v="Api-Ip"/><tag k="name" v="Stazione di servizio"/><tag k="fuel:octane_95" v="yes"/><nd ref="4142561171"/><nd ref="4142561172"/><nd ref="4142561173"/><nd ref="4142561174"/><nd ref="4142561171"/></way><way id="243189117" version="4" action="modify"><tag k="source:date" v="2018-04-16"/><tag k="fuel:diesel" v="yes"/><tag k="ref:mise" v="18513"/><tag k="amenity" v="fuel"/><tag k="operator" v="Tommasini Service di Tommasini Pietro"/><tag k="brand" v="Pompe Bianche"/><tag k="name" v="Pompe Bianche"/><tag k="fuel:octane_95" v="yes"/><nd ref="2506124423"/><nd ref="2506124425"/><nd ref="2506124426"/><nd ref="2506124428"/><nd ref="2506124423"/></way><node id="4968317580" version="2" lat="40.2136721" lon="16.6817933" action="modify"><tag k="fuel:octane_95" v="yes"/><tag k="fuel:diesel" v="yes"/><tag k="brand" v="Q8"/><tag k="amenity" v="fuel"/><tag k="operator" v="Service Car 2000 S.R.L."/><tag k="ref:mise" v="9263"/></node><node id="1348195984" version="2" lat="40.2716797" lon="16.199854" action="modify"><tag k="fuel:octane_95" v="yes"/><tag k="fuel:diesel" v="yes"/><tag k="brand" v="Total Erg"/><tag k="amenity" v="fuel"/><tag k="operator" v="La Grotta Giovanni Mariano"/><tag k="ref:mise" v="9643"/></node><node id="391955262" version="4" lat="40.6067032" lon="16.569696" action="modify"><tag k="fuel:octane_95" v="yes"/><tag k="fuel:lpg" v="yes"/><tag k="fuel:diesel" v="yes"/><tag k="ref:mise" v="40720"/><tag k="amenity" v="fuel"/><tag k="operator" v="Sergio Petroli S.R.L."/></node><way id="390072691" version="7" action="modify"><tag k="source:date" v="2018-04-16"/><tag k="fuel:diesel" v="yes"/><tag k="ref:mise" v="18730"/><tag k="amenity" v="fuel"/><tag k="operator" v="Appia Carburanti - S.A.S. di Francesco Santangelo &amp; C."/><tag k="brand" v="Api-Ip"/><tag k="name" v="IP"/><tag k="fuel:octane_95" v="yes"/><nd ref="4946728445"/><nd ref="3932262405"/><nd ref="3932262400"/><nd ref="4946728447"/><nd ref="3932262392"/><nd ref="3932262393"/><nd ref="3932262394"/><nd ref="4946728448"/><nd ref="4946728445"/></way><way id="297511288" version="4" action="modify"><tag k="source:date" v="2018-04-16"/><tag k="fuel:lpg" v="yes"/><tag k="fuel:diesel" v="yes"/><tag k="ref:mise" v="30987"/><tag k="amenity" v="fuel"/><tag k="operator" v="Ip Services S.R.L."/><tag k="brand" v="Api-Ip"/><tag k="name" v="IP"/><tag k="fuel:octane_95" v="yes"/><nd ref="3014037637"/><nd ref="3014037638"/><nd ref="3014037639"/><nd ref="3014037640"/><nd ref="3014037637"/></way><node id="394948154" version="2" lat="40.497391" lon="16.4579975" action="modify"><tag k="fuel:octane_95" v="yes"/><tag k="fuel:diesel" v="yes"/><tag k="brand" v="Esso"/><tag k="amenity" v="fuel"/><tag k="operator" v="Lategana Lucia"/><tag k="ref:mise" v="22448"/><tag k="name" v="Esso"/></node><node id="5853344155" version="1" lat="40.2442554" lon="16.5073442" action="modify"><tag k="fuel:octane_95" v="yes"/><tag k="fuel:lpg" v="yes"/><tag k="fuel:diesel" v="yes"/><tag k="ref:mise" v="30273"/><tag k="amenity" v="fuel"/><tag k="operator" v="Sergio Petroli S.R.L."/></node><node id="5853344460" version="1" lat="40.5856528" lon="16.2761164" action="modify"><tag k="fuel:octane_95" v="yes"/><tag k="fuel:lpg" v="yes"/><tag k="fuel:diesel" v="yes"/><tag k="ref:mise" v="23949"/><tag k="amenity" v="fuel"/><tag k="operator" v="Hotel La Salitella di Sampogna Carmela &amp; C. S.A.S."/></node><way id="412696911" version="2" action="modify"><tag k="source:date" v="2018-04-16"/><tag k="fuel:diesel" v="yes"/><tag k="ref:mise" v="26918"/><tag k="amenity" v="fuel"/><tag k="operator" v="Forastieri W. S.R.L."/><tag k="brand" v="Esso"/><tag k="fixme" v="merge"/><tag k="name" v="Esso"/><tag k="fuel:octane_95" v="yes"/><nd ref="4140550686"/><nd ref="4140550687"/><nd ref="4140550688"/><nd ref="4140556789"/><nd ref="4140556790"/><nd ref="4140556791"/><nd ref="4140556792"/><nd ref="4140550686"/></way><node id="878839406" version="3" lat="40.6877717" lon="16.5481512" action="modify"><tag k="amenity" v="fuel"/><tag k="fuel:lpg" v="yes"/><tag k="fuel:diesel" v="yes"/><tag k="shop" v="kiosk"/><tag k="ref:mise" v="37107"/><tag k="fuel:octane_95" v="yes"/><tag k="operator" v="Sergio Petroli S.R.L."/><tag k="nobrand" v="yes"/><tag k="fixme" v="name remove"/><tag k="name" v="Q8"/></node><node id="-1" version="1" lat="40.13635" lon="16.63197"><tag k="amenity" v="fuel"/><tag k="fuel:diesel" v="yes"/><tag k="brand" v="Agip Eni"/><tag k="fuel:octane_95" v="yes"/><tag k="operator" v="Puzzovivo Nicola"/><tag k="ref:mise" v="43907"/><tag k="fuel:octane_100" v="yes"/></node><node id="-2" version="1" lat="40.40131" lon="16.23981"><tag k="amenity" v="fuel"/><tag k="fuel:lpg" v="yes"/><tag k="fuel:diesel" v="yes"/><tag k="ref:mise" v="44400"/><tag k="fuel:octane_95" v="yes"/><tag k="operator" v="Pinto Mariella"/></node><node id="5851833440" version="1" lat="40.2104342" lon="16.6767197" action="modify"><tag k="amenity" v="fuel"/><tag k="fixme" v="This object might have been dismantled, please check"/><tag k="operator" v="Dmg S.R.L."/><tag k="brand" v="Api-Ip"/><tag k="ref:mise" v="38778"/></node><node id="4973581635" version="1" lat="40.2045398" lon="16.6774956" action="modify"><tag k="amenity" v="fuel"/><tag k="fixme" v="This object might have been dismantled, please check"/></node><node id="4829363788" version="2" lat="40.2114944" lon="16.6591816" action="modify"><tag k="amenity" v="fuel"/><tag k="fixme" v="This object might have been dismantled, please check"/><tag k="operator" v="D.P.B. S.R.L."/><tag k="brand" v="Q8"/><tag k="ref:mise" v="26295"/></node><node id="2519729119" version="2" lat="40.672543" lon="16.6028752" action="modify"><tag k="amenity" v="fuel"/><tag k="fixme" v="This object might have been dismantled, please check"/><tag k="name" v="ex Agip-Q8"/></node><node id="2584120769" version="3" lat="40.5505834" lon="16.6582601" action="modify"><tag k="fuel:biogas" v="no"/><tag k="fuel:biodiesel" v="no"/><tag k="fuel:diesel" v="yes"/><tag k="brand" v="IP"/><tag k="amenity" v="fuel"/><tag k="phone" v="+39 0835 207251"/><tag k="operator" v="Giuseppe Di Pierro"/><tag k="fixme" v="This object might have been dismantled, please check"/><tag k="fuel:cng" v="no"/><tag k="name" v="IP"/><tag k="fuel:octane_95" v="yes"/></node><way id="243230822" version="1" action="modify"><tag k="amenity" v="fuel"/><tag k="operator" v="Esso"/><tag k="fixme" v="This object might have been dismantled, please check"/><tag k="name" v="Esso"/><nd ref="2506488343"/><nd ref="2506488344"/><nd ref="2506488345"/><nd ref="2506488346"/><nd ref="2506488343"/></way><node id="309295768" version="6" lat="40.6743448" lon="16.5910091" action="modify"><tag k="fixme" v="This object might have been dismantled, please check"/><tag k="fuel:diesel" v="yes"/><tag k="ref:mise" v="39198"/><tag k="amenity" v="fuel"/><tag k="operator" v="Sergio Petroli S.R.L."/><tag k="nobrand" v="yes"/><tag k="fuel:octane_91" v="yes"/><tag k="name" v="Esso"/></node><node id="2508491899" version="1" lat="40.6701117" lon="16.5807177" action="modify"><tag k="addr:city" v="Matera"/><tag k="addr:housename" v="Via La Martella"/><tag k="amenity" v="fuel"/><tag k="fixme" v="This object might have been dismantled, please check"/><tag k="building" v="yes"/><tag k="addr:postcode" v="75100"/></node><node id="5037531622" version="1" lat="40.5858272" lon="16.2739287" action="modify"><tag k="amenity" v="fuel"/><tag k="fixme" v="This object might have been dismantled, please check"/><tag k="name" v="La salitella"/></node><way id="243593736" version="2" action="modify"><tag k="addr:city" v="Matera"/><tag k="addr:housenumber" v="10"/><tag k="brand" v="Total Erg"/><tag k="amenity" v="fuel"/><tag k="fixme" v="This object might have been dismantled, please check"/><tag k="building" v="roof"/><tag k="addr:street" v="Via Rocco Lazazzera"/><tag k="addr:postcode" v="75100"/><nd ref="2509800647"/><nd ref="2509800648"/><nd ref="2509800649"/><nd ref="2509800650"/><nd ref="2509800647"/></way><node id="2513716156" version="3" lat="40.6720135" lon="16.5913461" action="modify"><tag k="addr:city" v="Matera"/><tag k="fixme" v="This object might have been dismantled, please check"/><tag k="name" v="Eni"/><tag k="amenity" v="fuel"/><tag k="addr:postcode" v="75100"/><tag k="addr:street" v="Via Dante Alighieri"/><tag k="addr:country" v="IT"/></node><node id="1111461278" version="2" lat="40.2578131" lon="16.7026114" action="modify"><tag k="fuel:octane_95" v="yes"/><tag k="fuel:diesel" v="yes"/><tag k="brand" v="Esso"/><tag k="amenity" v="fuel"/><tag k="fixme" v="This object might have been dismantled, please check"/><tag k="name" v="Esso"/></node><node id="4140550685" version="3" lat="40.2504155" lon="16.6992484" action="modify"><tag k="fixme" v="This object might have been dismantled, please check"/><tag k="brand" v="Agip Eni"/><tag k="amenity" v="fuel"/><tag k="operator" v="Ianuzziello Luigi Antonio"/><tag k="ref:mise" v="9459"/><tag k="name" v="IP"/></node><node id="2470953245" version="1" lat="40.4053728" lon="16.8053205" action="modify"><tag k="amenity" v="fuel"/><tag k="fixme" v="This object might have been dismantled, please check"/></node><node id="318873253" version="3" lat="40.4244417" lon="16.5409859" action="modify"><tag k="amenity" v="fuel"/><tag k="operator" v="Agip"/><tag k="fixme" v="This object might have been dismantled, please check"/><tag k="brand" v="Agip"/></node><node id="5037530722" version="1" lat="40.5858815" lon="16.3340254" action="modify"><tag k="amenity" v="fuel"/><tag k="fixme" v="This object might have been dismantled, please check"/><tag k="name" v="Eni"/></node><node id="226938783" version="9" lat="40.1951978" lon="16.6715482" action="modify"><tag k="amenity" v="fuel"/><tag k="fuel:diesel" v="yes"/><tag k="brand" v="Api-Ip"/><tag k="fuel:octane_95" v="yes"/><tag k="operator" v="Dmg S.R.L."/><tag k="ref:mise" v="38779"/><tag k="fixme" v="This object might have been dismantled, please check"/><tag k="name" v="IP"/></node><node id="5851842337" version="1" lat="40.1351912" lon="16.6312408" action="modify"><tag k="amenity" v="fuel"/><tag k="fixme" v="This object might have been dismantled, please check"/><tag k="operator" v="Jonica Carburanti S.A.S. di Stigliano Giovanni &amp; C."/><tag k="brand" v="Agip Eni"/><tag k="ref:mise" v="23145"/></node></osm>