<?xml version='1.0' encoding='utf-8'?>
<osm generator="OSM Conflator 1.3.1" version="0.6"><changeset><tag k="type" v="import"/><tag k="created_by" v="OSM Conflator 1.3.1"/><tag k="source" v="Mise"/></changeset><node id="5851842802" version="1" lat="45.5948714" lon="8.6234687" action="modify"><tag k="fuel:octane_95" v="yes"/><tag k="fuel:diesel" v="yes"/><tag k="brand" v="Total Erg"/><tag k="amenity" v="fuel"/><tag k="operator" v="Ip Services S.R.L."/><tag k="ref:mise" v="22500"/></node><node id="5851836424" version="1" lat="45.7143094" lon="8.452393" action="modify"><tag k="fuel:octane_95" v="yes"/><tag k="fuel:diesel" v="yes"/><tag k="brand" v="Vega"/><tag k="fuel:lpg" v="yes"/><tag k="amenity" v="fuel"/><tag k="operator" v="Vega Carburanti S.P.A."/><tag k="ref:mise" v="35221"/></node><node id="5851832974" version="2" lat="45.4503192" lon="8.6019168" action="modify"><tag k="fuel:octane_95" v="yes"/><tag k="fuel:diesel" v="yes"/><tag k="brand" v="Agip Eni"/><tag k="amenity" v="fuel"/><tag k="operator" v="Supergas Società in Accomandita Semplice di Tiziano Buso e C."/><tag k="fuel:octane_100" v="yes"/><tag k="ref:mise" v="39196"/></node><node id="5851836477" version="1" lat="45.4681623" lon="8.6219689" action="modify"><tag k="fuel:octane_95" v="yes"/><tag k="fuel:diesel" v="yes"/><tag k="brand" v="Vega"/><tag k="fuel:lpg" v="yes"/><tag k="amenity" v="fuel"/><tag k="fixme" v="sposta ed unisci con POI a sud-est"/><tag k="operator" v="Vega Carburanti S.P.A."/><tag k="ref:mise" v="34964"/></node><node id="5851842883" version="1" lat="45.45487" lon="8.6003242" action="modify"><tag k="fuel:octane_95" v="yes"/><tag k="fuel:diesel" v="yes"/><tag k="brand" v="Agip Eni"/><tag k="amenity" v="fuel"/><tag k="operator" v="Emmeci. 1 S.N.C. di Cazzola Tiziano &amp; C."/><tag k="ref:mise" v="21797"/></node><node id="5851837952" version="1" lat="45.6934221" lon="8.4573537" action="modify"><tag k="fuel:octane_95" v="yes"/><tag k="fuel:diesel" v="yes"/><tag k="brand" v="Tamoil"/><tag k="amenity" v="fuel"/><tag k="operator" v="T.D.M. S.R.L."/><tag k="ref:mise" v="29422"/></node><node id="5851831545" version="1" lat="45.5359775" lon="8.4862733" action="modify"><tag k="fuel:octane_95" v="yes"/><tag k="fuel:diesel" v="yes"/><tag k="brand" v="Agip Eni"/><tag k="fuel:lpg" v="yes"/><tag k="amenity" v="fuel"/><tag k="operator" v="Maratea Ettore"/><tag k="fuel:octane_100" v="yes"/><tag k="ref:mise" v="6022"/></node><node id="5851839931" version="1" lat="45.7655471" lon="8.4091759" action="modify"><tag k="fuel:octane_95" v="yes"/><tag k="fuel:diesel" v="yes"/><tag k="brand" v="Agip Eni"/><tag k="amenity" v="fuel"/><tag k="fixme" v="not there"/><tag k="operator" v="Antonioli Pietro"/><tag k="fuel:octane_100" v="yes"/><tag k="ref:mise" v="27251"/></node><node id="5851838462" version="1" lat="45.7731459" lon="8.3917316" action="modify"><tag k="fuel:octane_95" v="yes"/><tag k="fuel:diesel" v="yes"/><tag k="brand" v="Esso"/><tag k="amenity" v="fuel"/><tag k="operator" v="Area 88 S.N.C.di Zoppis Carlo e Guido"/><tag k="ref:mise" v="28526"/></node><node id="5851845222" version="1" lat="45.5695244" lon="8.5589585" action="modify"><tag k="fuel:octane_95" v="yes"/><tag k="fuel:diesel" v="yes"/><tag k="brand" v="Agip Eni"/><tag k="amenity" v="fuel"/><tag k="operator" v="Albera Giacomo"/><tag k="ref:mise" v="13608"/></node><node id="5851831959" version="3" lat="45.6382149" lon="8.377468" action="modify"><tag k="fuel:octane_95" v="yes"/><tag k="fuel:diesel" v="yes"/><tag k="brand" v="Gamma Petroli"/><tag k="amenity" v="fuel"/><tag k="operator" v="Gamma Petroli S.R.L."/><tag k="ref:mise" v="40510"/></node><node id="5159439020" version="3" lat="45.4647147" lon="8.6259492" action="modify"><tag k="fuel:octane_95" v="yes"/><tag k="fuel:diesel" v="yes"/><tag k="name" v="Qui24"/><tag k="amenity" v="fuel"/><tag k="operator" v="Qui S.N.C. di Demalde' Barbara e Zerbin Paolo"/><tag k="ref:mise" v="22495"/></node><node id="5360286579" version="3" lat="45.6367188" lon="8.6220157" action="modify"><tag k="fuel:cng" v="yes"/><tag k="fuel:octane_95" v="yes"/><tag k="source:date" v="2018-04-16"/><tag k="fuel:diesel" v="yes"/><tag k="brand" v="Agip Eni"/><tag k="amenity" v="fuel"/><tag k="operator" v="Italiana Petroli 1980 S.R.L.S."/><tag k="fuel:lpg" v="yes"/><tag k="description" v="Gli orari sono per il servizio di rifornimento del metano e gpl."/><tag k="opening_hours" v="Mo-Sa 07:30-12:30; 14:00-19:00; Su off"/><tag k="ref:mise" v="41982"/></node><node id="227823791" version="6" lat="45.4160471" lon="8.775976" action="modify"><tag k="fuel:octane_95" v="yes"/><tag k="fuel:diesel" v="yes"/><tag k="name" v="IP"/><tag k="amenity" v="fuel"/><tag k="fixme" v="name"/><tag k="operator" v="Mauro Debora"/><tag k="ref:mise" v="39323"/></node><node id="5545511852" version="2" lat="45.664921" lon="8.540178" action="modify"><tag k="fuel:octane_95" v="yes"/><tag k="fuel:diesel" v="yes"/><tag k="brand" v="Api-Ip"/><tag k="amenity" v="fuel"/><tag k="operator" v="Denicola Maria Paola"/><tag k="ref:mise" v="43507"/></node><node id="4419196486" version="2" lat="45.4537941" lon="8.5612332" action="modify"><tag k="fuel:octane_95" v="yes"/><tag k="fuel:diesel" v="yes"/><tag k="brand" v="Total Erg"/><tag k="name" v="Total Erg"/><tag k="amenity" v="fuel"/><tag k="operator" v="Economy S.R.L."/><tag k="source" v="survey"/><tag k="ref:mise" v="31509"/></node><node id="226990082" version="6" lat="45.442564" lon="8.731835" action="modify"><tag k="fuel:cng" v="yes"/><tag k="fuel:octane_95" v="yes"/><tag k="fuel:diesel" v="yes"/><tag k="brand" v="Agip Eni"/><tag k="fuel:lpg" v="yes"/><tag k="name" v="Eni"/><tag k="amenity" v="fuel"/><tag k="operator" v="Osella Sandro"/><tag k="fuel:octane_100" v="yes"/><tag k="ref:mise" v="6337"/></node><node id="2088481862" version="2" lat="45.7548002" lon="8.4316718" action="modify"><tag k="fuel:octane_95" v="yes"/><tag k="fuel:diesel" v="yes"/><tag k="brand" v="Api-Ip"/><tag k="name" v="IP"/><tag k="amenity" v="fuel"/><tag k="operator" v="Ip Services S.R.L."/><tag k="ref:mise" v="35083"/></node><node id="2598784882" version="2" lat="45.6792683" lon="8.3400995" action="modify"><tag k="fuel:octane_95" v="yes"/><tag k="fuel:diesel" v="yes"/><tag k="brand" v="Esso"/><tag k="name" v="Esso"/><tag k="amenity" v="fuel"/><tag k="operator" v="Duemme Service S.N.C.di Delmastro Mussa Michela &amp; C."/><tag k="ref:mise" v="33169"/></node><node id="2598783353" version="2" lat="45.6739314" lon="8.3453215" action="modify"><tag k="fuel:octane_95" v="yes"/><tag k="fuel:diesel" v="yes"/><tag k="brand" v="Agip Eni"/><tag k="name" v="Agip"/><tag k="amenity" v="fuel"/><tag k="operator" v="Masserano Mauro"/><tag k="fuel:octane_100" v="yes"/><tag k="ref:mise" v="25502"/></node><node id="2118668072" version="3" lat="45.5368202" lon="8.4231504" action="modify"><tag k="fuel:octane_95" v="yes"/><tag k="fuel:diesel" v="yes"/><tag k="brand" v="Europam"/><tag k="name" v="ip"/><tag k="amenity" v="fuel"/><tag k="fixme" v="name"/><tag k="operator" v="Europam S.P.A."/><tag k="ref:mise" v="43634"/></node><node id="227587811" version="6" lat="45.4366074" lon="8.6042234" action="modify"><tag k="fuel:octane_95" v="yes"/><tag k="fuel:diesel" v="yes"/><tag k="brand" v="Q8"/><tag k="name" v="Q8"/><tag k="amenity" v="fuel"/><tag k="operator" v="Servizi &amp; Gestioni Italia S.R.L."/><tag k="fuel:octane_100" v="yes"/><tag k="ref:mise" v="11747"/></node><node id="2088387622" version="2" lat="45.7271078" lon="8.4451659" action="modify"><tag k="fuel:octane_95" v="yes"/><tag k="fuel:diesel" v="yes"/><tag k="brand" v="Q8"/><tag k="name" v="Q8"/><tag k="amenity" v="fuel"/><tag k="operator" v="Servizi &amp; Gestioni Italia Srl"/><tag k="ref:mise" v="6422"/></node><way id="456643324" version="4" action="modify"><tag k="fuel:octane_95" v="yes"/><tag k="source:date" v="2018-04-16"/><tag k="fuel:diesel" v="yes"/><tag k="amenity" v="fuel"/><tag k="operator" v="Bacchetta Massimo"/><tag k="ref:mise" v="9175"/><nd ref="4528987735"/><nd ref="4528987736"/><nd ref="4528987743"/><nd ref="4528987744"/><nd ref="4528987745"/><nd ref="4528987746"/><nd ref="4528987747"/><nd ref="4528987748"/><nd ref="4528987737"/><nd ref="4528987738"/><nd ref="4528987739"/><nd ref="4528987740"/><nd ref="4528987749"/><nd ref="4528987750"/><nd ref="4528987751"/><nd ref="4528987752"/><nd ref="4528987753"/><nd ref="4528987741"/><nd ref="4528987742"/><nd ref="4528987735"/></way><way id="406946884" version="2" action="modify"><tag k="fuel:octane_95" v="yes"/><tag k="fixme" v="Remove duplicate"/><tag k="fuel:diesel" v="yes"/><tag k="brand" v="Q8"/><tag k="amenity" v="fuel"/><tag k="building" v="roof"/><tag k="operator" v="Servizi &amp; Gestioni Italia Srl"/><tag k="source:date" v="2018-04-16"/><tag k="ref:mise" v="6420"/><nd ref="4089813383"/><nd ref="4089813384"/><nd ref="4089813914"/><nd ref="4089813385"/><nd ref="4089813386"/><nd ref="4089813913"/><nd ref="4089813383"/></way><node id="227629404" version="3" lat="45.449969" lon="8.666039" action="modify"><tag k="fuel:octane_95" v="yes"/><tag k="fuel:diesel" v="yes"/><tag k="brand" v="Total Erg"/><tag k="name" v="Erg"/><tag k="amenity" v="fuel"/><tag k="operator" v="Aurora S.R.L."/><tag k="ref:mise" v="42352"/></node><node id="227529651" version="4" lat="45.450176" lon="8.643308" action="modify"><tag k="fuel:octane_95" v="yes"/><tag k="fuel:diesel" v="yes"/><tag k="brand" v="Tamoil"/><tag k="name" v="Tamoil"/><tag k="amenity" v="fuel"/><tag k="operator" v="T.D.M. S.R.L."/><tag k="ref:mise" v="32041"/></node><node id="226989919" version="6" lat="45.435755" lon="8.7497466" action="modify"><tag k="brand:wikidata" v="Q565594"/><tag k="fuel:octane_100" v="yes"/><tag k="fuel:diesel" v="yes"/><tag k="addr:housenumber" v="140"/><tag k="operator" v="Pizzo Emanuela"/><tag k="addr:city" v="Trecate"/><tag k="addr:street" v="Corso Roma"/><tag k="payment:visa" v="yes"/><tag k="brand:wikipedia" v="en:Eni"/><tag k="payment:cash" v="yes"/><tag k="fuel:octane_95" v="yes"/><tag k="brand" v="Agip Eni"/><tag k="payment:mastercard" v="yes"/><tag k="name" v="Eni"/><tag k="amenity" v="fuel"/><tag k="fuel:benzina" v="yes"/><tag k="ref:mise" v="18446"/><tag k="addr:postcode" v="28069"/></node><node id="2146350511" version="3" lat="45.8018057" lon="8.4301708" action="modify"><tag k="fuel:octane_95" v="yes"/><tag k="fuel:diesel" v="yes"/><tag k="brand" v="Tamoil"/><tag k="amenity" v="fuel"/><tag k="operator" v="S. &amp; F. S.A.S. di Savoini Renata &amp; C."/><tag k="ref:mise" v="12299"/></node><node id="227663510" version="6" lat="45.702664" lon="8.4468279" action="modify"><tag k="fuel:octane_95" v="yes"/><tag k="fuel:diesel" v="yes"/><tag k="brand" v="Q8"/><tag k="name" v="Shell"/><tag k="amenity" v="fuel"/><tag k="fixme" v="name Q8"/><tag k="operator" v="Servizi &amp; Gestioni Italia S.R.L."/><tag k="fuel:octane_100" v="yes"/><tag k="ref:mise" v="11745"/></node><node id="2116624989" version="3" lat="45.7093478" lon="8.5258449" action="modify"><tag k="fuel:octane_95" v="yes"/><tag k="fuel:diesel" v="yes"/><tag k="brand" v="Q8"/><tag k="name" v="Q8"/><tag k="amenity" v="fuel"/><tag k="operator" v="Servizi &amp; Gestioni Italia S.R.L."/><tag k="fuel:octane_100" v="yes"/><tag k="ref:mise" v="11748"/></node><node id="227607324" version="5" lat="45.439484" lon="8.7514716" action="modify"><tag k="fuel:octane_95" v="yes"/><tag k="fuel:diesel" v="yes"/><tag k="brand" v="Q8"/><tag k="name" v="Q8"/><tag k="amenity" v="fuel"/><tag k="operator" v="Eurovele Trading S.A.S. di Bandera Maurizio &amp; C."/><tag k="ref:mise" v="40824"/></node><node id="227588512" version="5" lat="45.434932" lon="8.61309" action="modify"><tag k="fuel:octane_95" v="yes"/><tag k="fuel:diesel" v="yes"/><tag k="brand" v="Q8"/><tag k="name" v="Q8"/><tag k="amenity" v="fuel"/><tag k="operator" v="Servizi &amp; Gestioni Italia S.R.L."/><tag k="ref:mise" v="11746"/></node><node id="501847001" version="3" lat="45.7977785" lon="8.4182478" action="modify"><tag k="fuel:octane_95" v="yes"/><tag k="fuel:diesel" v="yes"/><tag k="brand" v="Tamoil"/><tag k="amenity" v="fuel"/><tag k="operator" v="Ercole Roberto"/><tag k="ref:mise" v="14735"/></node><node id="227908214" version="4" lat="45.473893" lon="8.649475" action="modify"><tag k="fuel:octane_95" v="yes"/><tag k="fuel:diesel" v="yes"/><tag k="brand" v="Total Erg"/><tag k="name" v="Total"/><tag k="amenity" v="fuel"/><tag k="operator" v="Economy S.R.L."/><tag k="ref:mise" v="43629"/></node><node id="226989913" version="4" lat="45.437172" lon="8.605576" action="modify"><tag k="fuel:octane_95" v="yes"/><tag k="fuel:diesel" v="yes"/><tag k="brand" v="Agip Eni"/><tag k="name" v="Agip"/><tag k="amenity" v="fuel"/><tag k="operator" v="Gestioni Innovative Italia S.R.L."/><tag k="ref:mise" v="36613"/></node><node id="227664551" version="5" lat="45.4312163" lon="8.7398131" action="modify"><tag k="fuel:octane_95" v="yes"/><tag k="fuel:diesel" v="yes"/><tag k="brand" v="Economysrl"/><tag k="name" v="Shell"/><tag k="amenity" v="fuel"/><tag k="fixme" v="name"/><tag k="operator" v="Economy S.R.L."/><tag k="ref:mise" v="45067"/></node><node id="229102938" version="8" lat="45.719274" lon="8.6088509" action="modify"><tag k="fuel:octane_95" v="yes"/><tag k="fuel:diesel" v="yes"/><tag k="payment:credit_cards" v="yes"/><tag k="brand" v="Total Erg"/><tag k="name" v="TE 24/24"/><tag k="amenity" v="fuel"/><tag k="operator" v="Ip Services S.R.L."/><tag k="ref:mise" v="5532"/></node><way id="352078556" version="2" action="modify"><tag k="fuel:octane_95" v="yes"/><tag k="source:date" v="2018-04-16"/><tag k="fuel:diesel" v="yes"/><tag k="brand" v="Tamoil"/><tag k="name" v="Tamoil"/><tag k="amenity" v="fuel"/><tag k="operator" v="G.A.D. S.N.C. di Mariella Daria Chiatello e Davide Mastrodomenico &amp; C."/><tag k="fuel:octane_100" v="yes"/><tag k="ref:mise" v="33672"/><nd ref="3578531251"/><nd ref="3578531633"/><nd ref="3578531631"/><nd ref="3578531248"/><nd ref="3578531247"/><nd ref="3578531630"/><nd ref="3578531251"/></way><node id="2575072005" version="2" lat="45.7064347" lon="8.4563681" action="modify"><tag k="fuel:octane_95" v="yes"/><tag k="fuel:diesel" v="yes"/><tag k="brand" v="Q8"/><tag k="name" v="Shell"/><tag k="amenity" v="fuel"/><tag k="fixme" v="name Q8"/><tag k="operator" v="Servizi &amp; Gestioni Italia S.R.L."/><tag k="ref:mise" v="11750"/></node><way id="201922755" version="4" action="modify"><tag k="fuel:octane_95" v="yes"/><tag k="source:date" v="2018-04-16"/><tag k="fuel:diesel" v="yes"/><tag k="brand" v="Q8"/><tag k="name" v="Q8"/><tag k="amenity" v="fuel"/><tag k="building" v="roof"/><tag k="operator" v="Servizi &amp; Gestioni Italia Srl"/><tag k="ref:mise" v="6418"/><nd ref="2119299980"/><nd ref="2119299964"/><nd ref="2119299918"/><nd ref="2119299942"/><nd ref="2119300014"/><nd ref="2119299966"/><nd ref="2119300021"/><nd ref="2119299959"/><nd ref="2119299980"/></way><node id="227607509" version="4" lat="45.449093" lon="8.66748" action="modify"><tag k="fuel:octane_95" v="yes"/><tag k="fuel:diesel" v="yes"/><tag k="brand" v="Api-Ip"/><tag k="fuel:lpg" v="yes"/><tag k="name" v="Erg"/><tag k="amenity" v="fuel"/><tag k="operator" v="New World S.N.C. di Quagliotti Cristiano &amp; C"/><tag k="ref:mise" v="24877"/></node><way id="610161122" version="2" action="modify"><tag k="fuel:octane_95" v="yes"/><tag k="source:date" v="2018-04-16"/><tag k="fuel:diesel" v="yes"/><tag k="brand" v="Agip Eni"/><tag k="name" v="eni"/><tag k="amenity" v="fuel"/><tag k="operator" v="Vezzetti Vitaliano"/><tag k="ref:mise" v="24653"/><nd ref="5778790965"/><nd ref="5778790966"/><nd ref="5778790967"/><nd ref="5778790968"/><nd ref="5778790965"/></way><node id="227652496" version="3" lat="45.433184" lon="8.717909" action="modify"><tag k="fuel:octane_95" v="yes"/><tag k="fuel:diesel" v="yes"/><tag k="brand" v="IP"/><tag k="name" v="IP"/><tag k="amenity" v="fuel"/><tag k="operator" v="Zahmoul Fathi"/><tag k="ref:mise" v="42755"/></node><node id="228272692" version="10" lat="45.7505909" lon="8.5637825" action="modify"><tag k="amenity" v="fuel"/><tag k="fuel:octane_95" v="yes"/><tag k="operator" v="Prealpina Distribuzione Carburanti S.R.L."/><tag k="fuel:diesel" v="yes"/><tag k="ref:mise" v="9983"/></node><node id="226989916" version="5" lat="45.443091" lon="8.653959" action="modify"><tag k="fuel:octane_95" v="yes"/><tag k="fuel:diesel" v="yes"/><tag k="brand" v="Agip Eni"/><tag k="name" v="Eni"/><tag k="amenity" v="fuel"/><tag k="operator" v="Afcf S.N.C.di Spalenza Roberto &amp; C."/><tag k="ref:mise" v="26284"/></node><node id="227765044" version="4" lat="45.56571" lon="8.6349" action="modify"><tag k="fuel:octane_95" v="yes"/><tag k="fuel:diesel" v="yes"/><tag k="brand" v="Sommese Petroli"/><tag k="name" v="Erg"/><tag k="amenity" v="fuel"/><tag k="fixme" v="name"/><tag k="operator" v="Sommese Carburante S.R.L."/><tag k="ref:mise" v="30044"/></node><node id="226989907" version="6" lat="45.469679" lon="8.685991" action="modify"><tag k="fuel:octane_100" v="yes"/><tag k="fuel:octane_95" v="yes"/><tag k="fuel:diesel" v="yes"/><tag k="brand" v="Agip Eni"/><tag k="addr:housenumber" v="96"/><tag k="amenity" v="fuel"/><tag k="addr:city" v="Galliate"/><tag k="operator" v="Crespi Emanuele"/><tag k="addr:street" v="Via Novara"/><tag k="addr:postcode" v="28066"/><tag k="ref:mise" v="38088"/></node><way id="514837579" version="3" action="modify"><tag k="fuel:octane_95" v="yes"/><tag k="source:date" v="2018-04-16"/><tag k="fuel:diesel" v="yes"/><tag k="amenity" v="fuel"/><tag k="operator" v="Zanotto Pierluigi"/><tag k="ref:mise" v="29796"/><nd ref="5028965508"/><nd ref="5028965509"/><nd ref="5028965510"/><nd ref="5028965511"/><nd ref="5028965508"/></way><node id="227754616" version="4" lat="45.485162" lon="8.705045" action="modify"><tag k="fuel:octane_95" v="yes"/><tag k="fuel:diesel" v="yes"/><tag k="brand" v="Esso"/><tag k="name" v="Esso"/><tag k="amenity" v="fuel"/><tag k="operator" v="Turatti Fabiano"/><tag k="ref:mise" v="35500"/></node><way id="458522441" version="2" action="modify"><tag k="fuel:octane_95" v="yes"/><tag k="source:date" v="2018-04-16"/><tag k="fuel:diesel" v="yes"/><tag k="brand" v="Repsol"/><tag k="name" v="Repsol"/><tag k="amenity" v="fuel"/><tag k="operator" v="Antichi Sapori di Cali' Filippo"/><tag k="ref:mise" v="24066"/><nd ref="4545111016"/><nd ref="4545111017"/><nd ref="4545111018"/><nd ref="4545111019"/><nd ref="4545111016"/></way><node id="1875320793" version="3" lat="45.6272151" lon="8.5094895" action="modify"><tag k="fuel:octane_95" v="yes"/><tag k="fuel:diesel" v="yes"/><tag k="brand" v="Agip Eni"/><tag k="amenity" v="fuel"/><tag k="operator" v="Drago Massimiliano Stazione di Servizio Eni"/><tag k="fuel:octane_100" v="yes"/><tag k="ref:mise" v="39421"/></node><node id="226990085" version="5" lat="45.494095" lon="8.655808" action="modify"><tag k="fuel:octane_95" v="yes"/><tag k="fuel:diesel" v="yes"/><tag k="brand" v="Agip Eni"/><tag k="name" v="Agip"/><tag k="amenity" v="fuel"/><tag k="wheelchair" v="yes"/><tag k="operator" v="Poletti S.N.C. di Poletti Aurelio, Renato e Roberto"/><tag k="fuel:octane_100" v="yes"/><tag k="ref:mise" v="21956"/></node><node id="226989923" version="4" lat="45.4727196" lon="8.6136866" action="modify"><tag k="fuel:octane_95" v="yes"/><tag k="fuel:diesel" v="yes"/><tag k="brand" v="Agip Eni"/><tag k="name" v="Eni"/><tag k="amenity" v="fuel"/><tag k="operator" v="Dali S.N.C. di Giorgio Daniele &amp; C."/><tag k="fuel:octane_100" v="yes"/><tag k="ref:mise" v="7835"/></node><node id="227576282" version="5" lat="45.445702" lon="8.637071" action="modify"><tag k="fuel:octane_95" v="yes"/><tag k="fuel:diesel" v="yes"/><tag k="brand" v="Q8"/><tag k="name" v="Q8"/><tag k="amenity" v="fuel"/><tag k="operator" v="Servizi &amp; Gestioni Italia S.R.L."/><tag k="fuel:octane_100" v="yes"/><tag k="ref:mise" v="11744"/></node><node id="2036144654" version="2" lat="45.4426167" lon="8.59917" action="modify"><tag k="fuel:octane_95" v="yes"/><tag k="fuel:diesel" v="yes"/><tag k="brand" v="Total Erg"/><tag k="name" v="ERG"/><tag k="amenity" v="fuel"/><tag k="operator" v="Dag Trading S.A.S. di Alberto Dondi &amp; C."/><tag k="ref:mise" v="40857"/></node><node id="2037901341" version="2" lat="45.446988" lon="8.6049555" action="modify"><tag k="fuel:octane_95" v="yes"/><tag k="fuel:diesel" v="yes"/><tag k="brand" v="Esso"/><tag k="name" v="Esso"/><tag k="amenity" v="fuel"/><tag k="operator" v="Gioffre' Paolo"/><tag k="ref:mise" v="39817"/></node><node id="227607033" version="4" lat="45.449759" lon="8.64153" action="modify"><tag k="fuel:octane_95" v="yes"/><tag k="fuel:diesel" v="yes"/><tag k="brand" v="Q8"/><tag k="name" v="Q8"/><tag k="amenity" v="fuel"/><tag k="operator" v="Servizi &amp; Gestioni Italia Srl"/><tag k="ref:mise" v="6548"/></node><node id="329128544" version="5" lat="45.6803994" lon="8.3391287" action="modify"><tag k="fuel:octane_95" v="yes"/><tag k="fuel:diesel" v="yes"/><tag k="brand" v="Repsol"/><tag k="name" v="Repsol Via 4 Novembre"/><tag k="amenity" v="fuel"/><tag k="operator" v="Repsol Italia S.P.A."/><tag k="ref:mise" v="30533"/></node><way id="408529003" version="2" action="modify"><tag k="fuel:octane_95" v="yes"/><tag k="source:date" v="2018-04-16"/><tag k="fuel:diesel" v="yes"/><tag k="brand" v="Total Erg"/><tag k="name" v="TotalErg"/><tag k="amenity" v="fuel"/><tag k="operator" v="Auto 3 S.A.S. di Tantardini Giovanni &amp; C."/><tag k="ref:mise" v="28170"/><nd ref="4104342590"/><nd ref="4104342601"/><nd ref="4104342591"/><nd ref="4104342654"/><nd ref="4104342592"/><nd ref="4104342605"/><nd ref="4104342606"/><nd ref="4104342590"/></way><node id="2827690176" version="3" lat="45.7874127" lon="8.5050688" action="modify"><tag k="fuel:octane_95" v="yes"/><tag k="addr:unit" v="9"/><tag k="fuel:diesel" v="yes"/><tag k="brand" v="Total Erg"/><tag k="operator" v="Aghina Nazzaro"/><tag k="amenity" v="fuel"/><tag k="addr:city" v="Pisano"/><tag k="ref:mise" v="40318"/><tag k="addr:street" v="Via Circonvallazione"/><tag k="addr:postcode" v="28010"/><tag k="phone" v="+39 0322 58183"/></node><way id="458461826" version="3" action="modify"><tag k="fuel:octane_95" v="yes"/><tag k="source:date" v="2018-04-16"/><tag k="fuel:diesel" v="yes"/><tag k="brand" v="Q8"/><tag k="name" v="Q8"/><tag k="amenity" v="fuel"/><tag k="operator" v="Servizi &amp; Gestioni Italia Srl"/><tag k="ref:mise" v="6417"/><nd ref="4544563866"/><nd ref="4544563867"/><nd ref="4544563868"/><nd ref="4544563869"/><nd ref="4544563870"/><nd ref="4544563871"/><nd ref="4544563872"/><nd ref="4544563873"/><nd ref="4544563874"/><nd ref="4544563875"/><nd ref="4544563876"/><nd ref="4544563866"/></way><node id="2088387626" version="2" lat="45.7159389" lon="8.4482331" action="modify"><tag k="fuel:octane_95" v="yes"/><tag k="fuel:diesel" v="yes"/><tag k="brand" v="Tamoil"/><tag k="name" v="Tamoil"/><tag k="amenity" v="fuel"/><tag k="operator" v="S.S.C. Società Sviluppo Commerciale S.R.L. in sigla S.S.C. S. R.L."/><tag k="fuel:octane_100" v="yes"/><tag k="ref:mise" v="7120"/></node><node id="226989365" version="4" lat="45.688599" lon="8.474729" action="modify"><tag k="fuel:octane_95" v="yes"/><tag k="fuel:diesel" v="yes"/><tag k="brand" v="Agip Eni"/><tag k="name" v="Eni"/><tag k="amenity" v="fuel"/><tag k="operator" v="Lorenzini Paolo"/><tag k="ref:mise" v="7244"/></node><node id="227607325" version="5" lat="45.4351115" lon="8.7076359" action="modify"><tag k="fuel:octane_95" v="yes"/><tag k="fuel:diesel" v="yes"/><tag k="brand" v="Esso"/><tag k="name" v="Esso"/><tag k="amenity" v="fuel"/><tag k="operator" v="Pandolfi Giuseppe"/><tag k="ref:mise" v="40281"/></node><node id="227822706" version="4" lat="45.425005" lon="8.643875" action="modify"><tag k="fuel:octane_95" v="yes"/><tag k="fuel:diesel" v="yes"/><tag k="brand" v="Agip Eni"/><tag k="name" v="Eni"/><tag k="amenity" v="fuel"/><tag k="operator" v="Pietro Maragliotti"/><tag k="ref:mise" v="42961"/></node><way id="444444323" version="2" action="modify"><tag k="fuel:octane_95" v="yes"/><tag k="source:date" v="2018-04-16"/><tag k="fuel:diesel" v="yes"/><tag k="brand" v="Total Erg"/><tag k="name" v="Total Erg"/><tag k="amenity" v="fuel"/><tag k="building" v="roof"/><tag k="operator" v="Economy S.R.L."/><tag k="source" v="survey"/><tag k="ref:mise" v="32432"/><nd ref="4419233152"/><nd ref="4419233153"/><nd ref="4419233154"/><nd ref="4419233155"/><nd ref="4419233152"/></way><node id="228280790" version="4" lat="45.5894617" lon="8.6425245" action="modify"><tag k="fuel:octane_95" v="yes"/><tag k="fuel:diesel" v="yes"/><tag k="brand" v="Tamoil"/><tag k="name" v="Tamoil"/><tag k="amenity" v="fuel"/><tag k="operator" v="Di Sciorio Angelina"/><tag k="fuel:octane_100" v="yes"/><tag k="ref:mise" v="9226"/></node><node id="2132000325" version="2" lat="45.3792403" lon="8.5786537" action="modify"><tag k="fuel:octane_95" v="yes"/><tag k="fuel:diesel" v="yes"/><tag k="brand" v="Agip Eni"/><tag k="fuel:lpg" v="yes"/><tag k="name" v="Agip"/><tag k="amenity" v="fuel"/><tag k="operator" v="Primerano Martino"/><tag k="fuel:octane_100" v="yes"/><tag k="ref:mise" v="39184"/></node><node id="1319491981" version="1" lat="45.4351078" lon="8.6314541" action="modify"><tag k="fuel:octane_95" v="yes"/><tag k="fuel:diesel" v="yes"/><tag k="brand" v="Q8"/><tag k="name" v="Q8"/><tag k="amenity" v="fuel"/><tag k="operator" v="Franze' Sergio"/><tag k="ref:mise" v="44287"/></node><node id="227614131" version="4" lat="45.449435" lon="8.640464" action="modify"><tag k="fuel:octane_95" v="yes"/><tag k="fuel:diesel" v="yes"/><tag k="brand" v="Agip Eni"/><tag k="name" v="Agip"/><tag k="amenity" v="fuel"/><tag k="operator" v="Eni Fuel S.P.A."/><tag k="ref:mise" v="33776"/></node><node id="227652702" version="5" lat="45.4451366" lon="8.7889922" action="modify"><tag k="fuel:octane_95" v="yes"/><tag k="fuel:diesel" v="yes"/><tag k="brand" v="Api-Ip"/><tag k="name" v="Total Erg"/><tag k="amenity" v="fuel"/><tag k="fixme" v="name"/><tag k="operator" v="Bianchi Daniele - Distributore Erg"/><tag k="ref:mise" v="13247"/></node><way id="289034205" version="3" action="modify"><tag k="fuel:octane_95" v="yes"/><tag k="source:date" v="2018-04-16"/><tag k="fuel:diesel" v="yes"/><tag k="brand" v="Api-Ip"/><tag k="fuel:lpg" v="yes"/><tag k="name" v="IP"/><tag k="amenity" v="fuel"/><tag k="operator" v="Ip Services S.R.L."/><tag k="ref:mise" v="17688"/><nd ref="2925832625"/><nd ref="2925832620"/><nd ref="2925832624"/><nd ref="2925831520"/><nd ref="2925832611"/><nd ref="2925832604"/><nd ref="2925832601"/><nd ref="2925832625"/></way><node id="2088718831" version="4" lat="45.5543332" lon="8.567672" action="modify"><tag k="fuel:diesel" v="yes"/><tag k="payment:cash" v="yes"/><tag k="operator" v="Marchini Marco"/><tag k="fuel:cng" v="yes"/><tag k="description" v="Ha riaperto il distributore. Gli orari sono per il gpl e metano."/><tag k="phone" v="+39 3885699969"/><tag k="fuel:octane_98" v="yes"/><tag k="fuel:octane_95" v="yes"/><tag k="opening_hours" v="Mo-Sa 07:30-12:30; 14:30-18:30"/><tag k="brand" v="Agip Eni"/><tag k="name" v="Distributore Agip"/><tag k="amenity" v="fuel"/><tag k="fuel:lpg" v="yes"/><tag k="ref:mise" v="42972"/></node><node id="227664342" version="4" lat="45.455352" lon="8.618082" action="modify"><tag k="fuel:octane_95" v="yes"/><tag k="fuel:diesel" v="yes"/><tag k="brand" v="Repsol"/><tag k="name" v="TotalErg"/><tag k="amenity" v="fuel"/><tag k="fixme" v="name"/><tag k="operator" v="Repsol Italia S.P.A."/><tag k="ref:mise" v="33720"/></node><way id="201986982" version="5" action="modify"><tag k="addr:unit" v="40"/><tag k="fuel:diesel" v="yes"/><tag k="operator" v="Stazione Servizio Erg di Pontiroli Stefano"/><tag k="ref:mise" v="39481"/><tag k="addr:city" v="Dormelletto"/><tag k="addr:street" v="Corso Camillo Benso Cavour"/><tag k="fuel:octane_95" v="yes"/><tag k="source:date" v="2018-04-16"/><tag k="brand" v="Total Erg"/><tag k="name" v="TotalErg"/><tag k="amenity" v="fuel"/><tag k="layer" v="1"/><tag k="addr:postcode" v="28040"/><nd ref="2119806350"/><nd ref="2119806353"/><nd ref="2119806368"/><nd ref="2119806385"/><nd ref="2119806399"/><nd ref="2119806398"/><nd ref="2119806401"/><nd ref="2119806397"/><nd ref="2119806349"/><nd ref="2119806354"/><nd ref="2119806357"/><nd ref="2119806350"/></way><way id="198717587" version="4" action="modify"><tag k="fuel:octane_95" v="yes"/><tag k="source:date" v="2018-04-16"/><tag k="fuel:diesel" v="yes"/><tag k="brand" v="Esso"/><tag k="amenity" v="fuel"/><tag k="building" v="roof"/><tag k="operator" v="Tinivella Corrado"/><tag k="ref:mise" v="16377"/><nd ref="2088186532"/><nd ref="2088186536"/><nd ref="2088186537"/><nd ref="2088186535"/><nd ref="2088186533"/><nd ref="2088186531"/><nd ref="2088186530"/><nd ref="2088186532"/></way><node id="228070036" version="10" lat="45.542568" lon="8.638206" action="modify"><tag k="fuel:diesel" v="yes"/><tag k="brand" v="Repsol"/><tag k="fuel:octane_98" v="yes"/><tag k="operator" v="Salf S.A.S. di Fassari Salvatore &amp; C."/><tag k="addr:city" v="Bellinzago Novarese"/><tag k="description" v="Ha riaperto da poco con una nuova gestione."/><tag k="addr:street" v="Strada Statale 32"/><tag k="fuel:cng" v="yes"/><tag k="phone" v="+39 0321 927115"/><tag k="payment:cash" v="yes"/><tag k="fuel:octane_95" v="yes"/><tag k="opening_hours" v="Mo-Sa 06:00-19:30; Su off"/><tag k="payment:credit_cards" v="yes"/><tag k="name" v="Repsol"/><tag k="amenity" v="fuel"/><tag k="fixme" v="rimuovi description"/><tag k="fuel:lpg" v="yes"/><tag k="ref:mise" v="41511"/></node><node id="227585810" version="3" lat="45.444499" lon="8.644667" action="modify"><tag k="fuel:octane_95" v="yes"/><tag k="fuel:diesel" v="yes"/><tag k="brand" v="Esso"/><tag k="name" v="Esso"/><tag k="amenity" v="fuel"/><tag k="operator" v="Aspi S.A.S. di Santina Marziana &amp; C."/><tag k="ref:mise" v="44543"/></node><node id="227588336" version="3" lat="45.476526" lon="8.648493" action="modify"><tag k="fuel:octane_95" v="yes"/><tag k="fuel:diesel" v="yes"/><tag k="brand" v="Total Erg"/><tag k="name" v="Total"/><tag k="amenity" v="fuel"/><tag k="operator" v="Aurora S.R.L."/><tag k="ref:mise" v="42355"/></node><node id="228133181" version="7" lat="45.7437403" lon="8.4334795" action="modify"><tag k="fuel:octane_95" v="yes"/><tag k="fuel:diesel" v="yes"/><tag k="brand" v="Agip Eni"/><tag k="name" v="Agip"/><tag k="amenity" v="fuel"/><tag k="operator" v="Drago Massimiliano Stazione di Servizio Eni"/><tag k="fuel:octane_100" v="yes"/><tag k="ref:mise" v="39420"/></node><node id="228150042" version="4" lat="45.692601" lon="8.463464" action="modify"><tag k="fuel:octane_95" v="yes"/><tag k="fuel:diesel" v="yes"/><tag k="brand" v="Q8"/><tag k="name" v="Q8"/><tag k="amenity" v="fuel"/><tag k="operator" v="Meridio S.N.C. di Panariello Angelo e Panariello Mario"/><tag k="ref:mise" v="8293"/></node><way id="455242040" version="3" action="modify"><tag k="fuel:octane_95" v="yes"/><tag k="source:date" v="2018-04-16"/><tag k="fuel:diesel" v="yes"/><tag k="brand" v="Tamoil"/><tag k="name" v="Tamoil"/><tag k="amenity" v="fuel"/><tag k="operator" v="T.D.M. S.R.L."/><tag k="ref:mise" v="39405"/><nd ref="4516587497"/><nd ref="4516587498"/><nd ref="4516587499"/><nd ref="4516587500"/><nd ref="4516587501"/><nd ref="4516587502"/><nd ref="4516587497"/></way><node id="474991885" version="4" lat="45.8214499" lon="8.439104" action="modify"><tag k="amenity" v="fuel"/><tag k="fuel:octane_95" v="yes"/><tag k="operator" v="Iudici Giovanni"/><tag k="fuel:diesel" v="yes"/><tag k="ref:mise" v="15391"/></node><node id="226990083" version="6" lat="45.434886" lon="8.614496" action="modify"><tag k="fuel:octane_95" v="yes"/><tag k="fuel:diesel" v="yes"/><tag k="name" v="Indipendente"/><tag k="amenity" v="fuel"/><tag k="operator" v="Ghiraldello Silvano"/><tag k="ref:mise" v="13842"/></node><node id="227754792" version="4" lat="45.481047" lon="8.699541" action="modify"><tag k="fuel:octane_95" v="yes"/><tag k="fuel:diesel" v="yes"/><tag k="brand" v="Agip Eni"/><tag k="name" v="Agip"/><tag k="amenity" v="fuel"/><tag k="operator" v="Caio Maria e Merisi Mauro - S.N.C."/><tag k="ref:mise" v="8194"/></node><way id="197959519" version="3" action="modify"><tag k="fuel:octane_98" v="yes"/><tag k="fuel:octane_95" v="yes"/><tag k="source:date" v="2018-04-16"/><tag k="fuel:diesel" v="yes"/><tag k="brand" v="Agip Eni"/><tag k="name" v="Eni"/><tag k="amenity" v="fuel"/><tag k="operator" v="Rovellotti Floriano"/><tag k="fuel:octane_100" v="yes"/><tag k="ref:mise" v="8278"/><nd ref="2081541841"/><nd ref="2081541843"/><nd ref="2081541839"/><nd ref="2081541834"/><nd ref="2081541841"/></way><node id="227607166" version="5" lat="45.4462343" lon="8.7865587" action="modify"><tag k="fuel:octane_95" v="yes"/><tag k="fuel:diesel" v="yes"/><tag k="brand" v="Tamoil"/><tag k="name" v="Tamoil"/><tag k="amenity" v="fuel"/><tag k="operator" v="T.D.M. S.R.L."/><tag k="ref:mise" v="33121"/></node><node id="228237985" version="5" lat="45.6606946" lon="8.5020616" action="modify"><tag k="fuel:octane_95" v="yes"/><tag k="fuel:diesel" v="yes"/><tag k="brand" v="Tamoil"/><tag k="fuel:lpg" v="yes"/><tag k="name" v="Esso"/><tag k="amenity" v="fuel"/><tag k="operator" v="Chef Express S.P.A."/><tag k="ref:mise" v="41123"/></node><node id="228112149" version="7" lat="45.3992637" lon="8.5438846" action="modify"><tag k="fuel:diesel" v="yes"/><tag k="fuel:octane_95" v="yes"/><tag k="opening_hours" v="24/7"/><tag k="brand" v="Europam"/><tag k="name:it" v="Distributore"/><tag k="amenity" v="fuel"/><tag k="fixme" v="name"/><tag k="operator" v="Europam S.P.A."/><tag k="addr:street" v="Via Novara"/><tag k="addr:postcode" v="28060"/><tag k="ref:mise" v="44557"/></node><node id="1875320824" version="3" lat="45.677593" lon="8.483145" action="modify"><tag k="fuel:octane_95" v="yes"/><tag k="fuel:diesel" v="yes"/><tag k="brand" v="Esso"/><tag k="fuel:lpg" v="yes"/><tag k="amenity" v="fuel"/><tag k="operator" v="Nuova Sidap S.R.L."/><tag k="ref:mise" v="4680"/></node><way id="246337948" version="6" action="modify"><tag k="fuel:octane_95" v="yes"/><tag k="source:date" v="2018-04-16"/><tag k="fuel:diesel" v="yes"/><tag k="brand" v="Tamoil"/><tag k="name" v="Tamoil"/><tag k="amenity" v="fuel"/><tag k="operator" v="Di Sciorio Domenico"/><tag k="ref:mise" v="9546"/><nd ref="2533851718"/><nd ref="3290567451"/><nd ref="3858991902"/><nd ref="2533851733"/><nd ref="2533851742"/><nd ref="3858991906"/><nd ref="2533851740"/><nd ref="3858991905"/><nd ref="3858991904"/><nd ref="3290567447"/><nd ref="2533851718"/></way><way id="198566975" version="5" action="modify"><tag k="source:date" v="2018-04-16"/><tag k="fuel:diesel" v="yes"/><tag k="brand" v="Vega"/><tag k="fuel:lpg" v="yes"/><tag k="ref:mise" v="31442"/><tag k="payment:debit_cards" v="yes"/><tag k="payment:cash" v="yes"/><tag k="fuel:octane_95" v="yes"/><tag k="payment:credit_cards" v="yes"/><tag k="name" v="Vega"/><tag k="amenity" v="fuel"/><tag k="operator" v="Vega Carburanti S.P.A."/><nd ref="2086925153"/><nd ref="2086925159"/><nd ref="2086925145"/><nd ref="2208735848"/><nd ref="2086925143"/><nd ref="2086925151"/><nd ref="2086925147"/><nd ref="2086925153"/></way><node id="227765043" version="5" lat="45.443121" lon="8.775458" action="modify"><tag k="name" v="Indipend."/><tag k="amenity" v="fuel"/><tag k="operator" v="Ti-Gas S.R.L."/><tag k="fuel:lpg" v="yes"/><tag k="ref:mise" v="36615"/></node><way id="198566968" version="4" action="modify"><tag k="fuel:cng" v="yes"/><tag k="fuel:octane_95" v="yes"/><tag k="source:date" v="2018-04-16"/><tag k="fuel:diesel" v="yes"/><tag k="brand" v="Api-Ip"/><tag k="name" v="Total Erg"/><tag k="amenity" v="fuel"/><tag k="fixme" v="name"/><tag k="operator" v="Breakoffee S.N.C. di Maatoug Noujoum e C."/><tag k="ref:mise" v="44584"/><nd ref="2086925130"/><nd ref="2086925128"/><nd ref="2086925124"/><nd ref="2086925129"/><nd ref="2086925130"/></way><node id="2088387629" version="2" lat="45.7376532" lon="8.4392213" action="modify"><tag k="fuel:octane_95" v="yes"/><tag k="fuel:diesel" v="yes"/><tag k="brand" v="Tamoil"/><tag k="name" v="Tamoil"/><tag k="amenity" v="fuel"/><tag k="operator" v="T.D.M. S.R.L."/><tag k="ref:mise" v="29804"/></node><node id="2216299297" version="3" lat="45.6395568" lon="8.377325" action="modify"><tag k="fuel:lpg" v="yes"/><tag k="fuel:octane_95" v="yes"/><tag k="fuel:diesel" v="yes"/><tag k="brand" v="Keropetrol"/><tag k="amenity" v="fuel"/><tag k="name" v="Keropetrol"/><tag k="fuel:biogas" v="yes"/><tag k="operator" v="Eredi Nedo Ferraris di Ferraris Laura e C. S.A.S."/><tag k="ref:mise" v="14142"/></node><node id="227847148" version="9" lat="45.4206167" lon="8.5844099" action="modify"><tag k="fuel:octane_95" v="yes"/><tag k="fuel:diesel" v="yes"/><tag k="brand" v="Total Erg"/><tag k="amenity" v="fuel"/><tag k="operator" v="Aurora S.R.L."/><tag k="ref:mise" v="45329"/></node><node id="1319491980" version="2" lat="45.4336849" lon="8.6337179" action="modify"><tag k="fuel:octane_95" v="yes"/><tag k="fuel:diesel" v="yes"/><tag k="brand" v="Esso"/><tag k="name" v="Esso"/><tag k="amenity" v="fuel"/><tag k="operator" v="Salem Ahmed Abdel Hafez Abdelmoat"/><tag k="ref:mise" v="45348"/></node><node id="2830208858" version="2" lat="45.6609375" lon="8.4354798" action="modify"><tag k="fuel:octane_95" v="yes"/><tag k="fuel:diesel" v="yes"/><tag k="brand" v="Api-Ip"/><tag k="amenity" v="fuel"/><tag k="fixme" v="name"/><tag k="operator" v="Business Car di Maceri Francesco"/><tag k="ref:mise" v="40284"/></node><node id="228237812" version="5" lat="45.6612563" lon="8.4996079" action="modify"><tag k="fuel:octane_95" v="yes"/><tag k="fuel:diesel" v="yes"/><tag k="brand" v="Tamoil"/><tag k="fuel:lpg" v="yes"/><tag k="name" v="Total"/><tag k="amenity" v="fuel"/><tag k="fixme" v="Name"/><tag k="operator" v="Chef Express S.P.A."/><tag k="ref:mise" v="40495"/></node><node id="227587813" version="4" lat="45.437464" lon="8.606244" action="modify"><tag k="fuel:octane_95" v="yes"/><tag k="fuel:diesel" v="yes"/><tag k="brand" v="Q8"/><tag k="name" v="Q8"/><tag k="amenity" v="fuel"/><tag k="operator" v="Euro Vele S.N.C. di Bandera Maurizio e Berlangieri Renato"/><tag k="ref:mise" v="7775"/></node><node id="4867804510" version="3" lat="45.6567784" lon="8.3618248" action="modify"><tag k="fuel:octane_95" v="yes"/><tag k="fuel:diesel" v="yes"/><tag k="brand" v="Api-Ip"/><tag k="name" v="TotalErg"/><tag k="amenity" v="fuel"/><tag k="fixme" v="name"/><tag k="fuel:lpg" v="yes"/><tag k="operator" v="Speed Car S.N.C. di Grassi Cosimo e di Micco Antonio"/><tag k="ref:mise" v="5760"/></node><way id="569570504" version="2" action="modify"><tag k="fuel:octane_95" v="yes"/><tag k="source:date" v="2018-04-16"/><tag k="fuel:diesel" v="yes"/><tag k="brand" v="Agip Eni"/><tag k="amenity" v="fuel"/><tag k="operator" v="Gestioni Innovative Italia S.R.L."/><tag k="ref:mise" v="39209"/><nd ref="5477408940"/><nd ref="5477408941"/><nd ref="5477408942"/><nd ref="5477408943"/><nd ref="5477408940"/></way><node id="5046779913" version="2" lat="45.8165839" lon="8.40852" action="modify"><tag k="fuel:octane_95" v="yes"/><tag k="fuel:diesel" v="yes"/><tag k="brand" v="Q8"/><tag k="amenity" v="fuel"/><tag k="operator" v="Servizi &amp; Gestioni Italia Srl"/><tag k="ref:mise" v="6421"/></node><node id="228278086" version="4" lat="45.591241" lon="8.672299" action="modify"><tag k="fuel:octane_95" v="yes"/><tag k="fuel:diesel" v="yes"/><tag k="brand" v="Tamoil"/><tag k="name" v="Tamoil"/><tag k="amenity" v="fuel"/><tag k="operator" v="Di Sciorio Angelina"/><tag k="ref:mise" v="22047"/></node><node id="1249833797" version="3" lat="45.6819218" lon="8.4567645" action="modify"><tag k="fuel:octane_95" v="yes"/><tag k="fuel:diesel" v="yes"/><tag k="brand" v="Vega"/><tag k="name" v="Vega"/><tag k="amenity" v="fuel"/><tag k="operator" v="Vega Carburanti S.P.A."/><tag k="ref:mise" v="31441"/></node><way id="549288033" version="2" action="modify"><tag k="fuel:octane_95" v="yes"/><tag k="source:date" v="2018-04-16"/><tag k="fuel:diesel" v="yes"/><tag k="brand" v="Total Erg"/><tag k="name" v="Shell"/><tag k="amenity" v="fuel"/><tag k="fixme" v="name, unisci"/><tag k="operator" v="Ip Services S.R.L."/><tag k="ref:mise" v="43609"/><nd ref="5086540799"/><nd ref="5306027477"/><nd ref="5086540809"/><nd ref="5306027860"/><nd ref="5306027468"/><nd ref="5306027859"/><nd ref="5306027858"/><nd ref="5306027853"/><nd ref="5306027857"/><nd ref="5306027856"/><nd ref="5306027852"/><nd ref="5086540801"/><nd ref="5086540799"/></way><node id="227589291" version="5" lat="45.46407" lon="8.625485" action="modify"><tag k="fuel:octane_95" v="yes"/><tag k="fuel:diesel" v="yes"/><tag k="brand" v="Q8"/><tag k="name" v="Q8"/><tag k="amenity" v="fuel"/><tag k="operator" v="Servizi &amp; Gestioni Italia S.R.L."/><tag k="fuel:octane_100" v="yes"/><tag k="ref:mise" v="11743"/></node><node id="227847152" version="6" lat="45.4270341" lon="8.5782634" action="modify"><tag k="fuel:octane_95" v="yes"/><tag k="fuel:diesel" v="yes"/><tag k="brand" v="Agip Eni"/><tag k="name" v="Agip"/><tag k="amenity" v="fuel"/><tag k="operator" v="Tom-Car S.N.C. di Tomasini Paolo &amp; Carretta Paola"/><tag k="fuel:octane_100" v="yes"/><tag k="ref:mise" v="17453"/></node><node id="227764105" version="6" lat="45.419156" lon="8.648123" action="modify"><tag k="fuel:octane_95" v="yes"/><tag k="fuel:diesel" v="yes"/><tag k="brand" v="Api-Ip"/><tag k="fuel:lpg" v="yes"/><tag k="name" v="IP"/><tag k="amenity" v="fuel"/><tag k="wheelchair" v="limited"/><tag k="operator" v="Distributore Carburanti di D'Andrea Pasqualina"/><tag k="ref:mise" v="12428"/></node><way id="419714204" version="4" action="modify"><tag k="fuel:octane_95" v="yes"/><tag k="source:date" v="2018-04-16"/><tag k="fuel:diesel" v="yes"/><tag k="name" v="Olicarb"/><tag k="amenity" v="fuel"/><tag k="fixme" v="check name"/><tag k="fuel:lpg" v="yes"/><tag k="operator" v="Centro Calor S.R.L."/><tag k="ref:mise" v="44915"/><nd ref="4197219724"/><nd ref="4197219725"/><nd ref="4197219723"/><nd ref="4197219722"/><nd ref="4197219724"/></way><node id="227536933" version="4" lat="45.431964" lon="8.594184" action="modify"><tag k="fuel:octane_95" v="yes"/><tag k="fuel:diesel" v="yes"/><tag k="brand" v="Esso"/><tag k="name" v="Esso"/><tag k="amenity" v="fuel"/><tag k="operator" v="Botturi Emma"/><tag k="ref:mise" v="40108"/></node><node id="5244034968" version="8" lat="45.4663171" lon="8.6312229" action="modify"><tag k="fuel:octane_100" v="yes"/><tag k="fuel:diesel" v="yes"/><tag k="addr:housenumber" v="1"/><tag k="fuel:octane_98" v="yes"/><tag k="fuel:lpg" v="yes"/><tag k="addr:city" v="Novara"/><tag k="description" v="Il distributore è aperto; è presente anche una colonnina di ricarica (22 kw) per le auto elettriche. Gli orari sono per il gpl."/><tag k="addr:street" v="Via Oscar Comazzi"/><tag k="phone" v="+39 0321 473059"/><tag k="payment:cash" v="yes"/><tag k="fuel:octane_95" v="yes"/><tag k="opening_hours" v="Mo-Fr 07:00-19:30; Sa 07:30-19:00; Su 08:30-13:00"/><tag k="brand" v="Q8"/><tag k="name" v="Q8"/><tag k="amenity" v="fuel"/><tag k="fuel:electricity" v="yes"/><tag k="payment:cards" v="yes"/><tag k="operator" v="D.E.D.O.N. di Ferrario Yuri"/><tag k="addr:postcode" v="28100"/><tag k="ref:mise" v="40856"/></node><node id="3814083211" version="5" lat="45.4401025" lon="8.730283" action="modify"><tag k="fuel:octane_95" v="yes"/><tag k="fuel:diesel" v="yes"/><tag k="name" v="Il Gigante"/><tag k="amenity" v="fuel"/><tag k="fixme" v="OK"/><tag k="operator" v="Rialto S.R.L."/><tag k="source" v="survey"/><tag k="ref:mise" v="31457"/></node><node id="2826410800" version="2" lat="45.7426481" lon="8.4355993" action="modify"><tag k="fuel:octane_95" v="yes"/><tag k="fuel:diesel" v="yes"/><tag k="brand" v="Api-Ip"/><tag k="amenity" v="fuel"/><tag k="operator" v="Ip Services S.R.L."/><tag k="ref:mise" v="28175"/></node><node id="3932372955" version="2" lat="45.3602728" lon="8.6673894" action="modify"><tag k="fuel:cng" v="yes"/><tag k="fuel:octane_95" v="yes"/><tag k="fuel:diesel" v="yes"/><tag k="brand" v="Tamoil"/><tag k="fuel:lpg" v="yes"/><tag k="amenity" v="fuel"/><tag k="operator" v="Sirtam S.P.A."/><tag k="ref:mise" v="37641"/></node><node id="227847146" version="5" lat="45.4213126" lon="8.5839926" action="modify"><tag k="fuel:octane_95" v="yes"/><tag k="fuel:diesel" v="yes"/><tag k="brand" v="Total Erg"/><tag k="fuel:lpg" v="yes"/><tag k="amenity" v="fuel"/><tag k="operator" v="Aurora S.R.L."/><tag k="ref:mise" v="42353"/></node><node id="229114637" version="5" lat="45.68777" lon="8.472214" action="modify"><tag k="fuel:lpg" v="yes"/><tag k="name" v="Indipend."/><tag k="amenity" v="fuel"/><tag k="fixme" v="Position"/><tag k="operator" v="Negrito S.A.S.di Tozzini Carlo"/><tag k="ref:mise" v="4988"/></node><node id="227587940" version="6" lat="45.4585939" lon="8.6244461" action="modify"><tag k="fuel:octane_95" v="yes"/><tag k="fuel:diesel" v="yes"/><tag k="brand" v="Api-Ip"/><tag k="name" v="IP"/><tag k="amenity" v="fuel"/><tag k="operator" v="Ip Services S.R.L."/><tag k="ref:mise" v="24659"/></node><way id="549288039" version="2" action="modify"><tag k="fuel:octane_95" v="yes"/><tag k="source:date" v="2018-04-16"/><tag k="fuel:diesel" v="yes"/><tag k="brand" v="Tamoil"/><tag k="fuel:lpg" v="yes"/><tag k="name" v="Erg"/><tag k="amenity" v="fuel"/><tag k="fixme" v="name"/><tag k="operator" v="Salvetti Rete S.R.L."/><tag k="ref:mise" v="37965"/><nd ref="5306027892"/><nd ref="5306027891"/><nd ref="5086543866"/><nd ref="5086543860"/><nd ref="5086543858"/><nd ref="5086543868"/><nd ref="5306027890"/><nd ref="5306027889"/><nd ref="5086543862"/><nd ref="5086543865"/><nd ref="5306027888"/><nd ref="5306027898"/><nd ref="5306027897"/><nd ref="5306027896"/><nd ref="5306027887"/><nd ref="5306027885"/><nd ref="5086543863"/><nd ref="5086543864"/><nd ref="5306027886"/><nd ref="5306027881"/><nd ref="5306027892"/></way><node id="5069166497" version="3" lat="45.7955012" lon="8.5220801" action="modify"><tag k="addr:unit" v="19"/><tag k="fuel:diesel" v="yes"/><tag k="ref:mise" v="22073"/><tag k="addr:city" v="Nebbiuno"/><tag k="addr:street" v="Via per Meina"/><tag k="phone" v="+39 0322 589467"/><tag k="fuel:octane_95" v="yes"/><tag k="brand" v="GO"/><tag k="amenity" v="fuel"/><tag k="fixme" v="Position"/><tag k="operator" v="Go S.R.L."/><tag k="addr:postcode" v="28010"/></node><node id="3043368848" version="3" lat="45.7457042" lon="8.5221144" action="modify"><tag k="fuel:octane_95" v="yes"/><tag k="fuel:diesel" v="yes"/><tag k="brand" v="Agip Eni"/><tag k="fuel:lpg" v="yes"/><tag k="name" v="Eni"/><tag k="amenity" v="fuel"/><tag k="operator" v="F.lli Gherpu' S.N.C. di Gianni e Alessandro Gherpu' &amp; C."/><tag k="fuel:octane_100" v="yes"/><tag k="ref:mise" v="43461"/></node><way id="409776665" version="4" action="modify"><tag k="source:date" v="2018-04-16"/><tag k="brand" v="Q8"/><tag k="amenity" v="fuel"/><tag k="addr:city" v="Boca"/><tag k="fixme" v="This object might have been dismantled, please check"/><tag k="operator" v="Self Pies S.R.L."/><tag k="addr:street" v="Via Unità d'Italia"/><tag k="addr:postcode" v="28010"/><tag k="ref:mise" v="20786"/><nd ref="4116369012"/><nd ref="4116369013"/><nd ref="4116369014"/><nd ref="4116369015"/><nd ref="4116369012"/></way><way id="594406367" version="2" action="modify"><tag k="source:date" v="2018-04-16"/><tag k="brand" v="Q8"/><tag k="amenity" v="fuel"/><tag k="fixme" v="This object might have been dismantled, please check"/><tag k="operator" v="Autoservice S.R.L."/><tag k="ref:mise" v="9956"/><nd ref="5668310371"/><nd ref="5668310372"/><nd ref="5668310373"/><nd ref="5668310374"/><nd ref="5668310375"/><nd ref="5668310371"/></way><node id="227582321" version="3" lat="45.448333" lon="8.635629" action="modify"><tag k="name" v="Esso"/><tag k="amenity" v="fuel"/><tag k="fixme" v="This object might have been dismantled, please check"/><tag k="operator" v="Esso"/><tag k="brand" v="Esso"/></node><node id="5851832280" version="1" lat="45.5875231" lon="8.6386479" action="modify"><tag k="amenity" v="fuel"/><tag k="fixme" v="This object might have been dismantled, please check"/><tag k="operator" v="Gioffre' Paolo"/><tag k="brand" v="Esso"/><tag k="ref:mise" v="39837"/></node><node id="227908211" version="4" lat="45.4565071" lon="8.6177598" action="modify"><tag k="name" v="Esso"/><tag k="amenity" v="fuel"/><tag k="fixme" v="This object might have been dismantled, please check"/><tag k="operator" v="Esso"/><tag k="brand" v="Esso"/></node><way id="406946886" version="3" action="modify"><tag k="name" v="Q8"/><tag k="amenity" v="fuel"/><tag k="wheelchair" v="limited"/><tag k="fixme" v="This object might have been dismantled, please check"/><nd ref="4089813891"/><nd ref="4089813892"/><nd ref="4226978631"/><nd ref="4226978630"/><nd ref="4089813893"/><nd ref="4089813894"/><nd ref="4089813895"/><nd ref="4089813907"/><nd ref="4089813896"/><nd ref="4089813891"/></way><node id="2036034117" version="1" lat="45.4484351" lon="8.6016859" action="modify"><tag k="name" v="ERG"/><tag k="amenity" v="fuel"/><tag k="fixme" v="This object might have been dismantled, please check"/></node><node id="4304870112" version="1" lat="45.4441661" lon="8.6248452" action="modify"><tag k="brand" v="Enel"/><tag k="name" v="Enel"/><tag k="amenity" v="fuel"/><tag k="fuel:electricity" v="yes"/><tag k="fixme" v="This object might have been dismantled, please check"/><tag k="operator" v="Enel spa"/></node><way id="482411518" version="1" action="modify"><tag k="name" v="Esso"/><tag k="amenity" v="fuel"/><tag k="fixme" v="This object might have been dismantled, please check"/><nd ref="4752311254"/><nd ref="4752311256"/><nd ref="4752311257"/><nd ref="4752311242"/><nd ref="4752311246"/><nd ref="4752311274"/><nd ref="4752311244"/><nd ref="4752311245"/><nd ref="4752311243"/><nd ref="4752311235"/><nd ref="4752311210"/><nd ref="4752311209"/><nd ref="4752311208"/><nd ref="4552973707"/><nd ref="4552973711"/><nd ref="4752311247"/><nd ref="4752311254"/></way><way id="674523813" version="1" action="modify"><tag k="amenity" v="fuel"/><tag k="fixme" v="This object might have been dismantled, please check"/><nd ref="6316905462"/><nd ref="6316905463"/><nd ref="6316905464"/><nd ref="6316905465"/><nd ref="6316905466"/><nd ref="6316905467"/><nd ref="6316905468"/><nd ref="6316905469"/><nd ref="6316905462"/></way><way id="458461830" version="1" action="modify"><tag k="name" v="IP"/><tag k="amenity" v="fuel"/><tag k="fixme" v="This object might have been dismantled, please check"/><nd ref="4544563903"/><nd ref="4544563904"/><nd ref="4544563905"/><nd ref="4544563906"/><nd ref="4544563903"/></way><node id="228138057" version="5" lat="45.46989" lon="8.657543" action="modify"><tag k="brand" v="Q8"/><tag k="name" v="TotalErg"/><tag k="amenity" v="fuel"/><tag k="fixme" v="This object might have been dismantled, please check"/><tag k="operator" v="Total"/><tag k="ref:mise" v="31411"/></node><way id="479481091" version="3" action="modify"><tag k="name" v="Gas Auto"/><tag k="amenity" v="fuel"/><tag k="fixme" v="This object might have been dismantled, please check"/><tag k="fuel:lpg" v="yes"/><nd ref="4725693746"/><nd ref="4725693748"/><nd ref="4725693747"/><nd ref="4735759025"/><nd ref="4735759027"/><nd ref="4735759030"/><nd ref="4725693745"/><nd ref="4725693744"/><nd ref="4725693729"/><nd ref="4725693730"/><nd ref="4725693746"/></way><node id="313783186" version="2" lat="45.4567993" lon="8.4635878" action="modify"><tag k="amenity" v="fuel"/><tag k="fixme" v="This object might have been dismantled, please check"/><tag k="operator" v="Anverg S.A.S. di Daniele Veronica &amp; C."/><tag k="brand" v="Total Erg"/><tag k="ref:mise" v="40401"/></node><node id="229124120" version="5" lat="45.4673057" lon="8.599684" action="modify"><tag k="payment:cash" v="yes"/><tag k="fuel:octane_95" v="yes"/><tag k="fixme" v="This object might have been dismantled, please check"/><tag k="fuel:diesel" v="yes"/><tag k="payment:credit_cards" v="yes"/><tag k="brand" v="Agip Eni"/><tag k="fuel:lpg" v="yes"/><tag k="amenity" v="fuel"/><tag k="payment:debit_cards" v="yes"/><tag k="operator" v="Mc4 S.N.C. di Chimienti Michele e C."/><tag k="ref:mise" v="13033"/></node><node id="4304897993" version="2" lat="45.4476833" lon="8.6276449" action="modify"><tag k="brand" v="Enel"/><tag k="name" v="Enel"/><tag k="amenity" v="fuel"/><tag k="fuel:electricity" v="yes"/><tag k="fixme" v="This object might have been dismantled, please check"/><tag k="operator" v="Enel spa"/></node><node id="4304887947" version="1" lat="45.4426151" lon="8.6186676" action="modify"><tag k="amenity" v="fuel"/><tag k="fuel:electricity" v="yes"/><tag k="fixme" v="This object might have been dismantled, please check"/><tag k="operator" v="Enel spa"/><tag k="brand" v="Enel"/></node><node id="452542479" version="3" lat="45.6288547" lon="8.535959" action="modify"><tag k="amenity" v="fuel"/><tag k="fixme" v="This object might have been dismantled, please check"/><tag k="operator" v="Q8"/></node><way id="199470569" version="2" action="modify"><tag k="source:date" v="2018-04-16"/><tag k="fixme" v="This object might have been dismantled, please check"/><tag k="brand" v="Q8"/><tag k="amenity" v="fuel"/><tag k="building" v="yes"/><tag k="operator" v="Antonione Ivan"/><tag k="ref:mise" v="23527"/><nd ref="2094618052"/><nd ref="2094618050"/><nd ref="2094618038"/><nd ref="2094618036"/><nd ref="2094618046"/><nd ref="2094618044"/><nd ref="2094618063"/><nd ref="2094618061"/><nd ref="2094618043"/><nd ref="2094618041"/><nd ref="2094618027"/><nd ref="2094618028"/><nd ref="2094618033"/><nd ref="2094618034"/><nd ref="2094618029"/><nd ref="2094618030"/><nd ref="2094618052"/></way><node id="228045832" version="3" lat="45.5329805" lon="8.4158603" action="modify"><tag k="name" v="TotalErg"/><tag k="amenity" v="fuel"/><tag k="fixme" v="This object might have been dismantled, please check"/><tag k="operator" v="TotalErg"/><tag k="brand" v="TotalErg"/></node><node id="4304897671" version="1" lat="45.4490795" lon="8.6138637" action="modify"><tag k="brand" v="Enel"/><tag k="name" v="Enel"/><tag k="amenity" v="fuel"/><tag k="fuel:electricity" v="yes"/><tag k="fixme" v="This object might have been dismantled, please check"/><tag k="operator" v="Enel spa"/></node><node id="227764103" version="4" lat="45.4632089" lon="8.7165731" action="modify"><tag k="name" v="IP"/><tag k="amenity" v="fuel"/><tag k="fixme" v="This object might have been dismantled, please check"/><tag k="operator" v="IP"/><tag k="brand" v="IP"/></node><node id="4817357656" version="3" lat="45.4672274" lon="8.6233361" action="modify"><tag k="fuel:diesel" v="yes"/><tag k="phone" v="+39 0321 679447"/><tag k="name" v="Vega"/><tag k="amenity" v="fuel"/><tag k="addr:city" v="Novara"/><tag k="fixme" v="This object might have been dismantled, please check"/><tag k="fuel:lpg" v="yes"/><tag k="opening_hours" v="Mo-Sa 07.30-13.00; 14.30-19.00; Su 08.00-12.00"/><tag k="addr:street" v="Via delle Americhe"/></node><node id="2003469149" version="2" lat="45.8153672" lon="8.5487123" action="modify"><tag k="waterway" v="fuel"/><tag k="fixme" v="This object might have been dismantled, please check"/></node></osm>