[
     {
      "id"  : 38706,
      "lat" : 45.87728,
      "lon" : 13.34855,
      "tags" : {
               "operator" : "Cescutti Daniela",
               "brand" : "Agip Eni",
               "fuel:lpg" : "yes",
               "fuel:cng" : null,
               "fuel:diesel" : "yes",
               "fuel:octane_95" : "yes",
               "ref:mise" : "38706",
               "amenity"  : "fuel"
               }
    }
,
     {
      "id"  : 34172,
      "lat" : 45.8882,
      "lon" : 13.35393,
      "tags" : {
               "operator" : "S.I.A. Engineering Construction S.R.L.",
               "brand" : "Sia fuel",
               "fuel:lpg" : null,
               "fuel:cng" : null,
               "fuel:diesel" : "yes",
               "fuel:octane_95" : "yes",
               "ref:mise" : "34172",
               "amenity"  : "fuel"
               }
    }
,
     {
      "id"  : 14884,
      "lat" : 46.37257,
      "lon" : 13.06472,
      "tags" : {
               "operator" : "Area di Servizio Shell di Marta Ivan & C. S.A.S.",
               "brand" : "Q8",
               "fuel:lpg" : "yes",
               "fuel:cng" : null,
               "fuel:diesel" : "yes",
               "fuel:octane_95" : "yes",
               "fuel:octane_100" : "yes",
               "ref:mise" : "14884",
               "amenity"  : "fuel"
               }
    }
,
     {
      "id"  : 8849,
      "lat" : 46.4153,
      "lon" : 12.7968,
      "tags" : {
               "operator" : "Nardone Renato",
               "brand" : "Retitalia",
               "fuel:lpg" : null,
               "fuel:cng" : null,
               "fuel:diesel" : "yes",
               "fuel:octane_95" : "yes",
               "ref:mise" : "8849",
               "amenity"  : "fuel"
               }
    }
,
     {
      "id"  : 40931,
      "lat" : 46.4172,
      "lon" : 12.79013,
      "tags" : {
               "operator" : "Martinis Maria Dora",
               "brand" : "Tamoil",
               "fuel:lpg" : null,
               "fuel:cng" : null,
               "fuel:diesel" : "yes",
               "fuel:octane_95" : "yes",
               "ref:mise" : "40931",
               "amenity"  : "fuel"
               }
    }
,
     {
      "id"  : 27766,
      "lat" : 45.79004,
      "lon" : 13.3564,
      "tags" : {
               "operator" : "Tavaris Silvano",
               "brand" : "Repsol",
               "fuel:lpg" : null,
               "fuel:cng" : null,
               "fuel:diesel" : "yes",
               "fuel:octane_95" : "yes",
               "ref:mise" : "27766",
               "amenity"  : "fuel"
               }
    }
,
     {
      "id"  : 43179,
      "lat" : 45.88367,
      "lon" : 13.30861,
      "tags" : {
               "operator" : "A.T.G. S.A.S. di Marinig Andrea & C.",
               "brand" : "Esso",
               "fuel:lpg" : null,
               "fuel:cng" : null,
               "fuel:diesel" : "yes",
               "fuel:octane_95" : "yes",
               "ref:mise" : "43179",
               "amenity"  : "fuel"
               }
    }
,
     {
      "id"  : 45355,
      "lat" : 45.88928,
      "lon" : 13.30924,
      "tags" : {
               "operator" : "Geff S.R.L.",
               "brand" : "Api-Ip",
               "fuel:lpg" : null,
               "fuel:cng" : null,
               "fuel:diesel" : "yes",
               "fuel:octane_95" : "yes",
               "ref:mise" : "45355",
               "amenity"  : "fuel"
               }
    }
,
     {
      "id"  : 38932,
      "lat" : 46.00811,
      "lon" : 13.12148,
      "tags" : {
               "operator" : "Bff & Partners di Monica Scaggiante e C. S.N.C.",
               "brand" : "Q8",
               "fuel:lpg" : null,
               "fuel:cng" : null,
               "fuel:diesel" : "yes",
               "fuel:octane_95" : "yes",
               "ref:mise" : "38932",
               "amenity"  : "fuel"
               }
    }
,
     {
      "id"  : 33926,
      "lat" : 45.98954,
      "lon" : 13.0627,
      "tags" : {
               "operator" : "S.I.A. Engineering Construction S.R.L.",
               "brand" : "Sia fuel",
               "fuel:lpg" : "yes",
               "fuel:cng" : null,
               "fuel:diesel" : "yes",
               "fuel:octane_95" : "yes",
               "ref:mise" : "33926",
               "amenity"  : "fuel"
               }
    }
,
     {
      "id"  : 36502,
      "lat" : 46.03022,
      "lon" : 13.10275,
      "tags" : {
               "operator" : "Singh Sandip",
               "brand" : "Api-Ip",
               "fuel:lpg" : "yes",
               "fuel:cng" : null,
               "fuel:diesel" : "yes",
               "fuel:octane_95" : "yes",
               "ref:mise" : "36502",
               "amenity"  : "fuel"
               }
    }
,
     {
      "id"  : 44585,
      "lat" : 46.01477,
      "lon" : 13.10908,
      "tags" : {
               "operator" : "Esposito Luigi",
               "brand" : "Api-Ip",
               "fuel:lpg" : null,
               "fuel:cng" : null,
               "fuel:diesel" : "yes",
               "fuel:octane_95" : "yes",
               "ref:mise" : "44585",
               "amenity"  : "fuel"
               }
    }
,
     {
      "id"  : 32403,
      "lat" : 45.94027,
      "lon" : 13.07852,
      "tags" : {
               "operator" : "Blason Luca & C. S.A.S.",
               "brand" : "Api-Ip",
               "fuel:lpg" : null,
               "fuel:cng" : null,
               "fuel:diesel" : "yes",
               "fuel:octane_95" : "yes",
               "ref:mise" : "32403",
               "amenity"  : "fuel"
               }
    }
,
     {
      "id"  : 37479,
      "lat" : 45.95009,
      "lon" : 13.05112,
      "tags" : {
               "operator" : "Pasutti Marco",
               "brand" : "Agip Eni",
               "fuel:lpg" : null,
               "fuel:cng" : null,
               "fuel:diesel" : "yes",
               "fuel:octane_95" : "yes",
               "ref:mise" : "37479",
               "amenity"  : "fuel"
               }
    }
,
     {
      "id"  : 12767,
      "lat" : 46.20354,
      "lon" : 13.12055,
      "tags" : {
               "operator" : "Milzoni Gianfranco",
               "brand" : "Agip Eni",
               "fuel:lpg" : null,
               "fuel:cng" : null,
               "fuel:diesel" : "yes",
               "fuel:octane_95" : "yes",
               "fuel:octane_100" : "yes",
               "ref:mise" : "12767",
               "amenity"  : "fuel"
               }
    }
,
     {
      "id"  : 37779,
      "lat" : 46.21014,
      "lon" : 13.10249,
      "tags" : {
               "operator" : "Kan S.A.S. di Franco Nicola & C.",
               "brand" : "Esso",
               "fuel:lpg" : null,
               "fuel:cng" : null,
               "fuel:diesel" : "yes",
               "fuel:octane_95" : "yes",
               "ref:mise" : "37779",
               "amenity"  : "fuel"
               }
    }
,
     {
      "id"  : 35566,
      "lat" : 46.24057,
      "lon" : 13.09345,
      "tags" : {
               "operator" : "Be.Oil di Fabbro Edoardo & C. S.A.S.",
               "brand" : "Esso",
               "fuel:lpg" : null,
               "fuel:cng" : null,
               "fuel:diesel" : "yes",
               "fuel:octane_95" : "yes",
               "ref:mise" : "35566",
               "amenity"  : "fuel"
               }
    }
,
     {
      "id"  : 30937,
      "lat" : 46.20295,
      "lon" : 13.11793,
      "tags" : {
               "operator" : "P&c Società a Responsabilità Limitata Semplificata",
               "brand" : "Total Erg",
               "fuel:lpg" : null,
               "fuel:cng" : null,
               "fuel:diesel" : "yes",
               "fuel:octane_95" : "yes",
               "ref:mise" : "30937",
               "amenity"  : "fuel"
               }
    }
,
     {
      "id"  : 4355,
      "lat" : 46.01626,
      "lon" : 13.14785,
      "tags" : {
               "operator" : "Jetrent S.R.L.",
               "brand" : "Api-Ip",
               "fuel:lpg" : "yes",
               "fuel:cng" : null,
               "fuel:diesel" : "yes",
               "fuel:octane_95" : "yes",
               "ref:mise" : "4355",
               "amenity"  : "fuel"
               }
    }
,
     {
      "id"  : 5633,
      "lat" : 46.02488,
      "lon" : 13.16839,
      "tags" : {
               "operator" : "F.lli Rinaldi S.N.C. di Matteo e Paolo Rinaldi",
               "brand" : "Agip Eni",
               "fuel:lpg" : null,
               "fuel:cng" : null,
               "fuel:diesel" : "yes",
               "fuel:octane_95" : "yes",
               "fuel:octane_100" : "yes",
               "ref:mise" : "5633",
               "amenity"  : "fuel"
               }
    }
,
     {
      "id"  : 45229,
      "lat" : 46.03547,
      "lon" : 13.15262,
      "tags" : {
               "operator" : "Geff S.R.L.",
               "brand" : "Api-Ip",
               "fuel:lpg" : null,
               "fuel:cng" : null,
               "fuel:diesel" : "yes",
               "fuel:octane_95" : "yes",
               "ref:mise" : "45229",
               "amenity"  : "fuel"
               }
    }
,
     {
      "id"  : 43381,
      "lat" : 46.03216,
      "lon" : 13.21698,
      "tags" : {
               "operator" : "Efros Dumitru",
               "brand" : "Api-Ip",
               "fuel:lpg" : null,
               "fuel:cng" : null,
               "fuel:diesel" : "yes",
               "fuel:octane_95" : "yes",
               "ref:mise" : "43381",
               "amenity"  : "fuel"
               }
    }
,
     {
      "id"  : 37480,
      "lat" : 45.90369,
      "lon" : 13.18184,
      "tags" : {
               "operator" : "Duri' Andrea",
               "fuel:lpg" : null,
               "fuel:cng" : null,
               "fuel:diesel" : "yes",
               "fuel:octane_95" : "yes",
               "ref:mise" : "37480",
               "amenity"  : "fuel"
               }
    }
,
     {
      "id"  : 13665,
      "lat" : 46.36829,
      "lon" : 13.03923,
      "tags" : {
               "operator" : "Alimentari Stroili Silvio di Billiani Lilia",
               "brand" : "Api-Ip",
               "fuel:lpg" : null,
               "fuel:cng" : null,
               "fuel:diesel" : "yes",
               "fuel:octane_95" : "yes",
               "ref:mise" : "13665",
               "amenity"  : "fuel"
               }
    }
,
     {
      "id"  : 11915,
      "lat" : 45.80862,
      "lon" : 13.35668,
      "tags" : {
               "operator" : "Servizi & Gestioni Italia S.R.L.",
               "brand" : "Q8",
               "fuel:lpg" : null,
               "fuel:cng" : null,
               "fuel:diesel" : "yes",
               "fuel:octane_95" : "yes",
               "ref:mise" : "11915",
               "amenity"  : "fuel"
               }
    }
,
     {
      "id"  : 11916,
      "lat" : 45.84373,
      "lon" : 13.32626,
      "tags" : {
               "operator" : "Servizi & Gestioni Italia S.R.L.",
               "brand" : "Q8",
               "fuel:lpg" : null,
               "fuel:cng" : null,
               "fuel:diesel" : "yes",
               "fuel:octane_95" : "yes",
               "fuel:octane_100" : "yes",
               "ref:mise" : "11916",
               "amenity"  : "fuel"
               }
    }
,
     {
      "id"  : 43899,
      "lat" : 45.82893,
      "lon" : 13.3301,
      "tags" : {
               "operator" : "Geff S.R.L.",
               "brand" : "Esso",
               "fuel:lpg" : null,
               "fuel:cng" : null,
               "fuel:diesel" : "yes",
               "fuel:octane_95" : "yes",
               "ref:mise" : "43899",
               "amenity"  : "fuel"
               }
    }
,
     {
      "id"  : 41411,
      "lat" : 45.81431,
      "lon" : 13.34011,
      "tags" : {
               "operator" : "Gruppo Distribuzione Petroli S.R.L.",
               "fuel:lpg" : null,
               "fuel:cng" : null,
               "fuel:diesel" : "yes",
               "fuel:octane_95" : "yes",
               "ref:mise" : "41411",
               "amenity"  : "fuel"
               }
    }
,
     {
      "id"  : 26623,
      "lat" : 45.80639,
      "lon" : 13.35614,
      "tags" : {
               "operator" : "Dijust Salvore",
               "brand" : "Api-Ip",
               "fuel:lpg" : "yes",
               "fuel:cng" : null,
               "fuel:diesel" : "yes",
               "fuel:octane_95" : "yes",
               "ref:mise" : "26623",
               "amenity"  : "fuel"
               }
    }
,
     {
      "id"  : 26733,
      "lat" : 45.82958,
      "lon" : 13.33149,
      "tags" : {
               "operator" : "Veca S.A.S. di Caprioli Antonio & C.",
               "brand" : "Agip Eni",
               "fuel:lpg" : null,
               "fuel:cng" : null,
               "fuel:diesel" : "yes",
               "fuel:octane_95" : "yes",
               "fuel:octane_100" : "yes",
               "ref:mise" : "26733",
               "amenity"  : "fuel"
               }
    }
,
     {
      "id"  : 45333,
      "lat" : 46.40547,
      "lon" : 13.29608,
      "tags" : {
               "operator" : "Geff S.R.L.",
               "brand" : "Agip Eni",
               "fuel:lpg" : null,
               "fuel:cng" : null,
               "fuel:diesel" : "yes",
               "fuel:octane_95" : "yes",
               "fuel:octane_100" : "yes",
               "ref:mise" : "45333",
               "amenity"  : "fuel"
               }
    }
,
     {
      "id"  : 31614,
      "lat" : 46.08269,
      "lon" : 13.39264,
      "tags" : {
               "operator" : "Servizi Innovativi Nord Est S.R.L.",
               "brand" : "Agip Eni",
               "fuel:lpg" : "yes",
               "fuel:cng" : null,
               "fuel:diesel" : "yes",
               "fuel:octane_95" : "yes",
               "ref:mise" : "31614",
               "amenity"  : "fuel"
               }
    }
,
     {
      "id"  : 9002,
      "lat" : 46.0999,
      "lon" : 13.44261,
      "tags" : {
               "operator" : "Servizi & Gestioni Italia S.R.L.",
               "brand" : "Q8",
               "fuel:lpg" : null,
               "fuel:cng" : null,
               "fuel:diesel" : "yes",
               "fuel:octane_95" : "yes",
               "ref:mise" : "9002",
               "amenity"  : "fuel"
               }
    }
,
     {
      "id"  : 41156,
      "lat" : 46.09237,
      "lon" : 13.42034,
      "tags" : {
               "operator" : "Costaperaria Monica",
               "brand" : "Agip Eni",
               "fuel:lpg" : null,
               "fuel:cng" : null,
               "fuel:diesel" : "yes",
               "fuel:octane_95" : "yes",
               "fuel:octane_100" : "yes",
               "ref:mise" : "41156",
               "amenity"  : "fuel"
               }
    }
,
     {
      "id"  : 22912,
      "lat" : 46.08187,
      "lon" : 13.42411,
      "tags" : {
               "operator" : "Fantini Giuseppe",
               "brand" : "Api-Ip",
               "fuel:lpg" : null,
               "fuel:cng" : null,
               "fuel:diesel" : "yes",
               "fuel:octane_95" : "yes",
               "ref:mise" : "22912",
               "amenity"  : "fuel"
               }
    }
,
     {
      "id"  : 17552,
      "lat" : 46.09073,
      "lon" : 13.41584,
      "tags" : {
               "operator" : "Superfast Esso di Roiatti Roberto & C. S.A.S.",
               "brand" : "Esso",
               "fuel:lpg" : null,
               "fuel:cng" : null,
               "fuel:diesel" : "yes",
               "fuel:octane_95" : "yes",
               "ref:mise" : "17552",
               "amenity"  : "fuel"
               }
    }
,
     {
      "id"  : 13689,
      "lat" : 45.94601,
      "lon" : 12.9767,
      "tags" : {
               "operator" : "Pituello Stefano",
               "brand" : "Agip Eni",
               "fuel:lpg" : "yes",
               "fuel:cng" : null,
               "fuel:diesel" : "yes",
               "fuel:octane_95" : "yes",
               "ref:mise" : "13689",
               "amenity"  : "fuel"
               }
    }
,
     {
      "id"  : 29740,
      "lat" : 45.96685,
      "lon" : 12.96848,
      "tags" : {
               "operator" : "Big S.R.L.",
               "brand" : "BIG",
               "fuel:lpg" : "yes",
               "fuel:cng" : null,
               "fuel:diesel" : "yes",
               "fuel:octane_95" : "yes",
               "ref:mise" : "29740",
               "amenity"  : "fuel"
               }
    }
,
     {
      "id"  : 10819,
      "lat" : 45.96158,
      "lon" : 12.98903,
      "tags" : {
               "operator" : "Fratelli Sambucco S.N.C.",
               "brand" : "Agip Eni",
               "fuel:lpg" : null,
               "fuel:cng" : null,
               "fuel:diesel" : "yes",
               "fuel:octane_95" : "yes",
               "fuel:octane_100" : "yes",
               "ref:mise" : "10819",
               "amenity"  : "fuel"
               }
    }
,
     {
      "id"  : 9338,
      "lat" : 45.96742,
      "lon" : 12.97035,
      "tags" : {
               "operator" : "Armani Marta",
               "brand" : "Esso",
               "fuel:lpg" : null,
               "fuel:cng" : null,
               "fuel:diesel" : "yes",
               "fuel:octane_95" : "yes",
               "ref:mise" : "9338",
               "amenity"  : "fuel"
               }
    }
,
     {
      "id"  : 45247,
      "lat" : 45.96482,
      "lon" : 12.95488,
      "tags" : {
               "operator" : "Geff S.R.L.",
               "brand" : "Api-Ip",
               "fuel:lpg" : null,
               "fuel:cng" : null,
               "fuel:diesel" : "yes",
               "fuel:octane_95" : "yes",
               "ref:mise" : "45247",
               "amenity"  : "fuel"
               }
    }
,
     {
      "id"  : 37243,
      "lat" : 45.96597,
      "lon" : 12.94487,
      "tags" : {
               "operator" : "Snaidero Loris",
               "brand" : "Repsol",
               "fuel:lpg" : "yes",
               "fuel:cng" : null,
               "fuel:diesel" : "yes",
               "fuel:octane_95" : "yes",
               "fuel:octane_100" : "yes",
               "ref:mise" : "37243",
               "amenity"  : "fuel"
               }
    }
,
     {
      "id"  : 26668,
      "lat" : 45.96993,
      "lon" : 13.00117,
      "tags" : {
               "operator" : "Uliana Mariano",
               "brand" : "Esso",
               "fuel:lpg" : null,
               "fuel:cng" : null,
               "fuel:diesel" : "yes",
               "fuel:octane_95" : "yes",
               "ref:mise" : "26668",
               "amenity"  : "fuel"
               }
    }
,
     {
      "id"  : 9575,
      "lat" : 45.96527,
      "lon" : 12.96443,
      "tags" : {
               "operator" : "Tigi S.A.S. di Tribos Giovanni & C.",
               "brand" : "Tamoil",
               "fuel:lpg" : null,
               "fuel:cng" : null,
               "fuel:diesel" : "yes",
               "fuel:octane_95" : "yes",
               "ref:mise" : "9575",
               "amenity"  : "fuel"
               }
    }
,
     {
      "id"  : 16412,
      "lat" : 45.9504,
      "lon" : 12.97329,
      "tags" : {
               "operator" : "B. & B. di Brun Gianfranco e Stefano S.A.S.",
               "brand" : "Total Erg",
               "fuel:lpg" : null,
               "fuel:cng" : null,
               "fuel:diesel" : "yes",
               "fuel:octane_95" : "yes",
               "ref:mise" : "16412",
               "amenity"  : "fuel"
               }
    }
,
     {
      "id"  : 31589,
      "lat" : 46.18815,
      "lon" : 13.11604,
      "tags" : {
               "operator" : "Nuova Sidap S.R.L.",
               "brand" : "Tamoil",
               "fuel:lpg" : null,
               "fuel:cng" : null,
               "fuel:diesel" : "yes",
               "fuel:octane_95" : "yes",
               "fuel:octane_100" : "yes",
               "ref:mise" : "31589",
               "amenity"  : "fuel"
               }
    }
,
     {
      "id"  : 36416,
      "lat" : 46.18585,
      "lon" : 13.11955,
      "tags" : {
               "operator" : "Sarni S.R.L.",
               "brand" : "Sarni Oil",
               "fuel:lpg" : "yes",
               "fuel:cng" : null,
               "fuel:diesel" : "yes",
               "fuel:octane_95" : "yes",
               "ref:mise" : "36416",
               "amenity"  : "fuel"
               }
    }
,
     {
      "id"  : 45405,
      "lat" : 46.1626,
      "lon" : 13.13326,
      "tags" : {
               "operator" : "Servizi Innovativi Nord Est S.R.L.",
               "brand" : "Agip Eni",
               "fuel:lpg" : null,
               "fuel:cng" : null,
               "fuel:diesel" : "yes",
               "fuel:octane_95" : "yes",
               "ref:mise" : "45405",
               "amenity"  : "fuel"
               }
    }
,
     {
      "id"  : 40674,
      "lat" : 46.51501,
      "lon" : 12.86586,
      "tags" : {
               "operator" : "Savors di Menis Cristina e Reputin Vittorio S.N.C. (si Legga L'accento Circonflesso Sulla O Della Parola Savors)",
               "brand" : "Agip Eni",
               "fuel:lpg" : null,
               "fuel:cng" : null,
               "fuel:diesel" : "yes",
               "fuel:octane_95" : "yes",
               "fuel:octane_100" : "yes",
               "ref:mise" : "40674",
               "amenity"  : "fuel"
               }
    }
,
     {
      "id"  : 24821,
      "lat" : 46.00854,
      "lon" : 13.43685,
      "tags" : {
               "operator" : "Mohammad Waqar",
               "brand" : "Api-Ip",
               "fuel:lpg" : null,
               "fuel:cng" : null,
               "fuel:diesel" : "yes",
               "fuel:octane_95" : "yes",
               "ref:mise" : "24821",
               "amenity"  : "fuel"
               }
    }
,
     {
      "id"  : 36503,
      "lat" : 46.08532,
      "lon" : 13.02999,
      "tags" : {
               "operator" : "Singh Nirmal",
               "brand" : "Api-Ip",
               "fuel:lpg" : "yes",
               "fuel:cng" : null,
               "fuel:diesel" : "yes",
               "fuel:octane_95" : "yes",
               "ref:mise" : "36503",
               "amenity"  : "fuel"
               }
    }
,
     {
      "id"  : 13020,
      "lat" : 46.11457,
      "lon" : 12.95758,
      "tags" : {
               "operator" : "Bezzutti Paolo",
               "brand" : "San Marco Petroli",
               "fuel:lpg" : null,
               "fuel:cng" : null,
               "fuel:diesel" : "yes",
               "fuel:octane_95" : "yes",
               "ref:mise" : "13020",
               "amenity"  : "fuel"
               }
    }
,
     {
      "id"  : 26915,
      "lat" : 46.08551,
      "lon" : 12.9565,
      "tags" : {
               "operator" : "Gaspardo Silvano & Serafini S.N.C.",
               "brand" : "Total Erg",
               "fuel:lpg" : "yes",
               "fuel:cng" : null,
               "fuel:diesel" : "yes",
               "fuel:octane_95" : "yes",
               "ref:mise" : "26915",
               "amenity"  : "fuel"
               }
    }
,
     {
      "id"  : 21598,
      "lat" : 46.14981,
      "lon" : 13.34406,
      "tags" : {
               "operator" : "Cg Service di Cattarossi Gianluca",
               "brand" : "Api-Ip",
               "fuel:lpg" : null,
               "fuel:cng" : null,
               "fuel:diesel" : "yes",
               "fuel:octane_95" : "yes",
               "ref:mise" : "21598",
               "amenity"  : "fuel"
               }
    }
,
     {
      "id"  : 23426,
      "lat" : 46.10954,
      "lon" : 13.09016,
      "tags" : {
               "operator" : "Lizzi & C. S.A.S. di Bertuzzi Graziella",
               "brand" : "Esso",
               "fuel:lpg" : null,
               "fuel:cng" : null,
               "fuel:diesel" : "yes",
               "fuel:octane_95" : "yes",
               "ref:mise" : "23426",
               "amenity"  : "fuel"
               }
    }
,
     {
      "id"  : 11076,
      "lat" : 46.10481,
      "lon" : 13.09364,
      "tags" : {
               "operator" : "Stazione Eni di Mazza Giovanni",
               "brand" : "Agip Eni",
               "fuel:lpg" : null,
               "fuel:cng" : null,
               "fuel:diesel" : "yes",
               "fuel:octane_95" : "yes",
               "fuel:octane_100" : "yes",
               "ref:mise" : "11076",
               "amenity"  : "fuel"
               }
    }
,
     {
      "id"  : 3981,
      "lat" : 46.09712,
      "lon" : 13.09075,
      "tags" : {
               "operator" : "Lizzi & C. S.A.S. di Bertuzzi Graziella",
               "brand" : "Esso",
               "fuel:lpg" : null,
               "fuel:cng" : null,
               "fuel:diesel" : "yes",
               "fuel:octane_95" : "yes",
               "ref:mise" : "3981",
               "amenity"  : "fuel"
               }
    }
,
     {
      "id"  : 35319,
      "lat" : 46.09907,
      "lon" : 13.10485,
      "tags" : {
               "operator" : "Lizzi & C. S.A.S. di Bertuzzi Graziella",
               "brand" : "Total Erg",
               "fuel:lpg" : null,
               "fuel:cng" : null,
               "fuel:diesel" : "yes",
               "fuel:octane_95" : "yes",
               "ref:mise" : "35319",
               "amenity"  : "fuel"
               }
    }
,
     {
      "id"  : 17693,
      "lat" : 45.7933,
      "lon" : 13.40593,
      "tags" : {
               "operator" : "C.M. S.N.C. di Cosolo Giorgio & C.",
               "brand" : "Tamoil",
               "fuel:lpg" : null,
               "fuel:cng" : null,
               "fuel:diesel" : "yes",
               "fuel:octane_95" : "yes",
               "ref:mise" : "17693",
               "amenity"  : "fuel"
               }
    }
,
     {
      "id"  : 18677,
      "lat" : 46.21094,
      "lon" : 12.95448,
      "tags" : {
               "operator" : "Dean Mirko",
               "brand" : "Agip Eni",
               "fuel:lpg" : null,
               "fuel:cng" : null,
               "fuel:diesel" : "yes",
               "fuel:octane_95" : "yes",
               "ref:mise" : "18677",
               "amenity"  : "fuel"
               }
    }
,
     {
      "id"  : 41030,
      "lat" : 46.22469,
      "lon" : 13.01092,
      "tags" : {
               "operator" : "Vr Group di Vincenti Christian",
               "brand" : "Api-Ip",
               "fuel:lpg" : null,
               "fuel:cng" : null,
               "fuel:diesel" : "yes",
               "fuel:octane_95" : "yes",
               "ref:mise" : "41030",
               "amenity"  : "fuel"
               }
    }
,
     {
      "id"  : 11271,
      "lat" : 46.58379,
      "lon" : 12.78183,
      "tags" : {
               "operator" : "Enertop S.R.L.",
               "brand" : "Costantin",
               "fuel:lpg" : null,
               "fuel:cng" : null,
               "fuel:diesel" : "yes",
               "fuel:octane_95" : "yes",
               "ref:mise" : "11271",
               "amenity"  : "fuel"
               }
    }
,
     {
      "id"  : 37517,
      "lat" : 46.41742,
      "lon" : 12.5849,
      "tags" : {
               "operator" : "D'Andrea Stefano",
               "brand" : "Api-Ip",
               "fuel:lpg" : null,
               "fuel:cng" : null,
               "fuel:diesel" : "yes",
               "fuel:octane_95" : "yes",
               "ref:mise" : "37517",
               "amenity"  : "fuel"
               }
    }
,
     {
      "id"  : 25544,
      "lat" : 46.2686,
      "lon" : 13.10759,
      "tags" : {
               "operator" : "Cossa Enzo",
               "brand" : "Esso",
               "fuel:lpg" : null,
               "fuel:cng" : null,
               "fuel:octane_95" : "yes",
               "ref:mise" : "25544",
               "amenity"  : "fuel"
               }
    }
,
     {
      "id"  : 11905,
      "lat" : 46.26327,
      "lon" : 13.1079,
      "tags" : {
               "operator" : "Servizi & Gestioni Italia S.R.L.",
               "brand" : "Q8",
               "fuel:lpg" : null,
               "fuel:cng" : null,
               "fuel:diesel" : "yes",
               "fuel:octane_95" : "yes",
               "fuel:octane_100" : "yes",
               "ref:mise" : "11905",
               "amenity"  : "fuel"
               }
    }
,
     {
      "id"  : 20487,
      "lat" : 46.25944,
      "lon" : 13.10216,
      "tags" : {
               "operator" : "Mi.Xo. di Xotto Michele",
               "brand" : "Api-Ip",
               "fuel:lpg" : null,
               "fuel:cng" : null,
               "fuel:diesel" : "yes",
               "fuel:octane_95" : "yes",
               "ref:mise" : "20487",
               "amenity"  : "fuel"
               }
    }
,
     {
      "id"  : 35107,
      "lat" : 46.26807,
      "lon" : 13.11912,
      "tags" : {
               "operator" : "Be.Oil di Fabbro Edoardo & C. S.A.S.",
               "brand" : "Total Erg",
               "fuel:lpg" : null,
               "fuel:cng" : null,
               "fuel:diesel" : "yes",
               "fuel:octane_95" : "yes",
               "ref:mise" : "35107",
               "amenity"  : "fuel"
               }
    }
,
     {
      "id"  : 14213,
      "lat" : 46.28714,
      "lon" : 13.12228,
      "tags" : {
               "operator" : "Zamolo S.A.S. di Zamolo Giulio & C.",
               "brand" : "Agip Eni",
               "fuel:lpg" : null,
               "fuel:cng" : null,
               "fuel:diesel" : "yes",
               "fuel:octane_95" : "yes",
               "fuel:octane_100" : "yes",
               "ref:mise" : "14213",
               "amenity"  : "fuel"
               }
    }
,
     {
      "id"  : 3569,
      "lat" : 45.88242,
      "lon" : 13.25844,
      "tags" : {
               "operator" : "Buldo Orlando",
               "brand" : "Agip Eni",
               "fuel:lpg" : "yes",
               "fuel:cng" : null,
               "fuel:diesel" : "yes",
               "fuel:octane_95" : "yes",
               "fuel:octane_100" : "yes",
               "ref:mise" : "3569",
               "amenity"  : "fuel"
               }
    }
,
     {
      "id"  : 39804,
      "lat" : 45.88171,
      "lon" : 13.25936,
      "tags" : {
               "operator" : "Sarni S.R.L.",
               "brand" : "Sarni Oil",
               "fuel:lpg" : "yes",
               "fuel:cng" : null,
               "fuel:diesel" : "yes",
               "fuel:octane_95" : "yes",
               "ref:mise" : "39804",
               "amenity"  : "fuel"
               }
    }
,
     {
      "id"  : 42794,
      "lat" : 45.89166,
      "lon" : 13.2515,
      "tags" : {
               "operator" : "Savchuk Tetyana",
               "brand" : "Api-Ip",
               "fuel:lpg" : null,
               "fuel:cng" : null,
               "fuel:diesel" : "yes",
               "fuel:octane_95" : "yes",
               "ref:mise" : "42794",
               "amenity"  : "fuel"
               }
    }
,
     {
      "id"  : 5239,
      "lat" : 45.90463,
      "lon" : 13.24639,
      "tags" : {
               "operator" : "San Marco Petroli Distribuzione S.R.L.",
               "brand" : "San Marco Petroli",
               "fuel:lpg" : "yes",
               "fuel:cng" : null,
               "fuel:diesel" : "yes",
               "fuel:octane_95" : "yes",
               "ref:mise" : "5239",
               "amenity"  : "fuel"
               }
    }
,
     {
      "id"  : 28866,
      "lat" : 45.902,
      "lon" : 13.25775,
      "tags" : {
               "operator" : "Ghiraldo Monia",
               "brand" : "Agip Eni",
               "fuel:lpg" : null,
               "fuel:cng" : null,
               "fuel:diesel" : "yes",
               "fuel:octane_95" : "yes",
               "ref:mise" : "28866",
               "amenity"  : "fuel"
               }
    }
,
     {
      "id"  : 4356,
      "lat" : 45.78863,
      "lon" : 13.01325,
      "tags" : {
               "operator" : "Jetrent S.R.L.",
               "brand" : "Api-Ip",
               "fuel:lpg" : "yes",
               "fuel:cng" : null,
               "fuel:diesel" : "yes",
               "fuel:octane_95" : "yes",
               "ref:mise" : "4356",
               "amenity"  : "fuel"
               }
    }
,
     {
      "id"  : 22869,
      "lat" : 45.77165,
      "lon" : 12.99782,
      "tags" : {
               "operator" : "Pighin Attilio",
               "brand" : "Esso",
               "fuel:lpg" : null,
               "fuel:cng" : null,
               "fuel:diesel" : "yes",
               "fuel:octane_95" : "yes",
               "ref:mise" : "22869",
               "amenity"  : "fuel"
               }
    }
,
     {
      "id"  : 16864,
      "lat" : 45.71787,
      "lon" : 13.0499,
      "tags" : {
               "operator" : "Vigolo Maurizio",
               "fuel:lpg" : "yes",
               "fuel:cng" : null,
               "fuel:diesel" : "yes",
               "fuel:octane_95" : "yes",
               "ref:mise" : "16864",
               "amenity"  : "fuel"
               }
    }
,
     {
      "id"  : 15502,
      "lat" : 45.69604,
      "lon" : 13.06873,
      "tags" : {
               "operator" : "Aprilia Marittima 2000 S.P.A.",
               "brand" : "Api-Ip",
               "fuel:lpg" : null,
               "fuel:cng" : null,
               "fuel:diesel" : "yes",
               "fuel:octane_95" : "yes",
               "ref:mise" : "15502",
               "amenity"  : "fuel"
               }
    }
,
     {
      "id"  : 33342,
      "lat" : 45.72216,
      "lon" : 13.04854,
      "tags" : {
               "operator" : "Scer S.N.C. di Beccaro Bellino & C.",
               "brand" : "Api-Ip",
               "fuel:lpg" : null,
               "fuel:cng" : null,
               "fuel:diesel" : "yes",
               "fuel:octane_95" : "yes",
               "ref:mise" : "33342",
               "amenity"  : "fuel"
               }
    }
,
     {
      "id"  : 6502,
      "lat" : 45.77138,
      "lon" : 13.02355,
      "tags" : {
               "operator" : "Servizi & Gestioni Italia S.R.L.",
               "brand" : "Q8",
               "fuel:lpg" : null,
               "fuel:cng" : null,
               "fuel:diesel" : "yes",
               "fuel:octane_95" : "yes",
               "ref:mise" : "6502",
               "amenity"  : "fuel"
               }
    }
,
     {
      "id"  : 39170,
      "lat" : 45.77405,
      "lon" : 13.00258,
      "tags" : {
               "operator" : "Servizi Innovativi Nord Est S.R.L.",
               "brand" : "Agip Eni",
               "fuel:lpg" : null,
               "fuel:cng" : null,
               "fuel:diesel" : "yes",
               "fuel:octane_95" : "yes",
               "fuel:octane_100" : "yes",
               "ref:mise" : "39170",
               "amenity"  : "fuel"
               }
    }
,
     {
      "id"  : 45387,
      "lat" : 45.75966,
      "lon" : 13.02998,
      "tags" : {
               "operator" : "San Marco Petroli Distribuzione S.R.L.",
               "brand" : "San Marco Petroli",
               "fuel:lpg" : "yes",
               "fuel:cng" : null,
               "fuel:diesel" : "yes",
               "fuel:octane_95" : "yes",
               "fuel:octane_101" : "yes",
               "ref:mise" : "45387",
               "amenity"  : "fuel"
               }
    }
,
     {
      "id"  : 29406,
      "lat" : 45.77285,
      "lon" : 12.99726,
      "tags" : {
               "operator" : "Som S.P.A.",
               "brand" : "Total Erg",
               "fuel:lpg" : null,
               "fuel:cng" : null,
               "fuel:diesel" : "yes",
               "fuel:octane_95" : "yes",
               "ref:mise" : "29406",
               "amenity"  : "fuel"
               }
    }
,
     {
      "id"  : 41204,
      "lat" : 45.96978,
      "lon" : 13.11401,
      "tags" : {
               "operator" : "Oberai Kapil",
               "brand" : "Api-Ip",
               "fuel:lpg" : "yes",
               "fuel:cng" : null,
               "fuel:diesel" : "yes",
               "fuel:octane_95" : "yes",
               "ref:mise" : "41204",
               "amenity"  : "fuel"
               }
    }
,
     {
      "id"  : 38395,
      "lat" : 45.69728,
      "lon" : 13.14279,
      "tags" : {
               "operator" : "A.F. Petroli S.P.A.",
               "brand" : "AF Petroli",
               "fuel:lpg" : null,
               "fuel:cng" : null,
               "fuel:diesel" : "yes",
               "fuel:octane_95" : "yes",
               "ref:mise" : "38395",
               "amenity"  : "fuel"
               }
    }
,
     {
      "id"  : 37581,
      "lat" : 45.68994,
      "lon" : 13.1397,
      "tags" : {
               "operator" : "Distributore Agip di Cardillo Vincenzo",
               "brand" : "Agip Eni",
               "fuel:lpg" : null,
               "fuel:cng" : null,
               "fuel:diesel" : "yes",
               "fuel:octane_95" : "yes",
               "fuel:octane_100" : "yes",
               "ref:mise" : "37581",
               "amenity"  : "fuel"
               }
    }
,
     {
      "id"  : 16450,
      "lat" : 45.67385,
      "lon" : 13.08861,
      "tags" : {
               "operator" : "Torresan Massimo",
               "brand" : "Agip Eni",
               "fuel:lpg" : null,
               "fuel:cng" : null,
               "fuel:diesel" : "yes",
               "fuel:octane_95" : "yes",
               "ref:mise" : "16450",
               "amenity"  : "fuel"
               }
    }
,
     {
      "id"  : 36240,
      "lat" : 45.68944,
      "lon" : 13.13295,
      "tags" : {
               "operator" : "Galasso Giorgio",
               "brand" : "Esso",
               "fuel:lpg" : null,
               "fuel:cng" : null,
               "fuel:diesel" : "yes",
               "fuel:octane_95" : "yes",
               "ref:mise" : "36240",
               "amenity"  : "fuel"
               }
    }
,
     {
      "id"  : 38031,
      "lat" : 45.67171,
      "lon" : 13.09107,
      "tags" : {
               "operator" : "Galizio Giorgio & C. S.N.C. di Capelli Joel e Versolatto Simone",
               "brand" : "Esso",
               "fuel:lpg" : null,
               "fuel:cng" : null,
               "fuel:diesel" : "yes",
               "fuel:octane_95" : "yes",
               "ref:mise" : "38031",
               "amenity"  : "fuel"
               }
    }
,
     {
      "id"  : 11908,
      "lat" : 45.66928,
      "lon" : 13.09435,
      "tags" : {
               "operator" : "Servizi & Gestioni Italia S.R.L.",
               "brand" : "Q8",
               "fuel:lpg" : null,
               "fuel:cng" : null,
               "fuel:diesel" : "yes",
               "fuel:octane_95" : "yes",
               "fuel:octane_100" : "yes",
               "ref:mise" : "11908",
               "amenity"  : "fuel"
               }
    }
,
     {
      "id"  : 41120,
      "lat" : 45.68357,
      "lon" : 13.11958,
      "tags" : {
               "operator" : "Zamarian Mario S.A.S. di Zamarian Mario & C.",
               "brand" : "Total Erg",
               "fuel:lpg" : null,
               "fuel:cng" : null,
               "fuel:diesel" : "yes",
               "fuel:octane_95" : "yes",
               "ref:mise" : "41120",
               "amenity"  : "fuel"
               }
    }
,
     {
      "id"  : 31170,
      "lat" : 46.18584,
      "lon" : 13.05916,
      "tags" : {
               "operator" : "Ip Services S.R.L.",
               "brand" : "Api-Ip",
               "fuel:lpg" : null,
               "fuel:cng" : null,
               "fuel:diesel" : "yes",
               "fuel:octane_95" : "yes",
               "ref:mise" : "31170",
               "amenity"  : "fuel"
               }
    }
,
     {
      "id"  : 27141,
      "lat" : 46.18508,
      "lon" : 13.0625,
      "tags" : {
               "operator" : "Franzin Marco",
               "brand" : "Agip Eni",
               "fuel:lpg" : null,
               "fuel:cng" : null,
               "fuel:diesel" : "yes",
               "fuel:octane_95" : "yes",
               "fuel:octane_100" : "yes",
               "ref:mise" : "27141",
               "amenity"  : "fuel"
               }
    }
,
     {
      "id"  : 15693,
      "lat" : 46.17919,
      "lon" : 13.04376,
      "tags" : {
               "operator" : "Venier S.N.C. di Venier Sonia & C.",
               "fuel:lpg" : null,
               "fuel:cng" : null,
               "fuel:diesel" : "yes",
               "fuel:octane_95" : "yes",
               "ref:mise" : "15693",
               "amenity"  : "fuel"
               }
    }
,
     {
      "id"  : 39865,
      "lat" : 46.50633,
      "lon" : 13.43264,
      "tags" : {
               "operator" : "Sabotha Bruna",
               "brand" : "Agip Eni",
               "fuel:lpg" : null,
               "fuel:cng" : null,
               "fuel:diesel" : "yes",
               "fuel:octane_95" : "yes",
               "ref:mise" : "39865",
               "amenity"  : "fuel"
               }
    }
,
     {
      "id"  : 36400,
      "lat" : 46.49868,
      "lon" : 13.37668,
      "tags" : {
               "operator" : "Nuova Sidap S.R.L.",
               "brand" : "Esso",
               "fuel:lpg" : null,
               "fuel:cng" : null,
               "fuel:diesel" : "yes",
               "fuel:octane_95" : "yes",
               "ref:mise" : "36400",
               "amenity"  : "fuel"
               }
    }
,
     {
      "id"  : 8191,
      "lat" : 45.99055,
      "lon" : 13.36521,
      "tags" : {
               "operator" : "Censani Rag. Fabrizio e C. S.N.C.",
               "brand" : "Agip Eni",
               "fuel:lpg" : null,
               "fuel:cng" : null,
               "fuel:diesel" : "yes",
               "fuel:octane_95" : "yes",
               "ref:mise" : "8191",
               "amenity"  : "fuel"
               }
    }
,
     {
      "id"  : 21007,
      "lat" : 46.01463,
      "lon" : 13.38813,
      "tags" : {
               "operator" : "Autofficina di Chiappo Fausto",
               "brand" : "Agip Eni",
               "fuel:lpg" : null,
               "fuel:cng" : null,
               "fuel:diesel" : "yes",
               "fuel:octane_95" : "yes",
               "fuel:octane_100" : "yes",
               "ref:mise" : "21007",
               "amenity"  : "fuel"
               }
    }
,
     {
      "id"  : 10977,
      "lat" : 45.98871,
      "lon" : 13.37605,
      "tags" : {
               "operator" : "Maurizio Mauri",
               "brand" : "Total Erg",
               "fuel:lpg" : null,
               "fuel:cng" : null,
               "fuel:diesel" : "yes",
               "fuel:octane_95" : "yes",
               "ref:mise" : "10977",
               "amenity"  : "fuel"
               }
    }
,
     {
      "id"  : 5238,
      "lat" : 45.98894,
      "lon" : 13.39731,
      "tags" : {
               "operator" : "San Marco Petroli Distribuzione S.R.L.",
               "brand" : "San Marco Petroli",
               "fuel:lpg" : null,
               "fuel:cng" : null,
               "fuel:diesel" : "yes",
               "fuel:octane_95" : "yes",
               "ref:mise" : "5238",
               "amenity"  : "fuel"
               }
    }
,
     {
      "id"  : 34264,
      "lat" : 45.76007,
      "lon" : 13.16565,
      "tags" : {
               "operator" : "A.F. Petroli S.P.A.",
               "brand" : "AF Petroli",
               "fuel:lpg" : null,
               "fuel:cng" : null,
               "fuel:diesel" : "yes",
               "fuel:octane_95" : "yes",
               "ref:mise" : "34264",
               "amenity"  : "fuel"
               }
    }
,
     {
      "id"  : 26817,
      "lat" : 45.76641,
      "lon" : 13.16788,
      "tags" : {
               "operator" : "C.M. di Formentin Italo & C. S.N.C.",
               "brand" : "Agip Eni",
               "fuel:lpg" : null,
               "fuel:cng" : null,
               "fuel:diesel" : "yes",
               "fuel:octane_95" : "yes",
               "fuel:octane_100" : "yes",
               "ref:mise" : "26817",
               "amenity"  : "fuel"
               }
    }
,
     {
      "id"  : 45255,
      "lat" : 46.08248,
      "lon" : 13.17373,
      "tags" : {
               "operator" : "Kaur Amandeep",
               "brand" : "Api-Ip",
               "fuel:lpg" : null,
               "fuel:cng" : null,
               "fuel:diesel" : "yes",
               "fuel:octane_95" : "yes",
               "ref:mise" : "45255",
               "amenity"  : "fuel"
               }
    }
,
     {
      "id"  : 44237,
      "lat" : 46.08266,
      "lon" : 13.17841,
      "tags" : {
               "operator" : "S C S Group di Facca Antonio e C. Snc",
               "brand" : "CONAD",
               "fuel:lpg" : null,
               "fuel:cng" : null,
               "fuel:diesel" : "yes",
               "fuel:octane_95" : "yes",
               "ref:mise" : "44237",
               "amenity"  : "fuel"
               }
    }
,
     {
      "id"  : 7267,
      "lat" : 46.08977,
      "lon" : 13.14483,
      "tags" : {
               "operator" : "Servizi & Gestioni Italia S.R.L.",
               "brand" : "Q8",
               "fuel:lpg" : "yes",
               "fuel:cng" : null,
               "fuel:diesel" : "yes",
               "fuel:octane_95" : "yes",
               "ref:mise" : "7267",
               "amenity"  : "fuel"
               }
    }
,
     {
      "id"  : 30719,
      "lat" : 46.10074,
      "lon" : 13.17282,
      "tags" : {
               "operator" : "Singh Kulvir",
               "brand" : "Api-Ip",
               "fuel:lpg" : "yes",
               "fuel:cng" : null,
               "fuel:diesel" : "yes",
               "fuel:octane_95" : "yes",
               "ref:mise" : "30719",
               "amenity"  : "fuel"
               }
    }
,
     {
      "id"  : 45262,
      "lat" : 46.05193,
      "lon" : 13.05012,
      "tags" : {
               "operator" : "Geff S.R.L.",
               "brand" : "Api-Ip",
               "fuel:lpg" : null,
               "fuel:cng" : null,
               "fuel:diesel" : "yes",
               "fuel:octane_95" : "yes",
               "ref:mise" : "45262",
               "amenity"  : "fuel"
               }
    }
,
     {
      "id"  : 38527,
      "lat" : 46.39845,
      "lon" : 13.16726,
      "tags" : {
               "operator" : "Sarni S.R.L.",
               "brand" : "Sarni Oil",
               "fuel:lpg" : null,
               "fuel:cng" : null,
               "fuel:diesel" : "yes",
               "fuel:octane_95" : "yes",
               "ref:mise" : "38527",
               "amenity"  : "fuel"
               }
    }
,
     {
      "id"  : 44488,
      "lat" : 46.08595,
      "lon" : 13.36297,
      "tags" : {
               "operator" : "Casella Lucia",
               "brand" : "Total Erg",
               "fuel:lpg" : null,
               "fuel:cng" : null,
               "fuel:diesel" : "yes",
               "fuel:octane_95" : "yes",
               "ref:mise" : "44488",
               "amenity"  : "fuel"
               }
    }
,
     {
      "id"  : 14665,
      "lat" : 45.96487,
      "lon" : 13.19233,
      "tags" : {
               "operator" : "Bidoli Devis",
               "brand" : "Agip Eni",
               "fuel:lpg" : "yes",
               "fuel:cng" : null,
               "fuel:diesel" : "yes",
               "fuel:octane_95" : "yes",
               "ref:mise" : "14665",
               "amenity"  : "fuel"
               }
    }
,
     {
      "id"  : 31152,
      "lat" : 45.94455,
      "lon" : 13.1771,
      "tags" : {
               "operator" : "Gattesco F.lli di Gattesco Ferruccio e Fiorenzo Snc",
               "brand" : "Esso",
               "fuel:lpg" : null,
               "fuel:cng" : null,
               "fuel:diesel" : "yes",
               "fuel:octane_95" : "yes",
               "ref:mise" : "31152",
               "amenity"  : "fuel"
               }
    }
,
     {
      "id"  : 16952,
      "lat" : 45.94192,
      "lon" : 13.16793,
      "tags" : {
               "operator" : "Pascut Gabriele",
               "brand" : "Total Erg",
               "fuel:lpg" : null,
               "fuel:cng" : null,
               "fuel:diesel" : "yes",
               "fuel:octane_95" : "yes",
               "ref:mise" : "16952",
               "amenity"  : "fuel"
               }
    }
,
     {
      "id"  : 35710,
      "lat" : 45.93207,
      "lon" : 13.14648,
      "tags" : {
               "operator" : "Coppino Mattia",
               "brand" : "Repsol",
               "fuel:lpg" : "yes",
               "fuel:cng" : null,
               "fuel:diesel" : "yes",
               "fuel:octane_95" : "yes",
               "ref:mise" : "35710",
               "amenity"  : "fuel"
               }
    }
,
     {
      "id"  : 16077,
      "lat" : 46.20066,
      "lon" : 13.26425,
      "tags" : {
               "operator" : "Migueletto Raul Guillermo",
               "brand" : "Api-Ip",
               "fuel:lpg" : null,
               "fuel:cng" : null,
               "fuel:diesel" : "yes",
               "fuel:octane_95" : "yes",
               "ref:mise" : "16077",
               "amenity"  : "fuel"
               }
    }
,
     {
      "id"  : 16630,
      "lat" : 46.19487,
      "lon" : 13.25692,
      "tags" : {
               "operator" : "Meneghin Federico e C. Snc",
               "brand" : "Agip Eni",
               "fuel:lpg" : null,
               "fuel:cng" : null,
               "fuel:diesel" : "yes",
               "fuel:octane_95" : "yes",
               "ref:mise" : "16630",
               "amenity"  : "fuel"
               }
    }
,
     {
      "id"  : 36921,
      "lat" : 46.23586,
      "lon" : 13.07517,
      "tags" : {
               "operator" : "Be.Oil di Fabbro Edoardo & C. S.A.S.",
               "brand" : "Esso",
               "fuel:lpg" : null,
               "fuel:cng" : null,
               "fuel:diesel" : "yes",
               "fuel:octane_95" : "yes",
               "ref:mise" : "36921",
               "amenity"  : "fuel"
               }
    }
,
     {
      "id"  : 43101,
      "lat" : 46.48711,
      "lon" : 12.8648,
      "tags" : {
               "operator" : "Cimenti Cristian",
               "brand" : "Api-Ip",
               "fuel:lpg" : null,
               "fuel:cng" : null,
               "fuel:diesel" : "yes",
               "fuel:octane_95" : "yes",
               "ref:mise" : "43101",
               "amenity"  : "fuel"
               }
    }
,
     {
      "id"  : 39053,
      "lat" : 46.47888,
      "lon" : 12.86772,
      "tags" : {
               "operator" : "San Marco Petroli Distribuzione S.R.L.",
               "brand" : "San Marco Petroli",
               "fuel:lpg" : null,
               "fuel:cng" : null,
               "fuel:diesel" : "yes",
               "fuel:octane_95" : "yes",
               "ref:mise" : "39053",
               "amenity"  : "fuel"
               }
    }
,
     {
      "id"  : 40554,
      "lat" : 46.09296,
      "lon" : 13.19188,
      "tags" : {
               "operator" : "Quaglia Cristina",
               "brand" : "Agip Eni",
               "fuel:lpg" : "yes",
               "fuel:cng" : null,
               "fuel:diesel" : "yes",
               "fuel:octane_95" : "yes",
               "fuel:octane_100" : "yes",
               "ref:mise" : "40554",
               "amenity"  : "fuel"
               }
    }
,
     {
      "id"  : 37002,
      "lat" : 46.1221,
      "lon" : 13.18874,
      "tags" : {
               "operator" : "Tiemme Service S.A.S. di Tribos Daniele Sebastiano & C.",
               "brand" : "Tamoil",
               "fuel:lpg" : null,
               "fuel:cng" : null,
               "fuel:diesel" : "yes",
               "fuel:octane_95" : "yes",
               "ref:mise" : "37002",
               "amenity"  : "fuel"
               }
    }
,
     {
      "id"  : 22031,
      "lat" : 45.80533,
      "lon" : 13.08601,
      "tags" : {
               "operator" : "Movio Fiorenzo",
               "brand" : "Api-Ip",
               "fuel:lpg" : null,
               "fuel:cng" : null,
               "fuel:diesel" : "yes",
               "fuel:octane_95" : "yes",
               "ref:mise" : "22031",
               "amenity"  : "fuel"
               }
    }
,
     {
      "id"  : 28891,
      "lat" : 45.80785,
      "lon" : 13.09443,
      "tags" : {
               "operator" : "Zu.Pe. S.N.C. di Zuliani Maurizio & C.",
               "brand" : "Q8",
               "fuel:lpg" : "yes",
               "fuel:cng" : null,
               "fuel:diesel" : "yes",
               "fuel:octane_95" : "yes",
               "ref:mise" : "28891",
               "amenity"  : "fuel"
               }
    }
,
     {
      "id"  : 20014,
      "lat" : 45.89518,
      "lon" : 13.30928,
      "tags" : {
               "operator" : "Zanello Giulio",
               "brand" : "Agip Eni",
               "fuel:lpg" : null,
               "fuel:cng" : null,
               "fuel:diesel" : "yes",
               "fuel:octane_95" : "yes",
               "ref:mise" : "20014",
               "amenity"  : "fuel"
               }
    }
,
     {
      "id"  : 14695,
      "lat" : 46.51105,
      "lon" : 13.00216,
      "tags" : {
               "operator" : "Moro Miria",
               "brand" : "Tamoil",
               "fuel:lpg" : null,
               "fuel:cng" : null,
               "fuel:diesel" : "yes",
               "fuel:octane_95" : "yes",
               "ref:mise" : "14695",
               "amenity"  : "fuel"
               }
    }
,
     {
      "id"  : 29762,
      "lat" : 46.5266,
      "lon" : 13.0127,
      "tags" : {
               "operator" : "I.S. Industria Servizi S.A.S. di Azzalini Mario",
               "brand" : "Oil Italia",
               "fuel:lpg" : null,
               "fuel:cng" : null,
               "fuel:diesel" : "yes",
               "fuel:octane_95" : "yes",
               "ref:mise" : "29762",
               "amenity"  : "fuel"
               }
    }
,
     {
      "id"  : 11907,
      "lat" : 46.04336,
      "lon" : 13.19258,
      "tags" : {
               "operator" : "Servizi & Gestioni Italia S.R.L.",
               "brand" : "Q8",
               "fuel:lpg" : null,
               "fuel:cng" : null,
               "fuel:diesel" : "yes",
               "fuel:octane_95" : "yes",
               "ref:mise" : "11907",
               "amenity"  : "fuel"
               }
    }
,
     {
      "id"  : 33531,
      "lat" : 46.0461,
      "lon" : 13.19622,
      "tags" : {
               "operator" : "Rodaro Enzo & C. S.N.C.",
               "brand" : "Agip Eni",
               "fuel:lpg" : null,
               "fuel:cng" : null,
               "fuel:diesel" : "yes",
               "fuel:octane_95" : "yes",
               "fuel:octane_100" : "yes",
               "ref:mise" : "33531",
               "amenity"  : "fuel"
               }
    }
,
     {
      "id"  : 10570,
      "lat" : 46.52735,
      "lon" : 13.11934,
      "tags" : {
               "operator" : "Matiz Alberto",
               "brand" : "Api-Ip",
               "fuel:lpg" : null,
               "fuel:cng" : null,
               "fuel:diesel" : "yes",
               "fuel:octane_95" : "yes",
               "ref:mise" : "10570",
               "amenity"  : "fuel"
               }
    }
,
     {
      "id"  : 38130,
      "lat" : 45.97465,
      "lon" : 13.32344,
      "tags" : {
               "operator" : "Auto Metano Udine di Rosso Cristian & C. Sas",
               "brand" : "Agip Eni",
               "fuel:lpg" : null,
               "fuel:cng" : null,
               "fuel:diesel" : "yes",
               "fuel:octane_95" : "yes",
               "ref:mise" : "38130",
               "amenity"  : "fuel"
               }
    }
,
     {
      "id"  : 25828,
      "lat" : 46.00015,
      "lon" : 13.27405,
      "tags" : {
               "operator" : "Ip Services S.R.L.",
               "brand" : "Api-Ip",
               "fuel:lpg" : null,
               "fuel:cng" : null,
               "fuel:diesel" : "yes",
               "fuel:octane_95" : "yes",
               "ref:mise" : "25828",
               "amenity"  : "fuel"
               }
    }
,
     {
      "id"  : 25885,
      "lat" : 45.84145,
      "lon" : 13.09714,
      "tags" : {
               "operator" : "Zanini Milvia",
               "brand" : "Agip Eni",
               "fuel:lpg" : "yes",
               "fuel:cng" : null,
               "fuel:diesel" : "yes",
               "fuel:octane_95" : "yes",
               "ref:mise" : "25885",
               "amenity"  : "fuel"
               }
    }
,
     {
      "id"  : 16933,
      "lat" : 46.50073,
      "lon" : 13.30168,
      "tags" : {
               "operator" : "Agnola Mario",
               "brand" : "Total Erg",
               "fuel:lpg" : null,
               "fuel:cng" : null,
               "fuel:diesel" : "yes",
               "fuel:octane_95" : "yes",
               "ref:mise" : "16933",
               "amenity"  : "fuel"
               }
    }
,
     {
      "id"  : 23802,
      "lat" : 45.84789,
      "lon" : 13.21277,
      "tags" : {
               "operator" : "Stazione di Servizio di Tavaris Stefano",
               "brand" : "Api-Ip",
               "fuel:lpg" : null,
               "fuel:cng" : null,
               "fuel:diesel" : "yes",
               "fuel:octane_95" : "yes",
               "ref:mise" : "23802",
               "amenity"  : "fuel"
               }
    }
,
     {
      "id"  : 30162,
      "lat" : 46.15385,
      "lon" : 13.29136,
      "tags" : {
               "operator" : "Pecile Luigino",
               "brand" : "Agip Eni",
               "fuel:lpg" : null,
               "fuel:cng" : null,
               "fuel:diesel" : "yes",
               "fuel:octane_95" : "yes",
               "ref:mise" : "30162",
               "amenity"  : "fuel"
               }
    }
,
     {
      "id"  : 30690,
      "lat" : 46.09685,
      "lon" : 13.28871,
      "tags" : {
               "operator" : "Duegi S.A.S. di Gattesco Luca e C.",
               "brand" : "Q8",
               "fuel:lpg" : "yes",
               "fuel:cng" : null,
               "fuel:diesel" : "yes",
               "fuel:octane_95" : "yes",
               "ref:mise" : "30690",
               "amenity"  : "fuel"
               }
    }
,
     {
      "id"  : 17626,
      "lat" : 46.00922,
      "lon" : 13.2534,
      "tags" : {
               "operator" : "Moschione Loris",
               "brand" : "Agip Eni",
               "fuel:lpg" : null,
               "fuel:cng" : null,
               "fuel:diesel" : "yes",
               "fuel:octane_95" : "yes",
               "fuel:octane_100" : "yes",
               "ref:mise" : "17626",
               "amenity"  : "fuel"
               }
    }
,
     {
      "id"  : 36989,
      "lat" : 45.97698,
      "lon" : 13.19835,
      "tags" : {
               "operator" : "Ip Services S.R.L.",
               "brand" : "Total Erg",
               "fuel:lpg" : null,
               "fuel:cng" : null,
               "fuel:diesel" : "yes",
               "fuel:octane_95" : "yes",
               "ref:mise" : "36989",
               "amenity"  : "fuel"
               }
    }
,
     {
      "id"  : 17483,
      "lat" : 46.00154,
      "lon" : 13.20678,
      "tags" : {
               "operator" : "Piccini Leonardo",
               "brand" : "Api-Ip",
               "fuel:lpg" : null,
               "fuel:cng" : null,
               "fuel:diesel" : "yes",
               "fuel:octane_95" : "yes",
               "ref:mise" : "17483",
               "amenity"  : "fuel"
               }
    }
,
     {
      "id"  : 40344,
      "lat" : 46.01573,
      "lon" : 13.21906,
      "tags" : {
               "operator" : "Sarni S.R.L.",
               "brand" : "Sarni Oil",
               "fuel:lpg" : null,
               "fuel:cng" : null,
               "fuel:diesel" : "yes",
               "fuel:octane_95" : "yes",
               "ref:mise" : "40344",
               "amenity"  : "fuel"
               }
    }
,
     {
      "id"  : 40343,
      "lat" : 46.01475,
      "lon" : 13.21841,
      "tags" : {
               "operator" : "Sarni S.R.L.",
               "brand" : "Sarni Oil",
               "fuel:lpg" : null,
               "fuel:cng" : null,
               "fuel:diesel" : "yes",
               "fuel:octane_95" : "yes",
               "ref:mise" : "40343",
               "amenity"  : "fuel"
               }
    }
,
     {
      "id"  : 35273,
      "lat" : 46.0295,
      "lon" : 13.28414,
      "tags" : {
               "operator" : "Auto Metano Udine di Rosso Cristian & C. Sas",
               "brand" : "Agip Eni",
               "fuel:lpg" : "yes",
               "fuel:cng" : null,
               "fuel:diesel" : "yes",
               "fuel:octane_95" : "yes",
               "fuel:octane_100" : "yes",
               "ref:mise" : "35273",
               "amenity"  : "fuel"
               }
    }
,
     {
      "id"  : 7293,
      "lat" : 46.02313,
      "lon" : 13.27249,
      "tags" : {
               "operator" : "Servizi & Gestioni Italia S.R.L.",
               "brand" : "Q8",
               "fuel:lpg" : "yes",
               "fuel:cng" : null,
               "fuel:diesel" : "yes",
               "fuel:octane_95" : "yes",
               "ref:mise" : "7293",
               "amenity"  : "fuel"
               }
    }
,
     {
      "id"  : 7268,
      "lat" : 45.79413,
      "lon" : 13.03148,
      "tags" : {
               "operator" : "Servizi & Gestioni Italia S.R.L.",
               "brand" : "Q8",
               "fuel:lpg" : "yes",
               "fuel:cng" : null,
               "fuel:diesel" : "yes",
               "fuel:octane_95" : "yes",
               "fuel:octane_100" : "yes",
               "ref:mise" : "7268",
               "amenity"  : "fuel"
               }
    }
,
     {
      "id"  : 44451,
      "lat" : 46.05864,
      "lon" : 13.38278,
      "tags" : {
               "operator" : "Kaur Davinderdeep",
               "brand" : "Api-Ip",
               "fuel:lpg" : null,
               "fuel:cng" : null,
               "fuel:diesel" : "yes",
               "fuel:octane_95" : "yes",
               "ref:mise" : "44451",
               "amenity"  : "fuel"
               }
    }
,
     {
      "id"  : 39018,
      "lat" : 46.13657,
      "lon" : 13.22229,
      "tags" : {
               "operator" : "Ghulam Kharian di Ahmed Waqas Sas",
               "brand" : "Api-Ip",
               "fuel:lpg" : "yes",
               "fuel:cng" : null,
               "fuel:diesel" : "yes",
               "fuel:octane_95" : "yes",
               "ref:mise" : "39018",
               "amenity"  : "fuel"
               }
    }
,
     {
      "id"  : 7433,
      "lat" : 46.16337,
      "lon" : 13.25634,
      "tags" : {
               "operator" : "Fioritto Luciano",
               "brand" : "Api-Ip",
               "fuel:lpg" : null,
               "fuel:cng" : null,
               "fuel:diesel" : "yes",
               "fuel:octane_95" : "yes",
               "ref:mise" : "7433",
               "amenity"  : "fuel"
               }
    }
,
     {
      "id"  : 8854,
      "lat" : 46.13977,
      "lon" : 13.22169,
      "tags" : {
               "operator" : "Polli Cristian",
               "brand" : "Agip Eni",
               "fuel:lpg" : null,
               "fuel:cng" : null,
               "fuel:diesel" : "yes",
               "fuel:octane_95" : "yes",
               "ref:mise" : "8854",
               "amenity"  : "fuel"
               }
    }
,
     {
      "id"  : 13865,
      "lat" : 46.15812,
      "lon" : 13.24365,
      "tags" : {
               "operator" : "Tiemme Service S.A.S. di Tribos Daniele Sebastiano & C.",
               "fuel:lpg" : null,
               "fuel:cng" : null,
               "fuel:diesel" : "yes",
               "fuel:octane_95" : "yes",
               "ref:mise" : "13865",
               "amenity"  : "fuel"
               }
    }
,
     {
      "id"  : 5077,
      "lat" : 46.07873,
      "lon" : 13.30114,
      "tags" : {
               "operator" : "Bieffe di Policella Roberto & C. Snc",
               "brand" : "San Marco Petroli",
               "fuel:lpg" : null,
               "fuel:cng" : null,
               "fuel:diesel" : "yes",
               "fuel:octane_95" : "yes",
               "fuel:octane_101" : "yes",
               "ref:mise" : "5077",
               "amenity"  : "fuel"
               }
    }
,
     {
      "id"  : 35999,
      "lat" : 46.06083,
      "lon" : 13.31113,
      "tags" : {
               "operator" : "Gattesco Luca",
               "brand" : "Esso",
               "fuel:lpg" : null,
               "fuel:cng" : null,
               "fuel:diesel" : "yes",
               "fuel:octane_95" : "yes",
               "ref:mise" : "35999",
               "amenity"  : "fuel"
               }
    }
,
     {
      "id"  : 20244,
      "lat" : 46.39501,
      "lon" : 13.2153,
      "tags" : {
               "operator" : "Moretti Giovanni",
               "brand" : "Esso",
               "fuel:lpg" : null,
               "fuel:cng" : null,
               "fuel:diesel" : "yes",
               "fuel:octane_95" : "yes",
               "ref:mise" : "20244",
               "amenity"  : "fuel"
               }
    }
,
     {
      "id"  : 13270,
      "lat" : 46.54906,
      "lon" : 12.85428,
      "tags" : {
               "operator" : "Pochero Roberto",
               "brand" : "Api-Ip",
               "fuel:lpg" : null,
               "fuel:cng" : null,
               "fuel:diesel" : "yes",
               "fuel:octane_95" : "yes",
               "ref:mise" : "13270",
               "amenity"  : "fuel"
               }
    }
,
     {
      "id"  : 35819,
      "lat" : 46.12107,
      "lon" : 13.0008,
      "tags" : {
               "operator" : "Singh Manjit",
               "brand" : "Api-Ip",
               "fuel:lpg" : "yes",
               "fuel:cng" : null,
               "fuel:diesel" : "yes",
               "fuel:octane_95" : "yes",
               "ref:mise" : "35819",
               "amenity"  : "fuel"
               }
    }
,
     {
      "id"  : 27651,
      "lat" : 45.89021,
      "lon" : 13.03475,
      "tags" : {
               "operator" : "Degano Cesare",
               "brand" : "Api-Ip",
               "fuel:lpg" : "yes",
               "fuel:cng" : null,
               "fuel:diesel" : "yes",
               "fuel:octane_95" : "yes",
               "ref:mise" : "27651",
               "amenity"  : "fuel"
               }
    }
,
     {
      "id"  : 27995,
      "lat" : 45.81146,
      "lon" : 13.0054,
      "tags" : {
               "operator" : "De Paoli Silvio & C. S.N.C.",
               "brand" : "Api-Ip",
               "fuel:lpg" : null,
               "fuel:cng" : null,
               "fuel:diesel" : "yes",
               "fuel:octane_95" : "yes",
               "ref:mise" : "27995",
               "amenity"  : "fuel"
               }
    }
,
     {
      "id"  : 41984,
      "lat" : 45.81146,
      "lon" : 13.0054,
      "tags" : {
               "operator" : "De Paoli Silvio & C. S.N.C.",
               "brand" : "Api-Ip",
               "fuel:lpg" : "yes",
               "fuel:cng" : null,
               "fuel:diesel" : "yes",
               "fuel:octane_95" : "yes",
               "ref:mise" : "41984",
               "amenity"  : "fuel"
               }
    }
,
     {
      "id"  : 23352,
      "lat" : 45.7978,
      "lon" : 12.99371,
      "tags" : {
               "operator" : "San Marco Petroli Distribuzione S.R.L.",
               "brand" : "San Marco Petroli",
               "fuel:lpg" : null,
               "fuel:cng" : null,
               "fuel:diesel" : "yes",
               "fuel:octane_95" : "yes",
               "ref:mise" : "23352",
               "amenity"  : "fuel"
               }
    }
,
     {
      "id"  : 15517,
      "lat" : 45.82792,
      "lon" : 13.40123,
      "tags" : {
               "operator" : "Singh Gurdial",
               "brand" : "Api-Ip",
               "fuel:lpg" : "yes",
               "fuel:cng" : null,
               "fuel:diesel" : "yes",
               "fuel:octane_95" : "yes",
               "ref:mise" : "15517",
               "amenity"  : "fuel"
               }
    }
,
     {
      "id"  : 4238,
      "lat" : 46.1487,
      "lon" : 12.98891,
      "tags" : {
               "operator" : "Buttazzoni Aleardo di Moroso Paolo & C. S.A.S",
               "brand" : "Agip Eni",
               "fuel:lpg" : "yes",
               "fuel:cng" : null,
               "fuel:diesel" : "yes",
               "fuel:octane_95" : "yes",
               "fuel:octane_100" : "yes",
               "ref:mise" : "4238",
               "amenity"  : "fuel"
               }
    }
,
     {
      "id"  : 44939,
      "lat" : 46.14415,
      "lon" : 12.97884,
      "tags" : {
               "operator" : "Andreutti Riccardo",
               "brand" : "Esso",
               "fuel:lpg" : null,
               "fuel:cng" : null,
               "fuel:diesel" : "yes",
               "fuel:octane_95" : "yes",
               "ref:mise" : "44939",
               "amenity"  : "fuel"
               }
    }
,
     {
      "id"  : 9834,
      "lat" : 46.16067,
      "lon" : 13.0033,
      "tags" : {
               "operator" : "Fioretto Mario",
               "brand" : "Esso",
               "fuel:lpg" : null,
               "fuel:cng" : null,
               "fuel:diesel" : "yes",
               "fuel:octane_95" : "yes",
               "ref:mise" : "9834",
               "amenity"  : "fuel"
               }
    }
,
     {
      "id"  : 10193,
      "lat" : 46.15252,
      "lon" : 13.00873,
      "tags" : {
               "operator" : "Ornella Michele",
               "brand" : "Esso",
               "fuel:lpg" : null,
               "fuel:cng" : null,
               "fuel:diesel" : "yes",
               "fuel:octane_95" : "yes",
               "ref:mise" : "10193",
               "amenity"  : "fuel"
               }
    }
,
     {
      "id"  : 42415,
      "lat" : 45.80281,
      "lon" : 13.22762,
      "tags" : {
               "operator" : "Cantieri Marina San Giorgio S.P.A.",
               "fuel:lpg" : null,
               "fuel:cng" : null,
               "fuel:diesel" : "yes",
               "fuel:octane_95" : "yes",
               "ref:mise" : "42415",
               "amenity"  : "fuel"
               }
    }
,
     {
      "id"  : 45246,
      "lat" : 45.83438,
      "lon" : 13.19393,
      "tags" : {
               "operator" : "Geff S.R.L.",
               "brand" : "Agip Eni",
               "fuel:lpg" : null,
               "fuel:cng" : null,
               "fuel:diesel" : "yes",
               "fuel:octane_95" : "yes",
               "fuel:octane_100" : "yes",
               "ref:mise" : "45246",
               "amenity"  : "fuel"
               }
    }
,
     {
      "id"  : 27646,
      "lat" : 45.82771,
      "lon" : 13.23862,
      "tags" : {
               "operator" : "Ylli Service S.N.C. di Hasramaj Ylli e C.",
               "brand" : "Esso",
               "fuel:lpg" : null,
               "fuel:cng" : null,
               "fuel:diesel" : "yes",
               "fuel:octane_95" : "yes",
               "ref:mise" : "27646",
               "amenity"  : "fuel"
               }
    }
,
     {
      "id"  : 12287,
      "lat" : 45.83793,
      "lon" : 13.21153,
      "tags" : {
               "operator" : "Pez Diego",
               "brand" : "Agip Eni",
               "fuel:lpg" : null,
               "fuel:cng" : null,
               "fuel:diesel" : "yes",
               "fuel:octane_95" : "yes",
               "fuel:octane_100" : "yes",
               "ref:mise" : "12287",
               "amenity"  : "fuel"
               }
    }
,
     {
      "id"  : 7283,
      "lat" : 45.82234,
      "lon" : 13.21508,
      "tags" : {
               "operator" : "Servizi & Gestioni Italia S.R.L.",
               "brand" : "Q8",
               "fuel:lpg" : "yes",
               "fuel:cng" : null,
               "fuel:diesel" : "yes",
               "fuel:octane_95" : "yes",
               "fuel:octane_100" : "yes",
               "ref:mise" : "7283",
               "amenity"  : "fuel"
               }
    }
,
     {
      "id"  : 24846,
      "lat" : 45.97354,
      "lon" : 13.39618,
      "tags" : {
               "operator" : "B & T S.N.C. di Bonessi M. & C.",
               "brand" : "Esso",
               "fuel:lpg" : null,
               "fuel:cng" : null,
               "fuel:diesel" : "yes",
               "fuel:octane_95" : "yes",
               "ref:mise" : "24846",
               "amenity"  : "fuel"
               }
    }
,
     {
      "id"  : 44130,
      "lat" : 45.98391,
      "lon" : 13.40527,
      "tags" : {
               "operator" : "Be.Oil di Fabbro Edoardo & C. S.A.S.",
               "brand" : "Esso",
               "fuel:lpg" : null,
               "fuel:cng" : null,
               "fuel:diesel" : "yes",
               "fuel:octane_95" : "yes",
               "ref:mise" : "44130",
               "amenity"  : "fuel"
               }
    }
,
     {
      "id"  : 44945,
      "lat" : 45.95404,
      "lon" : 13.39472,
      "tags" : {
               "operator" : "Set Società a Responsabilità Limitata",
               "brand" : "Esso",
               "fuel:lpg" : null,
               "fuel:cng" : null,
               "fuel:diesel" : "yes",
               "fuel:octane_95" : "yes",
               "ref:mise" : "44945",
               "amenity"  : "fuel"
               }
    }
,
     {
      "id"  : 13037,
      "lat" : 46.11539,
      "lon" : 13.50535,
      "tags" : {
               "operator" : "Terlicher Antonio & C. S.N.C.",
               "brand" : "Agip Eni",
               "fuel:lpg" : null,
               "fuel:cng" : null,
               "fuel:diesel" : "yes",
               "fuel:octane_95" : "yes",
               "ref:mise" : "13037",
               "amenity"  : "fuel"
               }
    }
,
     {
      "id"  : 28207,
      "lat" : 45.89208,
      "lon" : 13.37806,
      "tags" : {
               "operator" : "Tiemme Service S.A.S. di Tribos Daniele Sebastiano & C.",
               "fuel:lpg" : null,
               "fuel:cng" : null,
               "fuel:diesel" : "yes",
               "fuel:octane_95" : "yes",
               "fuel:octane_100" : "yes",
               "ref:mise" : "28207",
               "amenity"  : "fuel"
               }
    }
,
     {
      "id"  : 9179,
      "lat" : 46.09265,
      "lon" : 13.073,
      "tags" : {
               "operator" : "Lb di Lauzzana Rita",
               "fuel:lpg" : null,
               "fuel:cng" : null,
               "fuel:diesel" : "yes",
               "fuel:octane_95" : "yes",
               "ref:mise" : "9179",
               "amenity"  : "fuel"
               }
    }
,
     {
      "id"  : 25701,
      "lat" : 45.93117,
      "lon" : 13.27886,
      "tags" : {
               "operator" : "Spangaro Stefano e C. S.A.S.",
               "fuel:lpg" : null,
               "fuel:cng" : null,
               "fuel:diesel" : "yes",
               "fuel:octane_95" : "yes",
               "ref:mise" : "25701",
               "amenity"  : "fuel"
               }
    }
,
     {
      "id"  : 14643,
      "lat" : 46.02695,
      "lon" : 12.93728,
      "tags" : {
               "operator" : "Da Angela di Fabris Giacomino & C. - S.A.S.",
               "brand" : "Agip Eni",
               "fuel:lpg" : null,
               "fuel:cng" : null,
               "fuel:diesel" : "yes",
               "fuel:octane_95" : "yes",
               "ref:mise" : "14643",
               "amenity"  : "fuel"
               }
    }
,
     {
      "id"  : 22903,
      "lat" : 45.99731,
      "lon" : 12.96808,
      "tags" : {
               "operator" : "Porfido S.N.C. di Porfido Claudio & C.",
               "brand" : "Tamoil",
               "fuel:lpg" : null,
               "fuel:cng" : null,
               "fuel:diesel" : "yes",
               "fuel:octane_95" : "yes",
               "ref:mise" : "22903",
               "amenity"  : "fuel"
               }
    }
,
     {
      "id"  : 33487,
      "lat" : 46.4034,
      "lon" : 12.82372,
      "tags" : {
               "operator" : "Bar Alla Posta di Pacelli Giovanni",
               "brand" : "Api-Ip",
               "fuel:lpg" : null,
               "fuel:cng" : null,
               "fuel:diesel" : "yes",
               "fuel:octane_95" : "yes",
               "ref:mise" : "33487",
               "amenity"  : "fuel"
               }
    }
,
     {
      "id"  : 39519,
      "lat" : 45.93872,
      "lon" : 13.12035,
      "tags" : {
               "operator" : "Plus Service di De Paoli Marco & C. S.N.C.",
               "brand" : "Esso",
               "fuel:lpg" : null,
               "fuel:cng" : null,
               "fuel:diesel" : "yes",
               "fuel:octane_95" : "yes",
               "ref:mise" : "39519",
               "amenity"  : "fuel"
               }
    }
,
     {
      "id"  : 43804,
      "lat" : 45.94308,
      "lon" : 13.10048,
      "tags" : {
               "operator" : "Kumar Sanjeev & Tirath Ram S.N.C.",
               "brand" : "Api-Ip",
               "fuel:lpg" : "yes",
               "fuel:cng" : null,
               "fuel:diesel" : "yes",
               "fuel:octane_95" : "yes",
               "ref:mise" : "43804",
               "amenity"  : "fuel"
               }
    }
,
     {
      "id"  : 10567,
      "lat" : 46.2126,
      "lon" : 13.21265,
      "tags" : {
               "operator" : "Astolfi Marco",
               "brand" : "Agip Eni",
               "fuel:lpg" : null,
               "fuel:cng" : null,
               "fuel:diesel" : "yes",
               "fuel:octane_95" : "yes",
               "ref:mise" : "10567",
               "amenity"  : "fuel"
               }
    }
,
     {
      "id"  : 31546,
      "lat" : 46.20619,
      "lon" : 13.18826,
      "tags" : {
               "operator" : "Toffolo Gianluca",
               "brand" : "Agip Eni",
               "fuel:lpg" : "yes",
               "fuel:cng" : null,
               "fuel:diesel" : "yes",
               "fuel:octane_95" : "yes",
               "ref:mise" : "31546",
               "amenity"  : "fuel"
               }
    }
,
     {
      "id"  : 39125,
      "lat" : 46.50618,
      "lon" : 13.5652,
      "tags" : {
               "operator" : "Collini Mauro",
               "brand" : "Agip Eni",
               "fuel:lpg" : null,
               "fuel:cng" : null,
               "fuel:diesel" : "yes",
               "fuel:octane_95" : "yes",
               "ref:mise" : "39125",
               "amenity"  : "fuel"
               }
    }
,
     {
      "id"  : 40572,
      "lat" : 46.5055,
      "lon" : 13.56922,
      "tags" : {
               "operator" : "Autostazione Rifornimenti S.N.C. di Del Ross Alberto & C.",
               "brand" : "Esso",
               "fuel:lpg" : null,
               "fuel:cng" : null,
               "fuel:diesel" : "yes",
               "fuel:octane_95" : "yes",
               "ref:mise" : "40572",
               "amenity"  : "fuel"
               }
    }
,
     {
      "id"  : 41516,
      "lat" : 46.09704,
      "lon" : 13.19753,
      "tags" : {
               "operator" : "Chand Lal",
               "brand" : "Api-Ip",
               "fuel:lpg" : "yes",
               "fuel:cng" : null,
               "fuel:diesel" : "yes",
               "fuel:octane_95" : "yes",
               "ref:mise" : "41516",
               "amenity"  : "fuel"
               }
    }
,
     {
      "id"  : 7772,
      "lat" : 46.10461,
      "lon" : 13.22948,
      "tags" : {
               "operator" : "Dal Magro Tiziana",
               "brand" : "Esso",
               "fuel:lpg" : null,
               "fuel:cng" : null,
               "fuel:diesel" : "yes",
               "fuel:octane_95" : "yes",
               "ref:mise" : "7772",
               "amenity"  : "fuel"
               }
    }
,
     {
      "id"  : 24421,
      "lat" : 46.11822,
      "lon" : 13.2174,
      "tags" : {
               "operator" : "Vanello Eugenio & Figli S.P.A",
               "fuel:lpg" : null,
               "fuel:cng" : null,
               "fuel:diesel" : "yes",
               "fuel:octane_95" : "yes",
               "fuel:octane_100" : "yes",
               "ref:mise" : "24421",
               "amenity"  : "fuel"
               }
    }
,
     {
      "id"  : 25044,
      "lat" : 46.10005,
      "lon" : 13.22203,
      "tags" : {
               "operator" : "San Marco Petroli Distribuzione S.R.L.",
               "brand" : "San Marco Petroli",
               "fuel:lpg" : null,
               "fuel:cng" : null,
               "fuel:diesel" : "yes",
               "fuel:octane_95" : "yes",
               "ref:mise" : "25044",
               "amenity"  : "fuel"
               }
    }
,
     {
      "id"  : 35330,
      "lat" : 46.10021,
      "lon" : 13.2063,
      "tags" : {
               "operator" : "Stazione Eni di Mazza Giovanni",
               "brand" : "Esso",
               "fuel:lpg" : null,
               "fuel:cng" : null,
               "fuel:diesel" : "yes",
               "fuel:octane_95" : "yes",
               "ref:mise" : "35330",
               "amenity"  : "fuel"
               }
    }
,
     {
      "id"  : 7128,
      "lat" : 46.11655,
      "lon" : 13.22396,
      "tags" : {
               "operator" : "S.S.C. Società Sviluppo Commerciale S.R.L. in sigla S.S.C. S. R.L.",
               "brand" : "Q8",
               "fuel:lpg" : null,
               "fuel:cng" : null,
               "fuel:diesel" : "yes",
               "fuel:octane_95" : "yes",
               "ref:mise" : "7128",
               "amenity"  : "fuel"
               }
    }
,
     {
      "id"  : 23443,
      "lat" : 46.0942,
      "lon" : 13.22495,
      "tags" : {
               "operator" : "Servizi & Gestioni Italia S.R.L.",
               "brand" : "Q8",
               "fuel:lpg" : null,
               "fuel:cng" : null,
               "fuel:diesel" : "yes",
               "fuel:octane_95" : "yes",
               "ref:mise" : "23443",
               "amenity"  : "fuel"
               }
    }
,
     {
      "id"  : 11911,
      "lat" : 46.10118,
      "lon" : 13.23007,
      "tags" : {
               "operator" : "Servizi & Gestioni Italia S.R.L.",
               "brand" : "Q8",
               "fuel:lpg" : null,
               "fuel:cng" : null,
               "fuel:diesel" : "yes",
               "fuel:octane_95" : "yes",
               "fuel:octane_100" : "yes",
               "ref:mise" : "11911",
               "amenity"  : "fuel"
               }
    }
,
     {
      "id"  : 41414,
      "lat" : 46.10703,
      "lon" : 13.22027,
      "tags" : {
               "operator" : "Talarico Monica",
               "brand" : "Api-Ip",
               "fuel:lpg" : null,
               "fuel:cng" : null,
               "fuel:diesel" : "yes",
               "fuel:octane_95" : "yes",
               "ref:mise" : "41414",
               "amenity"  : "fuel"
               }
    }
,
     {
      "id"  : 9735,
      "lat" : 46.4031,
      "lon" : 13.01892,
      "tags" : {
               "operator" : "Bearzi Bruno",
               "brand" : "Esso",
               "fuel:lpg" : null,
               "fuel:cng" : null,
               "fuel:diesel" : "yes",
               "fuel:octane_95" : "yes",
               "ref:mise" : "9735",
               "amenity"  : "fuel"
               }
    }
,
     {
      "id"  : 33192,
      "lat" : 46.4011,
      "lon" : 13.02236,
      "tags" : {
               "operator" : "Carboil S.A.S. di Romanini Ivan & C.",
               "brand" : "Agip Eni",
               "fuel:lpg" : null,
               "fuel:cng" : null,
               "fuel:diesel" : "yes",
               "fuel:octane_95" : "yes",
               "ref:mise" : "33192",
               "amenity"  : "fuel"
               }
    }
,
     {
      "id"  : 7269,
      "lat" : 46.42034,
      "lon" : 13.021,
      "tags" : {
               "operator" : "Servizi & Gestioni Italia S.R.L.",
               "brand" : "Q8",
               "fuel:lpg" : "yes",
               "fuel:cng" : null,
               "fuel:diesel" : "yes",
               "fuel:octane_95" : "yes",
               "ref:mise" : "7269",
               "amenity"  : "fuel"
               }
    }
,
     {
      "id"  : 11909,
      "lat" : 46.40279,
      "lon" : 13.01741,
      "tags" : {
               "operator" : "Servizi & Gestioni Italia S.R.L.",
               "brand" : "Q8",
               "fuel:lpg" : null,
               "fuel:cng" : null,
               "fuel:diesel" : "yes",
               "fuel:octane_95" : "yes",
               "fuel:octane_100" : "yes",
               "ref:mise" : "11909",
               "amenity"  : "fuel"
               }
    }
,
     {
      "id"  : 29516,
      "lat" : 46.38958,
      "lon" : 13.02627,
      "tags" : {
               "operator" : "San Marco Petroli Distribuzione S.R.L.",
               "brand" : "San Marco Petroli",
               "fuel:lpg" : null,
               "fuel:cng" : null,
               "fuel:diesel" : "yes",
               "fuel:octane_95" : "yes",
               "fuel:octane_101" : "yes",
               "ref:mise" : "29516",
               "amenity"  : "fuel"
               }
    }
,
     {
      "id"  : 8628,
      "lat" : 46.11161,
      "lon" : 13.40717,
      "tags" : {
               "operator" : "Tomat Franca",
               "brand" : "Agip Eni",
               "fuel:lpg" : null,
               "fuel:cng" : null,
               "fuel:diesel" : "yes",
               "fuel:octane_95" : "yes",
               "fuel:octane_100" : "yes",
               "ref:mise" : "8628",
               "amenity"  : "fuel"
               }
    }
,
     {
      "id"  : 39261,
      "lat" : 45.82869,
      "lon" : 13.28097,
      "tags" : {
               "operator" : "Gasoline S.A.S. di Maccagnan Gian Luca & C.",
               "brand" : "Esso",
               "fuel:lpg" : null,
               "fuel:cng" : null,
               "fuel:diesel" : "yes",
               "fuel:octane_95" : "yes",
               "ref:mise" : "39261",
               "amenity"  : "fuel"
               }
    }
,
     {
      "id"  : 41312,
      "lat" : 46.2813,
      "lon" : 13.08072,
      "tags" : {
               "operator" : "Be.Oil di Fabbro Edoardo & C. S.A.S.",
               "brand" : "Agip Eni",
               "fuel:lpg" : null,
               "fuel:cng" : null,
               "fuel:diesel" : "yes",
               "fuel:octane_95" : "yes",
               "fuel:octane_100" : "yes",
               "ref:mise" : "41312",
               "amenity"  : "fuel"
               }
    }
,
     {
      "id"  : 7232,
      "lat" : 46.15004,
      "lon" : 13.22008,
      "tags" : {
               "operator" : "Stazione di Servizio di Morello Gil & C. S.N.C.",
               "brand" : "Api-Ip",
               "fuel:lpg" : null,
               "fuel:cng" : null,
               "fuel:diesel" : "yes",
               "fuel:octane_95" : "yes",
               "ref:mise" : "7232",
               "amenity"  : "fuel"
               }
    }
,
     {
      "id"  : 21028,
      "lat" : 46.16004,
      "lon" : 13.21073,
      "tags" : {
               "operator" : "Sostero F.lli S.N.C. di Sostero Marco & Massimo",
               "brand" : "Esso",
               "fuel:lpg" : null,
               "fuel:cng" : null,
               "fuel:diesel" : "yes",
               "fuel:octane_95" : "yes",
               "ref:mise" : "21028",
               "amenity"  : "fuel"
               }
    }
,
     {
      "id"  : 6986,
      "lat" : 46.17061,
      "lon" : 13.206,
      "tags" : {
               "operator" : "Jetrent S.R.L.",
               "brand" : "Api-Ip",
               "fuel:lpg" : "yes",
               "fuel:cng" : null,
               "fuel:diesel" : "yes",
               "fuel:octane_95" : "yes",
               "ref:mise" : "6986",
               "amenity"  : "fuel"
               }
    }
,
     {
      "id"  : 32420,
      "lat" : 46.10713,
      "lon" : 13.26484,
      "tags" : {
               "operator" : "Aurora S.N.C. di Shahu Renato & C.",
               "brand" : "Api-Ip",
               "fuel:lpg" : "yes",
               "fuel:cng" : "yes",
               "fuel:diesel" : "yes",
               "fuel:octane_95" : "yes",
               "ref:mise" : "32420",
               "amenity"  : "fuel"
               }
    }
,
     {
      "id"  : 35394,
      "lat" : 46.02208,
      "lon" : 13.23978,
      "tags" : {
               "operator" : "Commercio Petroli S.R.L.",
               "brand" : "Costantin",
               "fuel:lpg" : null,
               "fuel:cng" : "yes",
               "fuel:diesel" : "yes",
               "fuel:octane_95" : "yes",
               "ref:mise" : "35394",
               "amenity"  : "fuel"
               }
    }
,
     {
      "id"  : 15815,
      "lat" : 46.05219,
      "lon" : 13.23829,
      "tags" : {
               "operator" : "Covacich Luciano S.N.C. di Covacich L. & C.",
               "brand" : "Total Erg",
               "fuel:lpg" : null,
               "fuel:cng" : null,
               "fuel:diesel" : "yes",
               "fuel:octane_95" : "yes",
               "ref:mise" : "15815",
               "amenity"  : "fuel"
               }
    }
,
     {
      "id"  : 43098,
      "lat" : 46.05061,
      "lon" : 13.24787,
      "tags" : {
               "operator" : "Auto Metano Udine di Rosso Cristian & C. Sas",
               "brand" : "Agip Eni",
               "fuel:lpg" : null,
               "fuel:cng" : null,
               "fuel:diesel" : "yes",
               "fuel:octane_95" : "yes",
               "ref:mise" : "43098",
               "amenity"  : "fuel"
               }
    }
,
     {
      "id"  : 41788,
      "lat" : 46.06452,
      "lon" : 13.21204,
      "tags" : {
               "operator" : "Mian Renato",
               "brand" : "Agip Eni",
               "fuel:lpg" : null,
               "fuel:cng" : null,
               "fuel:diesel" : "yes",
               "fuel:octane_95" : "yes",
               "fuel:octane_100" : "yes",
               "ref:mise" : "41788",
               "amenity"  : "fuel"
               }
    }
,
     {
      "id"  : 10954,
      "lat" : 46.04918,
      "lon" : 13.24857,
      "tags" : {
               "operator" : "Bn di Bressan Gianni & C. S.A.S.",
               "brand" : "Esso",
               "fuel:lpg" : null,
               "fuel:cng" : null,
               "fuel:diesel" : "yes",
               "fuel:octane_95" : "yes",
               "ref:mise" : "10954",
               "amenity"  : "fuel"
               }
    }
,
     {
      "id"  : 38336,
      "lat" : 46.0642,
      "lon" : 13.21251,
      "tags" : {
               "operator" : "Gasoline di Andrea De Benedetti",
               "brand" : "Esso",
               "fuel:lpg" : null,
               "fuel:cng" : null,
               "fuel:diesel" : "yes",
               "fuel:octane_95" : "yes",
               "ref:mise" : "38336",
               "amenity"  : "fuel"
               }
    }
,
     {
      "id"  : 44979,
      "lat" : 46.07557,
      "lon" : 13.23761,
      "tags" : {
               "operator" : "Geff S.R.L.",
               "brand" : "Esso",
               "fuel:lpg" : null,
               "fuel:cng" : null,
               "fuel:diesel" : "yes",
               "fuel:octane_95" : "yes",
               "ref:mise" : "44979",
               "amenity"  : "fuel"
               }
    }
,
     {
      "id"  : 40623,
      "lat" : 46.06313,
      "lon" : 13.22726,
      "tags" : {
               "operator" : "Filling Station Motel S.R.L.",
               "brand" : "Agip Eni",
               "fuel:lpg" : null,
               "fuel:cng" : null,
               "fuel:diesel" : "yes",
               "fuel:octane_95" : "yes",
               "fuel:octane_100" : "yes",
               "ref:mise" : "40623",
               "amenity"  : "fuel"
               }
    }
,
     {
      "id"  : 7366,
      "lat" : 46.10485,
      "lon" : 13.26181,
      "tags" : {
               "operator" : "F.lli Giliberti S.N.C. di Giliberti Luca & Tiziano",
               "brand" : "Total Erg",
               "fuel:lpg" : null,
               "fuel:cng" : null,
               "fuel:diesel" : "yes",
               "fuel:octane_95" : "yes",
               "ref:mise" : "7366",
               "amenity"  : "fuel"
               }
    }
,
     {
      "id"  : 33105,
      "lat" : 46.06799,
      "lon" : 13.24436,
      "tags" : {
               "operator" : "Formaggio Fulvio",
               "brand" : "Esso",
               "fuel:lpg" : null,
               "fuel:cng" : null,
               "fuel:diesel" : "yes",
               "fuel:octane_95" : "yes",
               "ref:mise" : "33105",
               "amenity"  : "fuel"
               }
    }
,
     {
      "id"  : 40409,
      "lat" : 46.15358,
      "lon" : 13.2188,
      "tags" : {
               "operator" : "Gaidaros di Bonopera Andrea",
               "brand" : "Agip Eni",
               "fuel:lpg" : null,
               "fuel:cng" : null,
               "fuel:diesel" : "yes",
               "fuel:octane_95" : "yes",
               "ref:mise" : "40409",
               "amenity"  : "fuel"
               }
    }
,
     {
      "id"  : 19094,
      "lat" : 46.07415,
      "lon" : 13.20422,
      "tags" : {
               "operator" : "Grattoni Nicola & C. Sas",
               "brand" : "Esso",
               "fuel:lpg" : null,
               "fuel:cng" : null,
               "fuel:diesel" : "yes",
               "fuel:octane_95" : "yes",
               "ref:mise" : "19094",
               "amenity"  : "fuel"
               }
    }
,
     {
      "id"  : 43840,
      "lat" : 46.03368,
      "lon" : 13.24618,
      "tags" : {
               "operator" : "Sardar Ahsan S.N.C. di Sardar Ahsan e C.",
               "brand" : "Api-Ip",
               "fuel:lpg" : "yes",
               "fuel:cng" : "yes",
               "fuel:diesel" : "yes",
               "fuel:octane_95" : "yes",
               "ref:mise" : "43840",
               "amenity"  : "fuel"
               }
    }
,
     {
      "id"  : 43385,
      "lat" : 46.07117,
      "lon" : 13.22783,
      "tags" : {
               "operator" : "Geff S.R.L.",
               "brand" : "Api-Ip",
               "fuel:lpg" : null,
               "fuel:cng" : null,
               "fuel:diesel" : "yes",
               "fuel:octane_95" : "yes",
               "ref:mise" : "43385",
               "amenity"  : "fuel"
               }
    }
,
     {
      "id"  : 44550,
      "lat" : 46.07461,
      "lon" : 13.27251,
      "tags" : {
               "operator" : "Auto Metano Udine di Rosso Cristian & C. Sas",
               "brand" : "Api-Ip",
               "fuel:lpg" : null,
               "fuel:cng" : null,
               "fuel:diesel" : "yes",
               "fuel:octane_95" : "yes",
               "ref:mise" : "44550",
               "amenity"  : "fuel"
               }
    }
,
     {
      "id"  : 45161,
      "lat" : 46.03411,
      "lon" : 13.26643,
      "tags" : {
               "operator" : "Italmetano S.R.L.",
               "fuel:lpg" : null,
               "fuel:cng" : "yes",
               "ref:mise" : "45161",
               "amenity"  : "fuel"
               }
    }
,
     {
      "id"  : 45703,
      "lat" : 46.0336,
      "lon" : 13.24615,
      "tags" : {
               "operator" : "Kumar Mohit",
               "brand" : "Api-Ip",
               "fuel:lpg" : "yes",
               "fuel:cng" : "yes",
               "fuel:diesel" : "yes",
               "fuel:octane_95" : "yes",
               "ref:mise" : "45703",
               "amenity"  : "fuel"
               }
    }
,
     {
      "id"  : 11096,
      "lat" : 46.07328,
      "lon" : 13.26774,
      "tags" : {
               "operator" : "Peres Patrizio",
               "brand" : "Agip Eni",
               "fuel:lpg" : null,
               "fuel:cng" : null,
               "fuel:diesel" : "yes",
               "fuel:octane_95" : "yes",
               "fuel:octane_100" : "yes",
               "ref:mise" : "11096",
               "amenity"  : "fuel"
               }
    }
,
     {
      "id"  : 38728,
      "lat" : 46.01583,
      "lon" : 13.26953,
      "tags" : {
               "operator" : "Fabro Michele",
               "brand" : "Q8",
               "fuel:lpg" : null,
               "fuel:cng" : null,
               "fuel:diesel" : "yes",
               "fuel:octane_95" : "yes",
               "ref:mise" : "38728",
               "amenity"  : "fuel"
               }
    }
,
     {
      "id"  : 43431,
      "lat" : 46.02833,
      "lon" : 13.25877,
      "tags" : {
               "operator" : "Zanello Chiara",
               "brand" : "Repsol",
               "fuel:lpg" : null,
               "fuel:cng" : null,
               "fuel:diesel" : "yes",
               "fuel:octane_95" : "yes",
               "fuel:octane_100" : "yes",
               "ref:mise" : "43431",
               "amenity"  : "fuel"
               }
    }
,
     {
      "id"  : 45667,
      "lat" : 46.01603,
      "lon" : 13.25732,
      "tags" : {
               "operator" : "Auto Metano Udine di Rosso Cristian & C. Sas",
               "brand" : "Repsol",
               "fuel:lpg" : null,
               "fuel:cng" : null,
               "fuel:diesel" : "yes",
               "fuel:octane_95" : "yes",
               "ref:mise" : "45667",
               "amenity"  : "fuel"
               }
    }
,
     {
      "id"  : 30826,
      "lat" : 46.08058,
      "lon" : 13.2075,
      "tags" : {
               "operator" : "Pietroniro Giuseppe",
               "brand" : "Repsol",
               "fuel:lpg" : null,
               "fuel:cng" : null,
               "fuel:diesel" : "yes",
               "fuel:octane_95" : "yes",
               "fuel:octane_100" : "yes",
               "ref:mise" : "30826",
               "amenity"  : "fuel"
               }
    }
,
     {
      "id"  : 6856,
      "lat" : 46.05948,
      "lon" : 13.22015,
      "tags" : {
               "operator" : "Sclippa Lino",
               "brand" : "Q8",
               "fuel:lpg" : "yes",
               "fuel:cng" : null,
               "fuel:diesel" : "yes",
               "fuel:octane_95" : "yes",
               "ref:mise" : "6856",
               "amenity"  : "fuel"
               }
    }
,
     {
      "id"  : 40503,
      "lat" : 46.07366,
      "lon" : 13.22187,
      "tags" : {
               "operator" : "Singh Jasbir",
               "brand" : "Api-Ip",
               "fuel:lpg" : null,
               "fuel:cng" : null,
               "fuel:diesel" : "yes",
               "fuel:octane_95" : "yes",
               "ref:mise" : "40503",
               "amenity"  : "fuel"
               }
    }
,
     {
      "id"  : 35355,
      "lat" : 46.01663,
      "lon" : 13.25693,
      "tags" : {
               "operator" : "Rigotto Nerio",
               "brand" : "Esso",
               "fuel:lpg" : null,
               "fuel:cng" : null,
               "fuel:diesel" : "yes",
               "fuel:octane_95" : "yes",
               "ref:mise" : "35355",
               "amenity"  : "fuel"
               }
    }
,
     {
      "id"  : 40858,
      "lat" : 46.05467,
      "lon" : 13.23136,
      "tags" : {
               "operator" : "Stazione di Servizio Fp di Fabrizio Pellizzari",
               "brand" : "Total Erg",
               "fuel:lpg" : null,
               "fuel:cng" : null,
               "fuel:diesel" : "yes",
               "fuel:octane_95" : "yes",
               "ref:mise" : "40858",
               "amenity"  : "fuel"
               }
    }
,
     {
      "id"  : 9917,
      "lat" : 46.07058,
      "lon" : 13.19664,
      "tags" : {
               "operator" : "Stazione di Servizio Ip di Bacinello Alfio e Mauro S.N.C.",
               "brand" : "Api-Ip",
               "fuel:lpg" : null,
               "fuel:cng" : null,
               "fuel:diesel" : "yes",
               "fuel:octane_95" : "yes",
               "ref:mise" : "9917",
               "amenity"  : "fuel"
               }
    }
,
     {
      "id"  : 11329,
      "lat" : 46.09164,
      "lon" : 13.22241,
      "tags" : {
               "operator" : "Macorigh Mauro",
               "brand" : "Tamoil",
               "fuel:lpg" : null,
               "fuel:cng" : null,
               "fuel:diesel" : "yes",
               "fuel:octane_95" : "yes",
               "ref:mise" : "11329",
               "amenity"  : "fuel"
               }
    }
,
     {
      "id"  : 16463,
      "lat" : 46.05946,
      "lon" : 13.24838,
      "tags" : {
               "operator" : "Meneghin Antonino & C. Snc",
               "brand" : "Agip Eni",
               "fuel:lpg" : null,
               "fuel:cng" : null,
               "fuel:diesel" : "yes",
               "fuel:octane_95" : "yes",
               "ref:mise" : "16463",
               "amenity"  : "fuel"
               }
    }
,
     {
      "id"  : 13872,
      "lat" : 46.03692,
      "lon" : 13.2464,
      "tags" : {
               "operator" : "Tiemme Service S.A.S. di Tribos Daniele Sebastiano & C.",
               "brand" : "Tamoil",
               "fuel:lpg" : null,
               "fuel:cng" : null,
               "fuel:diesel" : "yes",
               "fuel:octane_95" : "yes",
               "ref:mise" : "13872",
               "amenity"  : "fuel"
               }
    }
,
     {
      "id"  : 24662,
      "lat" : 46.07114,
      "lon" : 13.23713,
      "tags" : {
               "operator" : "Policella Roberto",
               "brand" : "Total Erg",
               "fuel:lpg" : null,
               "fuel:cng" : null,
               "fuel:diesel" : "yes",
               "fuel:octane_95" : "yes",
               "ref:mise" : "24662",
               "amenity"  : "fuel"
               }
    }
,
     {
      "id"  : 38686,
      "lat" : 46.05521,
      "lon" : 13.23467,
      "tags" : {
               "operator" : "Rafikul Islam",
               "brand" : "Total Erg",
               "fuel:lpg" : null,
               "fuel:cng" : null,
               "fuel:diesel" : "yes",
               "fuel:octane_95" : "yes",
               "ref:mise" : "38686",
               "amenity"  : "fuel"
               }
    }
,
     {
      "id"  : 18579,
      "lat" : 46.08752,
      "lon" : 13.23302,
      "tags" : {
               "operator" : "Troina Massimo",
               "brand" : "Agip Eni",
               "fuel:lpg" : null,
               "fuel:cng" : null,
               "fuel:diesel" : "yes",
               "fuel:octane_95" : "yes",
               "fuel:octane_100" : "yes",
               "ref:mise" : "18579",
               "amenity"  : "fuel"
               }
    }
,
     {
      "id"  : 6987,
      "lat" : 46.03974,
      "lon" : 13.25298,
      "tags" : {
               "operator" : "Jetrent S.R.L.",
               "brand" : "Api-Ip",
               "fuel:lpg" : "yes",
               "fuel:cng" : null,
               "fuel:diesel" : "yes",
               "fuel:octane_95" : "yes",
               "ref:mise" : "6987",
               "amenity"  : "fuel"
               }
    }
,
     {
      "id"  : 25830,
      "lat" : 46.07397,
      "lon" : 13.20245,
      "tags" : {
               "operator" : "Ip Services S.R.L.",
               "brand" : "Api-Ip",
               "fuel:lpg" : null,
               "fuel:cng" : null,
               "fuel:diesel" : "yes",
               "fuel:octane_95" : "yes",
               "ref:mise" : "25830",
               "amenity"  : "fuel"
               }
    }
,
     {
      "id"  : 25829,
      "lat" : 46.07888,
      "lon" : 13.2348,
      "tags" : {
               "operator" : "Ip Services S.R.L.",
               "brand" : "Api-Ip",
               "fuel:lpg" : null,
               "fuel:cng" : null,
               "fuel:diesel" : "yes",
               "fuel:octane_95" : "yes",
               "ref:mise" : "25829",
               "amenity"  : "fuel"
               }
    }
,
     {
      "id"  : 25027,
      "lat" : 46.08583,
      "lon" : 13.21709,
      "tags" : {
               "operator" : "Pallini Maurizio",
               "brand" : "Api-Ip",
               "fuel:lpg" : null,
               "fuel:cng" : null,
               "fuel:diesel" : "yes",
               "fuel:octane_95" : "yes",
               "ref:mise" : "25027",
               "amenity"  : "fuel"
               }
    }
,
     {
      "id"  : 26566,
      "lat" : 46.04959,
      "lon" : 13.2039,
      "tags" : {
               "operator" : "Oil Italia S.R.L.",
               "brand" : "Oil Italia",
               "fuel:lpg" : null,
               "fuel:cng" : null,
               "fuel:diesel" : "yes",
               "fuel:octane_95" : "yes",
               "ref:mise" : "26566",
               "amenity"  : "fuel"
               }
    }
,
     {
      "id"  : 11914,
      "lat" : 46.0376,
      "lon" : 13.24691,
      "tags" : {
               "operator" : "Servizi & Gestioni Italia S.R.L.",
               "brand" : "Q8",
               "fuel:lpg" : null,
               "fuel:cng" : null,
               "fuel:diesel" : "yes",
               "fuel:octane_95" : "yes",
               "fuel:octane_100" : "yes",
               "ref:mise" : "11914",
               "amenity"  : "fuel"
               }
    }
,
     {
      "id"  : 11913,
      "lat" : 46.07516,
      "lon" : 13.23867,
      "tags" : {
               "operator" : "Servizi & Gestioni Italia S.R.L.",
               "brand" : "Q8",
               "fuel:lpg" : null,
               "fuel:cng" : null,
               "fuel:diesel" : "yes",
               "fuel:octane_95" : "yes",
               "fuel:octane_100" : "yes",
               "ref:mise" : "11913",
               "amenity"  : "fuel"
               }
    }
,
     {
      "id"  : 11912,
      "lat" : 46.07537,
      "lon" : 13.22635,
      "tags" : {
               "operator" : "Servizi & Gestioni Italia S.R.L.",
               "brand" : "Q8",
               "fuel:lpg" : null,
               "fuel:cng" : null,
               "fuel:diesel" : "yes",
               "fuel:octane_95" : "yes",
               "ref:mise" : "11912",
               "amenity"  : "fuel"
               }
    }
,
     {
      "id"  : 11910,
      "lat" : 46.05345,
      "lon" : 13.24662,
      "tags" : {
               "operator" : "Servizi & Gestioni Italia S.R.L.",
               "brand" : "Q8",
               "fuel:lpg" : null,
               "fuel:cng" : null,
               "fuel:diesel" : "yes",
               "fuel:octane_95" : "yes",
               "ref:mise" : "11910",
               "amenity"  : "fuel"
               }
    }
,
     {
      "id"  : 9038,
      "lat" : 46.32679,
      "lon" : 13.13409,
      "tags" : {
               "operator" : "Di Bernardo Delia & Alba S.N.C.",
               "brand" : "Agip Eni",
               "fuel:lpg" : null,
               "fuel:cng" : null,
               "fuel:diesel" : "yes",
               "fuel:octane_95" : "yes",
               "ref:mise" : "9038",
               "amenity"  : "fuel"
               }
    }
,
     {
      "id"  : 26568,
      "lat" : 46.36293,
      "lon" : 13.13542,
      "tags" : {
               "operator" : "Oil Italia S.R.L.",
               "brand" : "Oil Italia",
               "fuel:lpg" : null,
               "fuel:cng" : null,
               "fuel:diesel" : "yes",
               "fuel:octane_95" : "yes",
               "ref:mise" : "26568",
               "amenity"  : "fuel"
               }
    }
,
     {
      "id"  : 4595,
      "lat" : 46.41555,
      "lon" : 12.92797,
      "tags" : {
               "operator" : "Gesticarb S.N.C. di Lucchini Gian Pietro e Luca Sonia",
               "brand" : "Agip Eni",
               "fuel:lpg" : null,
               "fuel:cng" : null,
               "fuel:diesel" : "yes",
               "fuel:octane_95" : "yes",
               "fuel:octane_100" : "yes",
               "ref:mise" : "4595",
               "amenity"  : "fuel"
               }
    }
,
     {
      "id"  : 14798,
      "lat" : 46.41625,
      "lon" : 12.91917,
      "tags" : {
               "operator" : "Centro Auto di Polonia Valerio",
               "brand" : "Esso",
               "fuel:lpg" : null,
               "fuel:cng" : null,
               "fuel:diesel" : "yes",
               "fuel:octane_95" : "yes",
               "ref:mise" : "14798",
               "amenity"  : "fuel"
               }
    }
,
     {
      "id"  : 11906,
      "lat" : 46.41477,
      "lon" : 12.9314,
      "tags" : {
               "operator" : "Servizi & Gestioni Italia S.R.L.",
               "brand" : "Q8",
               "fuel:lpg" : null,
               "fuel:cng" : null,
               "fuel:diesel" : "yes",
               "fuel:octane_95" : "yes",
               "fuel:octane_100" : "yes",
               "ref:mise" : "11906",
               "amenity"  : "fuel"
               }
    }
,
     {
      "id"  : 28059,
      "lat" : 45.80645,
      "lon" : 13.39089,
      "tags" : {
               "operator" : "A. & B. S.A.S. di Alvaro Alessandro & C.",
               "brand" : "Esso",
               "fuel:lpg" : null,
               "fuel:cng" : null,
               "fuel:diesel" : "yes",
               "fuel:octane_95" : "yes",
               "ref:mise" : "28059",
               "amenity"  : "fuel"
               }
    }
]