<?xml version='1.0' encoding='utf-8'?>
<osm generator="OSM Conflator 1.3.1" version="0.6"><changeset><tag k="type" v="import"/><tag k="source" v="Mise"/><tag k="created_by" v="OSM Conflator 1.3.1"/></changeset><node id="227714908" version="7" lat="46.0746007" lon="13.2724868" action="modify"><tag k="brand" v="Api-Ip"/><tag k="amenity" v="fuel"/><tag k="fuel:diesel" v="yes"/><tag k="ref:mise" v="44550"/><tag k="name" v="IP"/><tag k="operator" v="Auto Metano Udine di Rosso Cristian &amp; C. Sas"/><tag k="fuel:octane_95" v="yes"/></node><node id="3067703462" version="5" lat="45.7596607" lon="13.0300079" action="modify"><tag k="fuel:octane_101" v="yes"/><tag k="fuel:octane_95" v="yes"/><tag k="amenity" v="fuel"/><tag k="fuel:diesel" v="yes"/><tag k="ref:mise" v="45387"/><tag k="name" v="Ecotec"/><tag k="operator" v="San Marco Petroli Distribuzione S.R.L."/><tag k="brand" v="San Marco Petroli"/><tag k="fixme" v="name"/><tag k="fuel:lpg" v="yes"/></node><node id="3042426133" version="3" lat="46.0160541" lon="13.2573201" action="modify"><tag k="brand" v="Repsol"/><tag k="amenity" v="fuel"/><tag k="fuel:diesel" v="yes"/><tag k="ref:mise" v="45667"/><tag k="name" v="Repsol"/><tag k="operator" v="Auto Metano Udine di Rosso Cristian &amp; C. Sas"/><tag k="fuel:octane_95" v="yes"/></node><node id="228092456" version="7" lat="46.0755463" lon="13.2375917" action="modify"><tag k="brand" v="Esso"/><tag k="amenity" v="fuel"/><tag k="fuel:diesel" v="yes"/><tag k="ref:mise" v="44979"/><tag k="name" v="Esso"/><tag k="operator" v="Geff S.R.L."/><tag k="fuel:octane_95" v="yes"/></node><node id="228736803" version="8" lat="46.1500269" lon="13.220037" action="modify"><tag k="opening_hours" v="unknown"/><tag k="brand" v="Api-Ip"/><tag k="amenity" v="fuel"/><tag k="fuel:diesel" v="yes"/><tag k="ref:mise" v="7232"/><tag k="name" v="IP"/><tag k="operator" v="Stazione di Servizio di Morello Gil &amp; C. S.N.C."/><tag k="fuel:octane_95" v="yes"/></node><node id="2308268394" version="3" lat="46.144119" lon="12.978823" action="modify"><tag k="brand" v="Esso"/><tag k="amenity" v="fuel"/><tag k="fuel:diesel" v="yes"/><tag k="ref:mise" v="44939"/><tag k="fuel:octane_95" v="yes"/><tag k="name" v="Fly"/><tag k="operator" v="Andreutti Riccardo"/><tag k="fixme" v="ok"/></node><node id="228303659" version="7" lat="46.0923845" lon="13.4202953" action="modify"><tag k="fuel:octane_100" v="yes"/><tag k="addr:city" v="Cividale del Friuli"/><tag k="fuel:diesel" v="yes"/><tag k="addr:street" v="Viale Libertà"/><tag k="addr:housenumber" v="11"/><tag k="name" v="Agip"/><tag k="operator" v="Costaperaria Monica"/><tag k="fuel:octane_95" v="yes"/><tag k="addr:country" v="IT"/><tag k="survey:date" v="2013-12-28"/><tag k="brand" v="Agip Eni"/><tag k="amenity" v="fuel"/><tag k="ref:mise" v="41156"/><tag k="addr:postcode" v="33043"/></node><node id="428291002" version="6" lat="46.0970422" lon="13.1974741" action="modify"><tag k="brand" v="Api-Ip"/><tag k="amenity" v="fuel"/><tag k="fuel:diesel" v="yes"/><tag k="ref:mise" v="41516"/><tag k="name" v="IP"/><tag k="operator" v="Chand Lal"/><tag k="fuel:octane_95" v="yes"/><tag k="fuel:lpg" v="yes"/></node><node id="227220815" version="6" lat="46.405507" lon="13.296053" action="modify"><tag k="fuel:octane_100" v="yes"/><tag k="brand" v="Agip Eni"/><tag k="amenity" v="fuel"/><tag k="fuel:diesel" v="yes"/><tag k="ref:mise" v="45333"/><tag k="name" v="Agip"/><tag k="operator" v="Geff S.R.L."/><tag k="fuel:octane_95" v="yes"/></node><node id="228311996" version="6" lat="46.082526" lon="13.173755" action="modify"><tag k="brand" v="Api-Ip"/><tag k="amenity" v="fuel"/><tag k="fuel:diesel" v="yes"/><tag k="ref:mise" v="45255"/><tag k="name" v="IP"/><tag k="operator" v="Kaur Amandeep"/><tag k="fuel:octane_95" v="yes"/></node><node id="228302612" version="5" lat="46.035519" lon="13.152673" action="modify"><tag k="brand" v="Api-Ip"/><tag k="amenity" v="fuel"/><tag k="fuel:diesel" v="yes"/><tag k="ref:mise" v="45229"/><tag k="fuel:octane_95" v="yes"/><tag k="name" v="IP"/><tag k="operator" v="Geff S.R.L."/><tag k="fixme" v="ok"/></node><node id="226931300" version="6" lat="46.06455" lon="13.211961" action="modify"><tag k="fuel:octane_100" v="yes"/><tag k="brand" v="Agip Eni"/><tag k="amenity" v="fuel"/><tag k="fuel:diesel" v="yes"/><tag k="ref:mise" v="41788"/><tag k="name" v="Agip"/><tag k="operator" v="Mian Renato"/><tag k="fuel:octane_95" v="yes"/></node><node id="228313505" version="7" lat="46.0519398" lon="13.0500299" action="modify"><tag k="brand" v="Api-Ip"/><tag k="amenity" v="fuel"/><tag k="fuel:diesel" v="yes"/><tag k="ref:mise" v="45262"/><tag k="name" v="IP"/><tag k="operator" v="Geff S.R.L."/><tag k="fuel:octane_95" v="yes"/></node><node id="227985730" version="7" lat="45.683512" lon="13.119543" action="modify"><tag k="brand" v="Total Erg"/><tag k="amenity" v="fuel"/><tag k="brand:wikidata" v="Q154037"/><tag k="fuel:diesel" v="yes"/><tag k="ref:mise" v="41120"/><tag k="fuel:octane_95" v="yes"/><tag k="brand:wikipedia" v="fr:Total (entreprise)"/><tag k="operator" v="Zamarian Mario S.A.S. di Zamarian Mario &amp; C."/><tag k="name" v="IP"/></node><node id="227714507" version="6" lat="46.107105" lon="13.220265" action="modify"><tag k="brand" v="Api-Ip"/><tag k="amenity" v="fuel"/><tag k="fuel:diesel" v="yes"/><tag k="ref:mise" v="41414"/><tag k="name" v="Total"/><tag k="operator" v="Talarico Monica"/><tag k="fuel:octane_95" v="yes"/><tag k="fixme" v="name"/></node><node id="218404254" version="8" lat="46.0341325" lon="13.2665359" action="modify"><tag k="fuel:cng" v="yes"/><tag k="fixme" v="name"/><tag k="amenity" v="fuel"/><tag k="ref:mise" v="45161"/><tag k="name" v="Metano"/><tag k="operator" v="Italmetano S.R.L."/></node><node id="2136193947" version="6" lat="46.0860241" lon="13.3630095" action="modify"><tag k="addr:street" v="Via Nazionale"/><tag k="fuel:octane_98" v="yes"/><tag k="amenity" v="fuel"/><tag k="fuel:diesel" v="yes"/><tag k="ref:mise" v="44488"/><tag k="addr:housenumber" v="38"/><tag k="name" v="TotalErg"/><tag k="operator" v="Casella Lucia"/><tag k="fuel:octane_95" v="yes"/><tag k="brand" v="Total Erg"/></node><node id="228305305" version="6" lat="46.162549" lon="13.133147" action="modify"><tag k="brand" v="Agip Eni"/><tag k="amenity" v="fuel"/><tag k="fuel:diesel" v="yes"/><tag k="ref:mise" v="45405"/><tag k="name" v="Eni"/><tag k="operator" v="Servizi Innovativi Nord Est S.R.L."/><tag k="fuel:octane_95" v="yes"/><tag k="fuel:lpg" v="yes"/></node><node id="228318707" version="6" lat="46.058596" lon="13.382914" action="modify"><tag k="brand" v="Api-Ip"/><tag k="amenity" v="fuel"/><tag k="fuel:diesel" v="yes"/><tag k="ref:mise" v="44451"/><tag k="name" v="IP"/><tag k="operator" v="Kaur Davinderdeep"/><tag k="fuel:octane_95" v="yes"/></node><node id="228171660" version="7" lat="45.8114" lon="13.00528" action="modify"><tag k="brand" v="Api-Ip"/><tag k="amenity" v="fuel"/><tag k="fuel:diesel" v="yes"/><tag k="ref:mise" v="27995"/><tag k="name" v="IP"/><tag k="operator" v="De Paoli Silvio &amp; C. S.N.C."/><tag k="fuel:octane_95" v="yes"/><tag k="fuel:lpg" v="yes"/></node><node id="228304284" version="6" lat="45.964918" lon="12.954834" action="modify"><tag k="brand" v="Api-Ip"/><tag k="amenity" v="fuel"/><tag k="fuel:diesel" v="yes"/><tag k="ref:mise" v="45247"/><tag k="name" v="IP"/><tag k="operator" v="Geff S.R.L."/><tag k="fuel:octane_95" v="yes"/></node><node id="227710635" version="6" lat="46.032234" lon="13.217095" action="modify"><tag k="brand" v="Api-Ip"/><tag k="amenity" v="fuel"/><tag k="fuel:diesel" v="yes"/><tag k="ref:mise" v="43381"/><tag k="name" v="IP"/><tag k="operator" v="Efros Dumitru"/><tag k="fuel:octane_95" v="yes"/></node><node id="1755943077" version="3" lat="45.9770955" lon="13.1983666" action="modify"><tag k="brand" v="Total Erg"/><tag k="amenity" v="fuel"/><tag k="fuel:diesel" v="yes"/><tag k="ref:mise" v="36989"/><tag k="operator" v="Ip Services S.R.L."/><tag k="fuel:octane_95" v="yes"/></node><node id="227966037" version="6" lat="46.014722" lon="13.108924" action="modify"><tag k="brand" v="Api-Ip"/><tag k="amenity" v="fuel"/><tag k="fuel:diesel" v="yes"/><tag k="ref:mise" v="44585"/><tag k="name" v="Total"/><tag k="operator" v="Esposito Luigi"/><tag k="fuel:octane_95" v="yes"/><tag k="fixme" v="name"/></node><node id="228302439" version="6" lat="46.0248" lon="13.168573" action="modify"><tag k="fuel:octane_100" v="yes"/><tag k="brand" v="Agip Eni"/><tag k="amenity" v="fuel"/><tag k="fuel:diesel" v="yes"/><tag k="ref:mise" v="5633"/><tag k="name" v="Agip"/><tag k="operator" v="F.lli Rinaldi S.N.C. di Matteo e Paolo Rinaldi"/><tag k="fuel:octane_95" v="yes"/></node><way id="559474423" version="2" action="modify"><tag k="brand" v="CONAD"/><tag k="amenity" v="fuel"/><tag k="fuel:diesel" v="yes"/><tag k="ref:mise" v="44237"/><tag k="name" v="IPER"/><tag k="operator" v="S C S Group di Facca Antonio e C. Snc"/><tag k="fuel:octane_95" v="yes"/><nd ref="5396033714"/><nd ref="5396033715"/><nd ref="5396033716"/><nd ref="5396033717"/><nd ref="5396033714"/></way><way id="231899871" version="3" action="modify"><tag k="fuel:octane_100" v="yes"/><tag k="brand" v="Agip Eni"/><tag k="amenity" v="fuel"/><tag k="fuel:diesel" v="yes"/><tag k="ref:mise" v="45246"/><tag k="operator" v="Geff S.R.L."/><tag k="source:date" v="2018-04-16"/><tag k="fuel:octane_95" v="yes"/><tag k="building" v="yes"/><nd ref="2402250533"/><nd ref="2402250538"/><nd ref="2402250536"/><nd ref="2402250532"/><nd ref="2402250533"/></way><node id="2073432284" version="3" lat="45.9541103" lon="13.3949501" action="modify"><tag k="brand" v="Esso"/><tag k="amenity" v="fuel"/><tag k="fuel:diesel" v="yes"/><tag k="ref:mise" v="44945"/><tag k="operator" v="Set Società a Responsabilità Limitata"/><tag k="fuel:octane_95" v="yes"/></node><node id="228314700" version="8" lat="46.4872916" lon="12.8647991" action="modify"><tag k="brand" v="Api-Ip"/><tag k="amenity" v="fuel"/><tag k="fuel:diesel" v="yes"/><tag k="ref:mise" v="43101"/><tag k="name" v="Total"/><tag k="operator" v="Cimenti Cristian"/><tag k="fuel:octane_95" v="yes"/><tag k="fixme" v="name"/></node><node id="-1" version="1" lat="45.8893137" lon="13.0354285"><tag k="brand" v="Api-Ip"/><tag k="amenity" v="fuel"/><tag k="fuel:diesel" v="yes"/><tag k="ref:mise" v="27651"/><tag k="operator" v="Degano Cesare"/><tag k="fuel:octane_95" v="yes"/><tag k="fixme" v="unire"/><tag k="fuel:lpg" v="yes"/></node><node id="-2" version="1" lat="45.88928" lon="13.30924"><tag k="brand" v="Api-Ip"/><tag k="amenity" v="fuel"/><tag k="fuel:diesel" v="yes"/><tag k="ref:mise" v="45355"/><tag k="operator" v="Geff S.R.L."/><tag k="fuel:octane_95" v="yes"/></node><node id="227515927" version="8" lat="46.1118909" lon="13.031008" action="modify"><tag k="brand" v="Agip Eni"/><tag k="amenity" v="fuel"/><tag k="fuel:diesel" v="yes"/><tag k="ref:mise" v="12383"/><tag k="name" v="Agip"/><tag k="operator" v="D'angelo Ivan"/><tag k="fuel:octane_95" v="yes"/><tag k="fixme" v="This object might have been dismantled, please check"/><tag k="fuel:lpg" v="yes"/></node><node id="661026169" version="5" lat="45.6997821" lon="13.1443096" action="modify"><tag k="phone" v="+39 0431 73355"/><tag k="fixme" v="This object might have been dismantled, please check"/><tag k="amenity" v="fuel"/><tag k="seamark:type" v="small_craft_facility"/><tag k="name" v="Api - nautico"/><tag k="seamark:small_craft_facility:category" v="fuel_station"/></node><node id="228305688" version="7" lat="46.1526217" lon="13.3458029" action="modify"><tag k="brand" v="Api-Ip"/><tag k="amenity" v="fuel"/><tag k="fuel:diesel" v="yes"/><tag k="ref:mise" v="15557"/><tag k="name" v="IP"/><tag k="operator" v="Emporio Fratelli Fioritto di Fioritto Flaminio &amp; C. S.N.C."/><tag k="fuel:octane_95" v="yes"/><tag k="fixme" v="This object might have been dismantled, please check"/></node><node id="228320344" version="5" lat="45.880322" lon="13.047863" action="modify"><tag k="amenity" v="fuel"/><tag k="brand" v="IP"/><tag k="operator" v="IP"/><tag k="name" v="IP"/><tag k="fixme" v="This object might have been dismantled, please check"/></node><node id="228302251" version="4" lat="45.901134" lon="12.939684" action="modify"><tag k="brand" v="IP"/><tag k="amenity" v="fuel"/><tag k="operator" v="IP"/><tag k="name" v="IP"/><tag k="fixme" v="This object might have been dismantled, please check"/></node><node id="5851837508" version="2" lat="46.165686" lon="13.2092794" action="modify"><tag k="brand" v="Api-Ip"/><tag k="amenity" v="fuel"/><tag k="fuel:diesel" v="yes"/><tag k="ref:mise" v="31961"/><tag k="operator" v="De Vitt Cristiano"/><tag k="fuel:octane_95" v="yes"/><tag k="fixme" v="This object might have been dismantled, please check"/></node><node id="228314103" version="7" lat="45.947611" lon="13.1786989" action="modify"><tag k="amenity" v="fuel"/><tag k="brand" v="Esso"/><tag k="operator" v="Esso"/><tag k="name" v="Esso"/><tag k="fixme" v="This object might have been dismantled, please check"/></node><node id="228315117" version="7" lat="46.4883737" lon="12.8649368" action="modify"><tag k="amenity" v="fuel"/><tag k="brand" v="IP"/><tag k="operator" v="IP"/><tag k="name" v="IP"/><tag k="fixme" v="This object might have been dismantled, please check"/></node><node id="6344728819" version="1" lat="46.00887" lon="13.33081" action="modify"><tag k="brand" v="Total Erg"/><tag k="amenity" v="fuel"/><tag k="fuel:diesel" v="yes"/><tag k="ref:mise" v="14073"/><tag k="operator" v="Gariup Emanuela"/><tag k="fuel:octane_95" v="yes"/><tag k="fixme" v="This object might have been dismantled, please check"/></node><way id="555487025" version="3" action="modify"><tag k="brand" v="Agip Eni"/><tag k="amenity" v="fuel"/><tag k="fuel:diesel" v="yes"/><tag k="ref:mise" v="38811"/><tag k="name" v="Agip"/><tag k="operator" v="Poci Hekuran"/><tag k="fuel:octane_95" v="yes"/><tag k="fixme" v="This object might have been dismantled, please check"/><nd ref="5359308059"/><nd ref="5359308060"/><nd ref="5359308061"/><nd ref="5359308062"/><nd ref="5359308067"/><nd ref="5359308069"/><nd ref="5359308063"/><nd ref="5359308070"/><nd ref="5359308068"/><nd ref="5359308064"/><nd ref="5359308065"/><nd ref="5359308066"/><nd ref="5359308059"/></way><way id="555487017" version="3" action="modify"><tag k="brand" v="Total Erg"/><tag k="amenity" v="fuel"/><tag k="fuel:diesel" v="yes"/><tag k="ref:mise" v="16229"/><tag k="operator" v="Servizio Erg di Marcovig Franco"/><tag k="source:date" v="2018-04-16"/><tag k="fuel:octane_95" v="yes"/><tag k="fixme" v="This object might have been dismantled, please check"/><nd ref="5359308041"/><nd ref="5359308042"/><nd ref="5359308043"/><nd ref="3866676279"/><nd ref="4566695421"/><nd ref="3866676275"/><nd ref="5359308046"/><nd ref="3866676276"/><nd ref="5359308044"/><nd ref="5359308045"/><nd ref="5359308047"/><nd ref="5359308041"/></way><way id="290219778" version="5" action="modify"><tag k="amenity" v="fuel"/><tag k="fixme" v="This object might have been dismantled, please check"/><tag k="operator" v="Petrol"/><tag k="name" v="BS Golo Brdo v Brdih"/><tag k="building" v="yes"/><nd ref="2937732238"/><nd ref="2937732239"/><nd ref="2937732240"/><nd ref="3532699558"/><nd ref="2937732241"/><nd ref="2937732242"/><nd ref="2937732243"/><nd ref="4754072783"/><nd ref="2937732244"/><nd ref="2937732245"/><nd ref="2937732238"/></way><node id="5401628126" version="4" lat="45.8893447" lon="13.0354439" action="modify"><tag k="ref:mise" v="27651"/><tag k="brand" v="Api-Ip"/><tag k="amenity" v="fuel"/><tag k="operator" v="Degano Cesare"/><tag k="fixme" v="This object might have been dismantled, please check"/></node><way id="36132884" version="5" action="modify"><tag k="ref:mise" v="33288"/><tag k="brand" v="Agip Eni"/><tag k="amenity" v="fuel"/><tag k="it:fvg:ctrn:code" v="4AED"/><tag k="name" v="Agip"/><tag k="operator" v="Gestioni Innovative Italia S.R.L."/><tag k="it:fvg:ctrn:revision" v="1AN"/><tag k="building" v="yes"/><tag k="fixme" v="This object might have been dismantled, please check"/><tag k="height" v="4 m"/><nd ref="421951494"/><nd ref="4692015480"/><nd ref="421951495"/><nd ref="421951496"/><nd ref="4692015479"/><nd ref="421951497"/><nd ref="421951494"/></way><node id="227714904" version="7" lat="46.0907489" lon="13.2145216" action="modify"><tag k="amenity" v="fuel"/><tag k="brand" v="Eni"/><tag k="operator" v="Eni"/><tag k="name" v="Eni"/><tag k="fixme" v="This object might have been dismantled, please check"/></node><node id="228316104" version="6" lat="46.5280265" lon="13.0149382" action="modify"><tag k="amenity" v="fuel"/><tag k="brand" v="IP"/><tag k="operator" v="IP"/><tag k="name" v="IP"/><tag k="fixme" v="This object might have been dismantled, please check"/></node><node id="228737436" version="8" lat="46.2246404" lon="13.0108276" action="modify"><tag k="brand" v="Api-Ip"/><tag k="amenity" v="fuel"/><tag k="fuel:diesel" v="yes"/><tag k="ref:mise" v="25713"/><tag k="name" v="Api-Ip"/><tag k="operator" v="Atelier S.N.C. di Vincenti Christian e Patat Daniele"/><tag k="fuel:octane_95" v="yes"/><tag k="fixme" v="This object might have been dismantled, please check"/></node><node id="228314315" version="5" lat="45.948852" lon="13.18" action="modify"><tag k="amenity" v="fuel"/><tag k="brand" v="Q8"/><tag k="operator" v="Q8"/><tag k="name" v="Q8"/><tag k="fixme" v="This object might have been dismantled, please check"/></node><node id="227534485" version="7" lat="45.7721737" lon="12.9672226" action="modify"><tag k="fixme" v="This object might have been dismantled, please check"/><tag k="amenity" v="fuel"/><tag k="fuel:diesel" v="yes"/><tag k="ref:mise" v="22840"/><tag k="name" v="Petrol"/><tag k="operator" v="Cecco Giancarlo &amp; C. S.A.S."/><tag k="fuel:octane_95" v="yes"/></node><node id="3044325627" version="5" lat="45.9357748" lon="13.1754332" action="modify"><tag k="fuel:octane_95" v="yes"/><tag k="amenity" v="fuel"/><tag k="fuel:diesel" v="yes"/><tag k="ref:mise" v="24015"/><tag k="name" v="Repsol"/><tag k="operator" v="Schiff Massimo"/><tag k="fixme" v="This object might have been dismantled, please check"/></node><node id="228737209" version="5" lat="45.841795" lon="12.993559" action="modify"><tag k="amenity" v="fuel"/><tag k="brand" v="IP"/><tag k="operator" v="IP"/><tag k="name" v="IP"/><tag k="fixme" v="This object might have been dismantled, please check"/></node><node id="228318282" version="7" lat="46.033135" lon="13.301718" action="modify"><tag k="brand" v="Agip Eni"/><tag k="amenity" v="fuel"/><tag k="fuel:diesel" v="yes"/><tag k="ref:mise" v="30322"/><tag k="operator" v="Policella Daniele"/><tag k="fuel:octane_95" v="yes"/><tag k="fixme" v="This object might have been dismantled, please check"/></node><node id="227220812" version="7" lat="46.0419574" lon="13.2215192" action="modify"><tag k="fuel:octane_100" v="yes"/><tag k="brand" v="Agip Eni"/><tag k="amenity" v="fuel"/><tag k="fuel:diesel" v="yes"/><tag k="ref:mise" v="37899"/><tag k="name" v="Agip"/><tag k="operator" v="Rub Nawaz Ahmed"/><tag k="fuel:octane_95" v="yes"/><tag k="fixme" v="This object might have been dismantled, please check"/></node><way id="377975224" version="4" action="modify"><tag k="fuel:octane_100" v="yes"/><tag k="fixme" v="This object might have been dismantled, please check"/><tag k="brand" v="Agip Eni"/><tag k="amenity" v="fuel"/><tag k="fuel:diesel" v="yes"/><tag k="ref:mise" v="19841"/><tag k="operator" v="Mauro Andrea e Zuttion Catia S.N.C."/><tag k="fuel:octane_95" v="yes"/><tag k="fuel:lpg" v="yes"/><tag k="building" v="yes"/><nd ref="3813835757"/><nd ref="3813835758"/><nd ref="3813835759"/><nd ref="3813835760"/><nd ref="3813835757"/></way><node id="228319520" version="5" lat="46.163983" lon="13.24455" action="modify"><tag k="amenity" v="fuel"/><tag k="brand" v="Tamoil"/><tag k="operator" v="Tamoil"/><tag k="name" v="Tamoil"/><tag k="fixme" v="This object might have been dismantled, please check"/></node><way id="376989588" version="3" action="modify"><tag k="brand" v="Api-Ip"/><tag k="source:date" v="2018-04-16"/><tag k="amenity" v="fuel"/><tag k="ref:mise" v="9866"/><tag k="operator" v="Polli Valter"/><tag k="building" v="yes"/><tag k="fixme" v="This object might have been dismantled, please check"/><nd ref="3803601779"/><nd ref="3803601780"/><nd ref="3803601781"/><nd ref="3803601782"/><nd ref="3803601779"/></way><node id="227220459" version="6" lat="45.8679905" lon="13.045632" action="modify"><tag k="amenity" v="fuel"/><tag k="brand" v="Agip"/><tag k="operator" v="Agip"/><tag k="name" v="Agip"/><tag k="fixme" v="This object might have been dismantled, please check"/></node><node id="228303872" version="5" lat="45.962487" lon="12.963266" action="modify"><tag k="amenity" v="fuel"/><tag k="brand" v="Esso"/><tag k="operator" v="Esso"/><tag k="name" v="Esso"/><tag k="fixme" v="This object might have been dismantled, please check"/></node><node id="228312203" version="5" lat="45.821558" lon="13.13445" action="modify"><tag k="amenity" v="fuel"/><tag k="brand" v="ERG"/><tag k="operator" v="Erg"/><tag k="name" v="Erg"/><tag k="fixme" v="This object might have been dismantled, please check"/></node><node id="228313698" version="6" lat="46.4042954" lon="13.1945644" action="modify"><tag k="amenity" v="fuel"/><tag k="brand" v="Agip"/><tag k="operator" v="Agip"/><tag k="name" v="Agip"/><tag k="fixme" v="This object might have been dismantled, please check"/></node><way id="543992558" version="2" action="modify"><tag k="fixme" v="This object might have been dismantled, please check"/><tag k="waterway" v="fuel"/><nd ref="5258563562"/><nd ref="5258563563"/><nd ref="5258563564"/><nd ref="5258563565"/><nd ref="5258563566"/><nd ref="5258563567"/><nd ref="5258563562"/></way><node id="228060266" version="5" lat="46.016304" lon="13.147934" action="modify"><tag k="amenity" v="fuel"/><tag k="brand" v="Total"/><tag k="operator" v="Total"/><tag k="name" v="Total"/><tag k="fixme" v="This object might have been dismantled, please check"/></node><way id="36182101" version="3" action="modify"><tag k="height" v="4 m"/><tag k="fixme" v="This object might have been dismantled, please check"/><tag k="amenity" v="fuel"/><tag k="it:fvg:ctrn:code" v="4AED"/><tag k="operator" v="IP"/><tag k="it:fvg:ctrn:revision" v="1A0"/><tag k="building" v="yes"/><nd ref="422410205"/><nd ref="422410206"/><nd ref="3856472179"/><nd ref="422410207"/><nd ref="3856472178"/><nd ref="422410208"/><nd ref="422410209"/><nd ref="422410210"/><nd ref="422410205"/></way><node id="228302227" version="6" lat="45.94228" lon="13.059048" action="modify"><tag k="fuel:octane_95" v="yes"/><tag k="amenity" v="fuel"/><tag k="fuel:diesel" v="yes"/><tag k="ref:mise" v="12598"/><tag k="name" v="IP"/><tag k="operator" v="Cassin S.N.C. di Cassin Teodoro &amp; C."/><tag k="brand" v="Api-Ip"/><tag k="fixme" v="This object might have been dismantled, please check"/></node><node id="227713753" version="6" lat="45.967454" lon="13.398235" action="modify"><tag k="fuel:octane_100" v="yes"/><tag k="brand" v="Agip Eni"/><tag k="amenity" v="fuel"/><tag k="fuel:diesel" v="yes"/><tag k="ref:mise" v="39515"/><tag k="name" v="Agip Eni"/><tag k="operator" v="Bff &amp; Partners di Monica Scaggiante e C. S.N.C."/><tag k="fuel:octane_95" v="yes"/><tag k="fixme" v="This object might have been dismantled, please check"/></node><node id="227220299" version="6" lat="46.072872" lon="13.214018" action="modify"><tag k="brand" v="Agip Eni"/><tag k="amenity" v="fuel"/><tag k="fuel:diesel" v="yes"/><tag k="ref:mise" v="37898"/><tag k="name" v="Agip"/><tag k="operator" v="Rub Nawaz Ahmed"/><tag k="fuel:octane_95" v="yes"/><tag k="fixme" v="This object might have been dismantled, please check"/></node><node id="228735988" version="5" lat="45.850755" lon="13.065786" action="modify"><tag k="amenity" v="fuel"/><tag k="brand" v="IP"/><tag k="operator" v="IP"/><tag k="name" v="IP"/><tag k="fixme" v="This object might have been dismantled, please check"/></node><node id="227714142" version="5" lat="46.029434" lon="12.937024" action="modify"><tag k="amenity" v="fuel"/><tag k="brand" v="Total"/><tag k="operator" v="Total"/><tag k="name" v="Total"/><tag k="fixme" v="This object might have been dismantled, please check"/></node><node id="5401362376" version="2" lat="46.0239505" lon="13.1923243" action="modify"><tag k="opening_hours" v="unknown"/><tag k="brand" v="Repsol"/><tag k="amenity" v="fuel"/><tag k="fuel:diesel" v="yes"/><tag k="ref:mise" v="24586"/><tag k="operator" v="Degano Luca"/><tag k="fuel:octane_95" v="yes"/><tag k="fixme" v="This object might have been dismantled, please check"/></node><node id="228320926" version="5" lat="45.834735" lon="13.193743" action="modify"><tag k="amenity" v="fuel"/><tag k="brand" v="IP"/><tag k="operator" v="IP"/><tag k="name" v="IP"/><tag k="fixme" v="This object might have been dismantled, please check"/></node><node id="227712938" version="5" lat="45.954924" lon="13.228054" action="modify"><tag k="amenity" v="fuel"/><tag k="brand" v="Total"/><tag k="operator" v="Total"/><tag k="name" v="Total"/><tag k="fixme" v="This object might have been dismantled, please check"/></node><node id="227711567" version="6" lat="46.173783" lon="13.066966" action="modify"><tag k="brand" v="Total Erg"/><tag k="amenity" v="fuel"/><tag k="fuel:diesel" v="yes"/><tag k="ref:mise" v="43126"/><tag k="name" v="Total"/><tag k="operator" v="Andreutti Riccardo"/><tag k="fuel:octane_95" v="yes"/><tag k="fixme" v="This object might have been dismantled, please check"/></node><node id="1432841886" version="4" lat="45.7745709" lon="12.9441042" action="modify"><tag k="ref:mise" v="25845"/><tag k="brand" v="Total Erg"/><tag k="amenity" v="fuel"/><tag k="operator" v="Gestioni Europa - Società Per Azioni"/><tag k="fixme" v="This object might have been dismantled, please check"/></node><node id="228275251" version="5" lat="46.402592" lon="12.826324" action="modify"><tag k="amenity" v="fuel"/><tag k="brand" v="Tamoil"/><tag k="operator" v="Tamoil"/><tag k="name" v="Tamoil"/><tag k="fixme" v="This object might have been dismantled, please check"/></node></osm>