<?xml version='1.0' encoding='utf-8'?>
<osm generator="OSM Conflator 1.3.1" version="0.6"><changeset><tag k="source" v="Mise" /><tag k="type" v="import" /><tag k="created_by" v="OSM Conflator 1.3.1" /></changeset><node action="modify" id="5401353481" lat="46.0853205" lon="13.0299877" version="2"><tag k="ref:mise" v="36503" /><tag k="opening_hours" v="unknown" /><tag k="amenity" v="fuel" /><tag k="brand" v="Api-Ip" /><tag k="operator" v="Singh Nirmal" /><tag k="fuel:lpg" v="yes" /></node><node action="modify" id="5401356156" lat="46.100738" lon="13.172822" version="2"><tag k="ref:mise" v="30719" /><tag k="opening_hours" v="unknown" /><tag k="amenity" v="fuel" /><tag k="brand" v="Api-Ip" /><tag k="operator" v="Singh Kulvir" /><tag k="fuel:lpg" v="yes" /></node><node action="modify" id="5851837912" lat="45.9668497" lon="12.9684758" version="1"><tag k="ref:mise" v="29740" /><tag k="amenity" v="fuel" /><tag k="brand" v="Big" /><tag k="operator" v="Big S.R.L." /><tag k="fuel:lpg" v="yes" /></node><node action="modify" id="5481155516" lat="45.9659678" lon="12.9448731" version="2"><tag k="ref:mise" v="37243" /><tag k="name" v="Repsol" /><tag k="amenity" v="fuel" /><tag k="brand" v="Repsol" /><tag k="operator" v="Snaidero Loris" /><tag k="fuel:lpg" v="yes" /></node><node action="modify" id="5401645931" lat="45.9320726" lon="13.1464827" version="1"><tag k="ref:mise" v="35710" /><tag k="opening_hours" v="unknown" /><tag k="amenity" v="fuel" /><tag k="brand" v="Repsol" /><tag k="operator" v="Coppino Mattia" /><tag k="fuel:lpg" v="yes" /></node><node action="modify" id="5493010497" lat="45.9746479" lon="13.3234364" version="2"><tag k="name" v="Agip Eni" /><tag k="amenity" v="fuel" /><tag k="brand" v="Agip Eni" /><tag k="operator" v="Auto Metano Udine di Rosso Cristian &amp; C. S.A.S." /><tag k="ref:mise" v="38130" /></node><node action="modify" id="5392972056" lat="45.9895436" lon="13.0627012" version="2"><tag k="ref:mise" v="33926" /><tag k="opening_hours" v="unknown" /><tag k="amenity" v="fuel" /><tag k="brand" v="Sia Fuel" /><tag k="operator" v="S.I.A. Engineering Construction S.R.L." /><tag k="fuel:lpg" v="yes" /></node><node action="modify" id="226912776" lat="46.1165443" lon="13.2239549" version="8"><tag k="ref:mise" v="7128" /><tag k="addr:street" v="Via Vittorio Alfieri" /><tag k="addr:housenumber" v="10" /><tag k="addr:city" v="Tavagnacco" /><tag k="addr:postcode" v="33010" /><tag k="name" v="Q8" /><tag k="amenity" v="fuel" /><tag k="brand" v="Q8" /><tag k="operator" v="S.S.C. Società Sviluppo Commerciale S.R.L. in sigla S.S.C. S. R.L." /></node><way action="modify" id="219119897" version="3"><tag k="ref:mise" v="15693" /><tag k="source:date" v="2018-04-16" /><tag k="amenity" v="fuel" /><tag k="building" v="yes" /><tag k="brand" v="Pompe Bianche" /><tag k="operator" v="Venier S.N.C. di Venier Sonia &amp; C." /><nd ref="2283202091" /><nd ref="2283202093" /><nd ref="2283202088" /><nd ref="2283202086" /><nd ref="2283202091" /></way><way action="modify" id="543992557" version="4"><tag k="ref:mise" v="34264" /><tag k="waterway" v="fuel" /><tag k="opening_hours" v="unknown" /><tag k="source:date" v="2018-04-16" /><tag k="amenity" v="fuel" /><tag k="building" v="yes" /><tag k="brand" v="Af Petroli" /><tag k="operator" v="A.F. Petroli S.p.A." /><nd ref="5258563558" /><nd ref="5258563559" /><nd ref="5258563560" /><nd ref="5258563561" /><nd ref="5258563558" /></way><way action="modify" id="377975224" version="2"><tag k="ref:mise" v="19841" /><tag k="source:date" v="2018-04-16" /><tag k="amenity" v="fuel" /><tag k="building" v="yes" /><tag k="brand" v="Agip Eni" /><tag k="operator" v="Mauro Andrea e Zuttion Catia S.N.C." /><tag k="fuel:lpg" v="yes" /><nd ref="3813835757" /><nd ref="3813835758" /><nd ref="3813835759" /><nd ref="3813835760" /><nd ref="3813835757" /></way><node action="modify" id="228736803" lat="46.1500269" lon="13.220037" version="7"><tag k="ref:mise" v="41764" /><tag k="opening_hours" v="unknown" /><tag k="name" v="IP" /><tag k="amenity" v="fuel" /><tag k="brand" v="Api-Ip" /><tag k="operator" v="Leban Michela" /></node><node action="modify" id="228033434" lat="46.0337" lon="13.246183" version="5"><tag k="ref:mise" v="18673" /><tag k="fuel:cng" v="yes" /><tag k="name" v="IP" /><tag k="amenity" v="fuel" /><tag k="brand" v="Api-Ip" /><tag k="operator" v="Padoano e Blasoni S.N.C. di Padoano Eros e C." /><tag k="fuel:lpg" v="yes" /></node><node action="modify" id="227713347" lat="45.794108" lon="13.031491" version="6"><tag k="ref:mise" v="7268" /><tag k="name" v="Q8" /><tag k="amenity" v="fuel" /><tag k="brand" v="Q8" /><tag k="operator" v="Servizi &amp; Gestioni Italia S.R.L." /><tag k="fuel:lpg" v="yes" /></node><node action="modify" id="227512242" lat="46.089789" lon="13.144852" version="6"><tag k="ref:mise" v="7267" /><tag k="name" v="Q8easy" /><tag k="amenity" v="fuel" /><tag k="brand" v="Q8" /><tag k="operator" v="Servizi &amp; Gestioni Italia S.R.L." /><tag k="fuel:lpg" v="yes" /></node><node action="modify" id="428291002" lat="46.0970422" lon="13.1974741" version="3"><tag k="ref:mise" v="31746" /><tag k="name" v="Q8" /><tag k="amenity" v="fuel" /><tag k="brand" v="Api-Ip" /><tag k="operator" v="Miani Carlo" /><tag k="fuel:lpg" v="yes" /></node><node action="modify" id="1694662891" lat="45.9430704" lon="13.1004506" version="2"><tag k="ref:mise" v="19925" /><tag k="amenity" v="fuel" /><tag k="brand" v="Api-Ip" /><tag k="operator" v="Marco Specogna &amp; C. S.A.S." /><tag k="fuel:lpg" v="yes" /></node><node action="modify" id="228275446" lat="46.415538" lon="12.928011" version="5"><tag k="name" v="Agip" /><tag k="amenity" v="fuel" /><tag k="brand" v="Agip Eni" /><tag k="operator" v="Gesticarb S.N.C. di Lucchini Gian Pietro e Luca Sonia" /><tag k="ref:mise" v="4595" /></node><node action="modify" id="227515924" lat="46.1210521" lon="13.0008388" version="6"><tag k="ref:mise" v="35819" /><tag k="name" v="IP" /><tag k="amenity" v="fuel" /><tag k="brand" v="Api-Ip" /><tag k="operator" v="Singh Manjit" /><tag k="fuel:lpg" v="yes" /></node><way action="modify" id="382208756" version="2"><tag k="ref:mise" v="4355" /><tag k="source:date" v="2018-04-16" /><tag k="amenity" v="fuel" /><tag k="building" v="yes" /><tag k="brand" v="Api-Ip" /><tag k="operator" v="Jetrent S.R.L." /><tag k="fuel:lpg" v="yes" /><nd ref="3854016798" /><nd ref="3854016799" /><nd ref="3854016800" /><nd ref="3854016801" /><nd ref="3854016798" /></way><node action="modify" id="227031820" lat="46.059463" lon="13.248428" version="5"><tag k="name" v="Agip" /><tag k="amenity" v="fuel" /><tag k="brand" v="Agip Eni" /><tag k="operator" v="Meneghin Antonino &amp; C. S.N.C." /><tag k="ref:mise" v="16463" /></node><node action="modify" id="2308268394" lat="46.144119" lon="12.978823" version="2"><tag k="name" v="Fly" /><tag k="amenity" v="fuel" /><tag k="brand" v="Esso" /><tag k="operator" v="Bff &amp; Partners di Monica Scaggiante e C. S.N.C." /><tag k="ref:mise" v="42727" /></node><way action="modify" id="459086971" version="2"><tag k="ref:mise" v="29406" /><tag k="fuel:hgv_diesel" v="yes" /><tag k="fuel:octane_95" v="yes" /><tag k="source:date" v="2018-04-16" /><tag k="name" v="Total" /><tag k="amenity" v="fuel" /><tag k="brand" v="Total Erg" /><tag k="operator" v="Som S.p.A." /><tag k="fuel:diesel" v="yes" /><nd ref="4550029323" /><nd ref="4550029324" /><nd ref="4550029325" /><nd ref="4550029326" /><nd ref="4550029327" /><nd ref="4550029328" /><nd ref="4550029323" /></way><node action="modify" id="228304078" lat="45.965246" lon="12.964468" version="5"><tag k="name" v="Tamoil" /><tag k="amenity" v="fuel" /><tag k="brand" v="Tamoil" /><tag k="operator" v="Tigi S.A.S. di Tribos Giovanni &amp; C." /><tag k="ref:mise" v="9575" /></node><node action="modify" id="228304085" lat="45.945988" lon="12.976742" version="5"><tag k="ref:mise" v="13689" /><tag k="name" v="Agip" /><tag k="amenity" v="fuel" /><tag k="brand" v="Agip Eni" /><tag k="operator" v="Pituello Stefano" /><tag k="fuel:lpg" v="yes" /></node><node action="modify" id="1995519428" lat="46.3629018" lon="13.1354547" version="2"><tag k="name" v="Oil Italia" /><tag k="amenity" v="fuel" /><tag k="brand" v="Oil Italia" /><tag k="operator" v="Oil Italia S.R.L." /><tag k="ref:mise" v="26568" /></node><node action="modify" id="3067703462" lat="45.7596607" lon="13.0300079" version="3"><tag k="name" v="Ecotec" /><tag k="amenity" v="fuel" /><tag k="fuel:lpg" v="yes" /><tag k="operator" v="Desmo Immobiliare S.R.L." /><tag k="ref:mise" v="22629" /></node><way action="modify" id="379089730" version="3"><tag k="ref:mise" v="6856" /><tag k="source:date" v="2018-04-16" /><tag k="name" v="Q8" /><tag k="amenity" v="fuel" /><tag k="building" v="yes" /><tag k="brand" v="Q8" /><tag k="operator" v="Sclippa Lino" /><tag k="fuel:lpg" v="yes" /><nd ref="3824587890" /><nd ref="3824587891" /><nd ref="3824587892" /><nd ref="3824587893" /><nd ref="3824587894" /><nd ref="3824587895" /><nd ref="3824587890" /></way><node action="modify" id="228747752" lat="46.2812707" lon="13.0806717" version="6"><tag k="name" v="Agip" /><tag k="amenity" v="fuel" /><tag k="brand" v="Agip Eni" /><tag k="operator" v="Be.Oil di Fabbro Edoardo &amp; C. S.A.S." /><tag k="ref:mise" v="41312" /></node><node action="modify" id="227920721" lat="46.0630959" lon="13.2273044" version="7"><tag k="name" v="Agip" /><tag k="amenity" v="fuel" /><tag k="brand" v="Agip Eni" /><tag k="operator" v="Filling Station Motel S.R.L." /><tag k="ref:mise" v="40623" /></node><node action="modify" id="1835537630" lat="46.0302138" lon="13.1028162" version="4"><tag k="ref:mise" v="36502" /><tag k="amenity" v="fuel" /><tag k="brand" v="Api-Ip" /><tag k="operator" v="Singh Sandip" /><tag k="fuel:lpg" v="yes" /></node><node action="modify" id="1432841888" lat="45.8078236" lon="13.0944883" version="4"><tag k="ref:mise" v="28891" /><tag k="name" v="Q8" /><tag k="amenity" v="fuel" /><tag k="brand" v="Q8" /><tag k="operator" v="Zu.Pe. S.N.C. di Zuliani Maurizio &amp; C." /><tag k="fuel:lpg" v="yes" /></node><node action="modify" id="228249728" lat="46.420313" lon="13.021059" version="6"><tag k="ref:mise" v="7269" /><tag k="name" v="Q8 Easy" /><tag k="amenity" v="fuel" /><tag k="brand" v="Q8" /><tag k="operator" v="Servizi &amp; Gestioni Italia S.R.L." /><tag k="fuel:lpg" v="yes" /></node><node action="modify" id="227715325" lat="46.104896" lon="13.261839" version="5"><tag k="name" v="Shell" /><tag k="amenity" v="fuel" /><tag k="brand" v="Total Erg" /><tag k="operator" v="f.lli Giliberti S.N.C. di Giliberti Luca &amp; Tiziano" /><tag k="ref:mise" v="7366" /></node><node action="modify" id="228313505" lat="46.0519398" lon="13.0500299" version="6"><tag k="name" v="IP" /><tag k="amenity" v="fuel" /><tag k="brand" v="Api-Ip" /><tag k="operator" v="Som S.p.A." /><tag k="ref:mise" v="22114" /></node><node action="modify" id="228090953" lat="46.039764" lon="13.253045" version="5"><tag k="ref:mise" v="6987" /><tag k="name" v="Total" /><tag k="amenity" v="fuel" /><tag k="brand" v="Api-Ip" /><tag k="operator" v="Jetrent S.R.L." /><tag k="fuel:lpg" v="yes" /></node><node action="modify" id="228737002" lat="46.1600694" lon="13.2107919" version="7"><tag k="fuel:e10" v="no" /><tag k="fuel:octane_100" v="no" /><tag k="fuel:biodiesel" v="no" /><tag k="fuel:biogas" v="no" /><tag k="fuel:octane_91" v="no" /><tag k="fuel:cng" v="no" /><tag k="fuel:hgv_diesel" v="no" /><tag k="amenity" v="fuel" /><tag k="fuel:e85" v="no" /><tag k="fuel:1_50" v="no" /><tag k="brand" v="Esso" /><tag k="operator" v="Sostero f.lli S.N.C. di Sostero Marco &amp; Massimo" /><tag k="fuel:electricity" v="no" /><tag k="fuel:gtl_diesel" v="no" /><tag k="fuel:diesel" v="yes" /><tag k="ref:mise" v="21028" /><tag k="name" v="Esso" /><tag k="fuel:octane_98" v="yes" /><tag k="fuel:lpg" v="no" /><tag k="fuel:octane_95" v="yes" /><tag k="fuel:1_25" v="no" /></node><node action="modify" id="228737436" lat="46.2246404" lon="13.0108276" version="7"><tag k="name" v="Api-Ip" /><tag k="amenity" v="fuel" /><tag k="brand" v="Api-Ip" /><tag k="operator" v="Atelier S.N.C. di Vincenti Christian e Patat Daniele" /><tag k="ref:mise" v="25713" /></node><way action="modify" id="377840207" version="2"><tag k="ref:mise" v="26566" /><tag k="source:date" v="2018-04-16" /><tag k="amenity" v="fuel" /><tag k="building" v="yes" /><tag k="brand" v="Oil Italia" /><tag k="operator" v="Oil Italia S.R.L." /><nd ref="3812426893" /><nd ref="3812426894" /><nd ref="3812426895" /><nd ref="3812426896" /><nd ref="3812426893" /></way><node action="modify" id="228748126" lat="45.891711" lon="13.251534" version="5"><tag k="name" v="Esso" /><tag k="amenity" v="fuel" /><tag k="brand" v="Api-Ip" /><tag k="operator" v="Savchuk Tetyana" /><tag k="ref:mise" v="42794" /></node><way action="modify" id="78627247" version="5"><tag k="ref:mise" v="14213" /><tag k="source:date" v="2018-04-16" /><tag k="name" v="Eni" /><tag k="amenity" v="fuel" /><tag k="building" v="yes" /><tag k="brand" v="Agip Eni" /><tag k="operator" v="Zamolo S.A.S. di Zamolo Giulio &amp; C." /><nd ref="922442449" /><nd ref="922442508" /><nd ref="922442635" /><nd ref="922442536" /><nd ref="922442449" /></way><node action="modify" id="228305683" lat="46.5150276" lon="12.8657683" version="6"><tag k="name" v="IP" /><tag k="amenity" v="fuel" /><tag k="brand" v="Agip Eni" /><tag k="operator" v="Savors di Menis Cristina e Reputin Vittorio S.N.C. (si Legga L'accento Circonflesso Sulla O Della Parola Savors)" /><tag k="ref:mise" v="40674" /></node><node action="modify" id="227513615" lat="46.074187" lon="13.2043" version="5"><tag k="name" v="Esso" /><tag k="amenity" v="fuel" /><tag k="brand" v="Esso" /><tag k="operator" v="Grattoni Nicola &amp; C. S.A.S." /><tag k="ref:mise" v="19094" /></node><node action="modify" id="227710331" lat="46.3726072" lon="13.0648012" version="6"><tag k="ref:mise" v="14884" /><tag k="fixme" v="name" /><tag k="name" v="Shell" /><tag k="amenity" v="fuel" /><tag k="brand" v="Q8" /><tag k="operator" v="Area di Servizio Shell di Marta Ivan &amp; C. S.A.S." /><tag k="fuel:lpg" v="yes" /></node><node action="modify" id="228303012" lat="45.814373" lon="13.340154" version="6"><tag k="fixme" v="name" /><tag k="amenity" v="fuel" /><tag k="name" v="Agip" /><tag k="operator" v="Gruppo Distribuzione Petroli S.R.L." /><tag k="ref:mise" v="41411" /></node><node action="modify" id="228039912" lat="46.052194" lon="13.238395" version="7"><tag k="name" v="Total Erg" /><tag k="amenity" v="fuel" /><tag k="brand" v="Total Erg" /><tag k="operator" v="Covacich Luciano S.N.C. di Covacich L. &amp; C." /><tag k="ref:mise" v="15815" /></node><node action="modify" id="227712313" lat="46.093014" lon="13.191952" version="5"><tag k="ref:mise" v="40554" /><tag k="name" v="Shell" /><tag k="amenity" v="fuel" /><tag k="brand" v="Agip Eni" /><tag k="operator" v="Quaglia Cristina" /><tag k="fuel:lpg" v="yes" /></node><node action="modify" id="228060080" lat="45.90468" lon="13.24647" version="5"><tag k="ref:mise" v="5239" /><tag k="name" v="OMV" /><tag k="amenity" v="fuel" /><tag k="brand" v="San Marco Petroli" /><tag k="operator" v="San Marco Petroli Distribuzione S.R.L." /><tag k="fuel:lpg" v="yes" /></node><node action="modify" id="228311787" lat="46.083873" lon="13.180751" version="5"><tag k="name" v="Agip" /><tag k="amenity" v="fuel" /><tag k="brand" v="Agip Eni" /><tag k="operator" v="Iper Montebello S.p.A." /><tag k="ref:mise" v="42442" /></node><node action="modify" id="218404254" lat="46.0341325" lon="13.2665359" version="7"><tag k="ref:mise" v="17020" /><tag k="fixme" v="name" /><tag k="fuel:cng" v="yes" /><tag k="name" v="Metano" /><tag k="amenity" v="fuel" /><tag k="operator" v="Auto Metano Udine di Rosso Cristian &amp; C. S.A.S." /></node><node action="modify" id="228303011" lat="45.829633" lon="13.331571" version="5"><tag k="name" v="Agip" /><tag k="amenity" v="fuel" /><tag k="brand" v="Agip Eni" /><tag k="operator" v="Veca S.A.S. di Caprioli Antonio &amp; C." /><tag k="ref:mise" v="26733" /></node><node action="modify" id="633404885" lat="46.0283906" lon="13.2588738" version="2"><tag k="name" v="H6" /><tag k="amenity" v="fuel" /><tag k="brand" v="Repsol" /><tag k="operator" v="Ro.Ma S.N.C. di Adami Roberto &amp; C." /><tag k="ref:mise" v="10689" /></node><node action="modify" id="5393105568" lat="45.8223266" lon="13.2149654" version="1"><tag k="ref:mise" v="7283" /><tag k="opening_hours" v="unknown" /><tag k="amenity" v="fuel" /><tag k="brand" v="Q8" /><tag k="operator" v="Servizi &amp; Gestioni Italia S.R.L." /><tag k="fuel:lpg" v="yes" /></node><node action="modify" id="228319924" lat="46.078794" lon="13.301219" version="6"><tag k="name" v="SM Petroli" /><tag k="amenity" v="fuel" /><tag k="brand" v="San Marco Petroli" /><tag k="operator" v="Bieffe di Policella Roberto &amp; C. S.N.C." /><tag k="ref:mise" v="5077" /></node><node action="modify" id="228318707" lat="46.058596" lon="13.382914" version="5"><tag k="name" v="IP" /><tag k="amenity" v="fuel" /><tag k="brand" v="Api-Ip" /><tag k="operator" v="Full Service di Margutti Edi e Casella Lucia S.N.C." /><tag k="ref:mise" v="19170" /></node><node action="modify" id="228313908" lat="45.944473" lon="13.177017" version="5"><tag k="name" v="IP" /><tag k="amenity" v="fuel" /><tag k="brand" v="Esso" /><tag k="operator" v="Gattesco f.lli di Gattesco Ferruccio e Fiorenzo S.N.C." /><tag k="ref:mise" v="31152" /></node><node action="modify" id="227710475" lat="46.202917" lon="13.117799" version="5"><tag k="name" v="Total" /><tag k="amenity" v="fuel" /><tag k="brand" v="Total Erg" /><tag k="operator" v="P&amp;c Società a Responsabilità Limitata Semplificata" /><tag k="ref:mise" v="30937" /></node><node action="modify" id="228171657" lat="45.7713341" lon="13.0234252" version="7"><tag k="name" v="Q8" /><tag k="amenity" v="fuel" /><tag k="brand" v="Q8" /><tag k="operator" v="Servizi &amp; Gestioni Italia S.R.L." /><tag k="ref:mise" v="6502" /></node><node action="modify" id="3497741651" lat="46.0220863" lon="13.2399216" version="2"><tag k="ref:mise" v="35394" /><tag k="fuel:cng" v="yes" /><tag k="name" v="Costantin" /><tag k="amenity" v="fuel" /><tag k="brand" v="Costantin" /><tag k="operator" v="Commercio Petroli S.R.L." /></node><node action="modify" id="228309462" lat="45.788587" lon="13.013118" version="6"><tag k="ref:mise" v="4356" /><tag k="name" v="IP" /><tag k="amenity" v="fuel" /><tag k="brand" v="Api-Ip" /><tag k="operator" v="Jetrent S.R.L." /><tag k="fuel:lpg" v="yes" /></node><node action="modify" id="227711567" lat="46.173783" lon="13.066966" version="5"><tag k="name" v="Total" /><tag k="amenity" v="fuel" /><tag k="brand" v="Total Erg" /><tag k="operator" v="P&amp;c Società a Responsabilità Limitata Semplificata" /><tag k="ref:mise" v="39142" /></node><node action="modify" id="1755935409" lat="45.9647954" lon="13.1922032" version="2"><tag k="ref:mise" v="14665" /><tag k="amenity" v="fuel" /><tag k="brand" v="Agip Eni" /><tag k="operator" v="Bidoli Devis" /><tag k="fuel:lpg" v="yes" /></node><node action="modify" id="228316714" lat="45.841342" lon="13.097055" version="5"><tag k="ref:mise" v="25885" /><tag k="name" v="Agip" /><tag k="amenity" v="fuel" /><tag k="brand" v="Agip Eni" /><tag k="operator" v="Zanini Milvia" /><tag k="fuel:lpg" v="yes" /></node><node action="modify" id="227512449" lat="46.085585" lon="12.956357" version="5"><tag k="ref:mise" v="26915" /><tag k="name" v="Total" /><tag k="amenity" v="fuel" /><tag k="brand" v="Total Erg" /><tag k="operator" v="Gaspardo Silvano &amp; Serafini S.N.C." /><tag k="fuel:lpg" v="yes" /></node><node action="modify" id="2136193947" lat="46.0860241" lon="13.3630095" version="5"><tag k="ref:mise" v="38644" /><tag k="fuel:octane_98" v="yes" /><tag k="addr:street" v="Via Nazionale" /><tag k="addr:housenumber" v="38" /><tag k="fuel:diesel" v="yes" /><tag k="name" v="Fly" /><tag k="amenity" v="fuel" /><tag k="brand" v="Total Erg" /><tag k="operator" v="Bergamasco Michele" /><tag k="fuel:octane_95" v="yes" /></node><node action="modify" id="2073432284" lat="45.9541103" lon="13.3949501" version="2"><tag k="ref:mise" v="42033" /><tag k="amenity" v="fuel" /><tag k="brand" v="Esso" /><tag k="operator" v="Bff &amp; Partners di Monica Scaggiante e C. S.N.C." /></node><node action="modify" id="5392731901" lat="46.41746" lon="12.5847248" version="2"><tag k="ref:mise" v="37517" /><tag k="opening_hours" v="unknown" /><tag k="name" v="Api-Ip" /><tag k="amenity" v="fuel" /><tag k="brand" v="Api-Ip" /><tag k="operator" v="D'andrea Stefano" /></node><node action="modify" id="227515919" lat="46.148824" lon="12.988964" version="5"><tag k="ref:mise" v="4238" /><tag k="name" v="Agip" /><tag k="amenity" v="fuel" /><tag k="brand" v="Agip Eni" /><tag k="operator" v="Buttazzoni Aleardo di Moroso Paolo &amp; C. S.A.S" /><tag k="fuel:lpg" v="yes" /></node><node action="modify" id="227220984" lat="45.8825009" lon="13.2582886" version="7"><tag k="ref:mise" v="3569" /><tag k="name" v="Agip" /><tag k="amenity" v="fuel" /><tag k="brand" v="Agip Eni" /><tag k="operator" v="Buldo Orlando" /><tag k="fuel:lpg" v="yes" /></node><node action="modify" id="228736615" lat="46.188785" lon="13.158531" version="5"><tag k="name" v="Q8" /><tag k="amenity" v="fuel" /><tag k="brand" v="Total Erg" /><tag k="operator" v="Agrofriul S.R.L." /><tag k="ref:mise" v="7000" /></node><node action="modify" id="227712135" lat="46.1947289" lon="13.2569283" version="7"><tag k="name" v="Eni" /><tag k="amenity" v="fuel" /><tag k="brand" v="Agip Eni" /><tag k="operator" v="Meneghin Federico e C. S.N.C." /><tag k="ref:mise" v="16630" /></node><node action="modify" id="227515927" lat="46.1118909" lon="13.031008" version="6"><tag k="ref:mise" v="12383" /><tag k="name" v="Agip" /><tag k="amenity" v="fuel" /><tag k="brand" v="Agip Eni" /><tag k="operator" v="D'angelo Ivan" /><tag k="fuel:lpg" v="yes" /></node><node action="modify" id="625582595" lat="45.7179771" lon="13.0500352" version="3"><tag k="name" v="H6" /><tag k="amenity" v="fuel" /><tag k="fuel:lpg" v="yes" /><tag k="operator" v="Vigolo Maurizio" /><tag k="ref:mise" v="16864" /></node><node action="modify" id="228766240" lat="45.695914" lon="13.068827" version="6"><tag k="ref:mise" v="15502" /><tag k="seamark:type" v="small_craft_facility" /><tag k="name" v="IP" /><tag k="amenity" v="fuel" /><tag k="seamark:small_craft_facility:category" v="fuel_station" /><tag k="brand" v="Api-Ip" /><tag k="operator" v="Aprilia Marittima 2000 S.p.A." /></node><node action="modify" id="228302439" lat="46.0248" lon="13.168573" version="5"><tag k="name" v="Agip" /><tag k="amenity" v="fuel" /><tag k="brand" v="Agip Eni" /><tag k="operator" v="f.lli Rinaldi S.N.C. di Matteo e Paolo Rinaldi" /><tag k="ref:mise" v="5633" /></node><node action="modify" id="228309679" lat="45.969665" lon="13.113867" version="6"><tag k="ref:mise" v="19489" /><tag k="name" v="IP" /><tag k="amenity" v="fuel" /><tag k="brand" v="Api-Ip" /><tag k="operator" v="Eredi Cinello Renato S.A.S. di Cinello Franco &amp; C." /><tag k="fuel:lpg" v="yes" /></node><way action="modify" id="231899871" version="2"><tag k="ref:mise" v="7326" /><tag k="source:date" v="2018-04-16" /><tag k="amenity" v="fuel" /><tag k="building" v="yes" /><tag k="brand" v="Agip Eni" /><tag k="operator" v="Som S.p.A." /><nd ref="2402250533" /><nd ref="2402250538" /><nd ref="2402250536" /><nd ref="2402250532" /><nd ref="2402250533" /></way><node action="modify" id="228734505" lat="45.9310661" lon="13.2790458" version="9"><tag k="ref:mise" v="25701" /><tag k="addr:street" v="Via Zompicco" /><tag k="addr:housenumber" v="93" /><tag k="addr:postcode" v="33050" /><tag k="name" v="IP" /><tag k="amenity" v="fuel" /><tag k="operator" v="S.p.A.ngaro Stefano e C. S.A.S." /><tag k="addr:country" v="IT" /></node><node action="modify" id="228314502" lat="46.21022" lon="13.10272" version="5"><tag k="name" v="Esso" /><tag k="amenity" v="fuel" /><tag k="brand" v="Esso" /><tag k="operator" v="Kan S.A.S. di Franco Nicola &amp; C." /><tag k="ref:mise" v="37779" /></node><way action="modify" id="231899864" version="2"><tag k="ref:mise" v="28059" /><tag k="source:date" v="2018-04-16" /><tag k="name" v="Esso" /><tag k="amenity" v="fuel" /><tag k="building" v="yes" /><tag k="brand" v="Esso" /><tag k="operator" v="A. &amp; B. S.A.S. di Alvaro Alessandro &amp; C." /><nd ref="2402250460" /><nd ref="2402250462" /><nd ref="2402250461" /><nd ref="2402250459" /><nd ref="2402250460" /></way><way action="modify" id="565103815" version="1"><tag k="ref:mise" v="28686" /><tag k="amenity" v="fuel" /><tag k="brand" v="Agip Eni" /><tag k="operator" v="Emmevu di Pierro Vincenzo" /><nd ref="5443317499" /><nd ref="5443317500" /><nd ref="5443317501" /><nd ref="5443317502" /><nd ref="5443317503" /><nd ref="5443317504" /><nd ref="5443317505" /><nd ref="5443317506" /><nd ref="5443317507" /><nd ref="4437556373" /><nd ref="1166466373" /><nd ref="4437556376" /><nd ref="4437556374" /><nd ref="4437556375" /><nd ref="1166466691" /><nd ref="5443317497" /><nd ref="1166467000" /><nd ref="1166467161" /><nd ref="1166466943" /><nd ref="5443317499" /></way><node id="-1" lat="45.81431" lon="13.3401" version="1"><tag k="ref:mise" v="10160" /><tag k="operator" v="Chiarotto Paola" /></node><node id="-2" lat="46.00887" lon="13.33081" version="1"><tag k="ref:mise" v="14073" /><tag k="brand" v="Total Erg" /><tag k="operator" v="Gariup Emanuela" /></node><node id="-3" lat="45.89021" lon="13.03475" version="1"><tag k="ref:mise" v="27651" /><tag k="brand" v="Api-Ip" /><tag k="operator" v="Degano Cesare" /><tag k="fuel:lpg" v="yes" /></node><node id="-4" lat="46.14416" lon="12.97884" version="1"><tag k="ref:mise" v="37251" /><tag k="brand" v="Esso" /><tag k="operator" v="Arena Edoardo - Stazione di Servizio Esso" /></node><node id="-5" lat="45.89166" lon="13.25145" version="1"><tag k="ref:mise" v="37901" /><tag k="brand" v="Api-Ip" /><tag k="operator" v="Rub Nawaz Ahmed" /></node><node id="-6" lat="45.69728" lon="13.14279" version="1"><tag k="ref:mise" v="38395" /><tag k="brand" v="AF Petroli" /><tag k="operator" v="A.F. Petroli S.p.A." /></node><node id="-7" lat="45.95401" lon="13.39483" version="1"><tag k="ref:mise" v="38794" /><tag k="brand" v="Esso" /><tag k="operator" v="Robin's S.A.S. di Mucchiut Sabrina e C." /></node><node id="-8" lat="46.09237" lon="13.42034" version="1"><tag k="ref:mise" v="41156" /><tag k="brand" v="Agip Eni" /><tag k="operator" v="Costaperaria Monica" /></node><node id="-9" lat="46.10703" lon="13.22027" version="1"><tag k="ref:mise" v="41414" /><tag k="brand" v="Api-Ip" /><tag k="operator" v="Talarico Monica" /></node><node id="-10" lat="46.09704" lon="13.19753" version="1"><tag k="ref:mise" v="41516" /><tag k="brand" v="Api-Ip" /><tag k="operator" v="Chand Lal" /><tag k="fuel:lpg" v="yes" /></node><node id="-11" lat="46.06452" lon="13.21204" version="1"><tag k="ref:mise" v="41788" /><tag k="brand" v="Agip Eni" /><tag k="operator" v="Mian Renato" /></node><node id="-12" lat="45.80281" lon="13.22762" version="1"><tag k="ref:mise" v="42415" /><tag k="operator" v="Cantieri Marina San Giorgio S.p.A." /></node><node id="-13" lat="46.15004" lon="13.22008" version="1"><tag k="ref:mise" v="7232" /><tag k="brand" v="Api-Ip" /><tag k="operator" v="Stazione di Servizio di Morello Gil &amp; C. S.N.C." /></node></osm>